{"type":"FeatureCollection","features":[{"type":"Feature","geometry":{"type":"Point","coordinates":[11.8403416,54.1417237]},"properties":{"maxwidth":"1.2"}},{"type":"Feature","geometry":{"type":"Point","coordinates":[11.9061335,54.1076081]},"properties":{"maxwidth":"1"}},{"type":"Feature","geometry":{"type":"Point","coordinates":[11.8442848,54.1422637]},"properties":{"maxwidth":"0.6"}},{"type":"Feature","geometry":{"type":"Point","coordinates":[11.7952717,54.070938]},"properties":{"maxwidth":"1.2"}},{"type":"Feature","geometry":{"type":"Point","coordinates":[11.190563,54.4218328]},"properties":{"maxweight":"20000"}},{"type":"Feature","geometry":{"type":"Point","coordinates":[11.9982923,54.1743359]},"properties":{"maxwidth":"1.5"}},{"type":"Feature","geometry":{"type":"Point","coordinates":[11.9953423,54.1156855]},"properties":{"hgv":"private"}},{"type":"Feature","geometry":{"type":"Point","coordinates":[11.1897555,54.4212022]},"properties":{"maxweight":"20000"}},{"type":"Feature","geometry":{"type":"Point","coordinates":[11.0098444,54.4649387]},"properties":{"maxheight":"1.8"}},{"type":"Feature","geometry":{"type":"Point","coordinates":[11.8707957,54.1262364]},"properties":{"maxheight":"1.6","maxwidth":"4"}},{"type":"Feature","geometry":{"type":"Point","coordinates":[11.7283222,54.1522445]},"properties":{"maxwidth":"0.5"}},{"type":"Feature","geometry":{"type":"Point","coordinates":[11.7283428,54.1523546]},"properties":{"maxwidth":"0.5"}},{"type":"Feature","geometry":{"type":"Point","coordinates":[11.7282715,54.1523816]},"properties":{"maxwidth":"0.5"}},{"type":"Feature","geometry":{"type":"Point","coordinates":[11.9780958,54.0814925]},"properties":{"maxwidth":"6"}},{"type":"Feature","geometry":{"type":"Point","coordinates":[11.0437267,54.0026038]},"properties":{"maxheight":"2"}},{"type":"Feature","geometry":{"type":"Point","coordinates":[11.8688889,54.1472784]},"properties":{"maxwidth":"1"}},{"type":"Feature","geometry":{"type":"Point","coordinates":[11.8692926,54.1473679]},"properties":{"maxwidth":"1"}},{"type":"Feature","geometry":{"type":"Point","coordinates":[11.0461985,54.5232239]},"properties":{"maxheight":"1.9"}},{"type":"Feature","geometry":{"type":"Point","coordinates":[11.0294722,54.1732219]},"properties":{"maxheight":"2.5"}},{"type":"Feature","geometry":{"type":"Point","coordinates":[11.0287055,54.1727526]},"properties":{"maxheight":"2.5"}},{"type":"Feature","geometry":{"type":"Point","coordinates":[11.9143621,54.1043454]},"properties":{"maxwidth":"1"}},{"type":"Feature","geometry":{"type":"Point","coordinates":[11.7478825,54.1521621]},"properties":{"maxheight":"2"}},{"type":"Feature","geometry":{"type":"Point","coordinates":[11.0813042,54.5307261]},"properties":{"maxlength":"6"}},{"type":"Feature","geometry":{"type":"Point","coordinates":[11.9018941,54.101316]},"properties":{"maxheight":"2","maxwidth":"4"}},{"type":"Feature","geometry":{"type":"Point","coordinates":[11.8688382,54.1474656]},"properties":{"maxwidth":"3"}},{"type":"Feature","geometry":{"type":"Point","coordinates":[11.8692243,54.1475239]},"properties":{"maxwidth":"3"}},{"type":"Feature","geometry":{"type":"Point","coordinates":[11.8668683,54.1471024]},"properties":{"maxwidth":"1"}},{"type":"Feature","geometry":{"type":"Point","coordinates":[11.8669823,54.1469248]},"properties":{"maxwidth":"0.8"}},{"type":"Feature","geometry":{"type":"Point","coordinates":[11.8684159,54.1470831]},"properties":{"maxwidth":"4"}},{"type":"Feature","geometry":{"type":"Point","coordinates":[11.8549799,54.1451171]},"properties":{"maxwidth":"1"}},{"type":"Feature","geometry":{"type":"Point","coordinates":[11.8565167,54.1453251]},"properties":{"maxwidth":"1"}},{"type":"Feature","geometry":{"type":"Point","coordinates":[11.8565549,54.1452454]},"properties":{"maxwidth":"0.8"}},{"type":"Feature","geometry":{"type":"Point","coordinates":[11.8581392,54.1454987]},"properties":{"maxwidth":"0.8"}},{"type":"Feature","geometry":{"type":"Point","coordinates":[11.8580858,54.1455655]},"properties":{"maxwidth":"1"}},{"type":"Feature","geometry":{"type":"Point","coordinates":[11.8610125,54.1459766]},"properties":{"maxwidth":"0.8"}},{"type":"Feature","geometry":{"type":"Point","coordinates":[11.860952,54.1460947]},"properties":{"maxwidth":"1"}},{"type":"Feature","geometry":{"type":"Point","coordinates":[11.8550244,54.1450419]},"properties":{"maxwidth":"0.8"}},{"type":"Feature","geometry":{"type":"Point","coordinates":[11.8629887,54.1463035]},"properties":{"maxwidth":"0.8"}},{"type":"Feature","geometry":{"type":"Point","coordinates":[11.8629042,54.1464118]},"properties":{"maxwidth":"1"}},{"type":"Feature","geometry":{"type":"Point","coordinates":[11.864658,54.1467024]},"properties":{"maxwidth":"1"}},{"type":"Feature","geometry":{"type":"Point","coordinates":[11.8647126,54.146594]},"properties":{"maxwidth":"0.8"}},{"type":"Feature","geometry":{"type":"Point","coordinates":[11.8533745,54.1448622]},"properties":{"maxwidth":"0.8"}},{"type":"Feature","geometry":{"type":"Point","coordinates":[11.8551344,54.1449192]},"properties":{"maxwidth":"5"}},{"type":"Feature","geometry":{"type":"Point","coordinates":[11.6678704,54.0293196]},"properties":{"maxwidth":"1.2"}},{"type":"Feature","geometry":{"type":"Point","coordinates":[11.8701813,54.1265934]},"properties":{"maxheight":"1.6","maxwidth":"4"}},{"type":"Feature","geometry":{"type":"Point","coordinates":[11.245888,54.4791564]},"properties":{"maxheight":"1.9"}},{"type":"Feature","geometry":{"type":"Point","coordinates":[11.9211705,54.0957205]},"properties":{"maxwidth":"1"}},{"type":"Feature","geometry":{"type":"Point","coordinates":[11.9206709,54.0955695]},"properties":{"maxwidth":"1"}},{"type":"Feature","geometry":{"type":"Point","coordinates":[11.9231191,54.0976393]},"properties":{"maxwidth":"1"}},{"type":"Feature","geometry":{"type":"Point","coordinates":[11.9255577,54.1010445]},"properties":{"maxwidth":"1.5"}},{"type":"Feature","geometry":{"type":"Point","coordinates":[11.9224637,54.0982356]},"properties":{"maxwidth":"1"}},{"type":"Feature","geometry":{"type":"Point","coordinates":[11.9174509,54.1026028]},"properties":{"maxwidth":"1"}},{"type":"Feature","geometry":{"type":"Point","coordinates":[11.919037,54.1063724]},"properties":{"maxwidth":"0.6"}},{"type":"Feature","geometry":{"type":"Point","coordinates":[11.0438832,54.0026177]},"properties":{"maxwidth":"2"}},{"type":"Feature","geometry":{"type":"Point","coordinates":[11.7725139,54.1502991]},"properties":{"maxheight":"2"}},{"type":"Feature","geometry":{"type":"Point","coordinates":[11.9667477,54.1528464]},"properties":{"maxweight":"10"}},{"type":"Feature","geometry":{"type":"Point","coordinates":[11.6934761,54.1269092]},"properties":{"maxweight":"10"}},{"type":"Feature","geometry":{"type":"Point","coordinates":[11.0231709,54.3566046]},"properties":{"maxweight":"7.5"}},{"type":"Feature","geometry":{"type":"Point","coordinates":[11.0381908,54.299594]},"properties":{"maxweight":"5.5"}},{"type":"Feature","geometry":{"type":"Point","coordinates":[11.1093177,54.4431477]},"properties":{"maxweight":"7.5"}},{"type":"Feature","geometry":{"type":"Point","coordinates":[11.7350053,54.1111247]},"properties":{"maxweight":"10"}},{"type":"Feature","geometry":{"type":"Point","coordinates":[11.7618372,54.1315695]},"properties":{"maxweight":"20"}},{"type":"Feature","geometry":{"type":"Point","coordinates":[11.9473636,54.0418912]},"properties":{"maxweight":"10 t"}},{"type":"Feature","geometry":{"type":"Point","coordinates":[11.6945625,54.1274724]},"properties":{"maxweight":"2.5"}},{"type":"Feature","geometry":{"type":"Point","coordinates":[11.1904686,54.0004804]},"properties":{"hgv":"destination","goods":"destination","maxweight":"12"}},{"type":"Feature","geometry":{"type":"Point","coordinates":[11.1952022,54.4610104]},"properties":{"maxweight":"6"}},{"type":"Feature","geometry":{"type":"Point","coordinates":[11.0658906,54.1956955]},"properties":{"maxweight":"2 t"}},{"type":"Feature","geometry":{"type":"Point","coordinates":[11.983603,54.0571009]},"properties":{"maxweight":"10"}},{"type":"Feature","geometry":{"type":"Point","coordinates":[11.9656662,54.0584164]},"properties":{"maxweight":"10"}},{"type":"Feature","geometry":{"type":"Point","coordinates":[11.9304124,54.0590926]},"properties":{"maxweight":"10"}},{"type":"Feature","geometry":{"type":"Point","coordinates":[11.9840407,54.0368966]},"properties":{"maxweight":"10"}},{"type":"Feature","geometry":{"type":"Point","coordinates":[11.9004795,54.0713255]},"properties":{"hgv":"no"}},{"type":"Feature","geometry":{"type":"Point","coordinates":[11.7165144,54.1277574]},"properties":{"maxweight":"20"}},{"type":"Feature","geometry":{"type":"Point","coordinates":[11.8266079,54.0630787]},"properties":{"maxweight":"10"}},{"type":"Feature","geometry":{"type":"Point","coordinates":[11.8855451,54.080229]},"properties":{"maxweight":"10"}},{"type":"Feature","geometry":{"type":"Point","coordinates":[11.9934191,54.0598528]},"properties":{"maxweight":"10"}},{"type":"Feature","geometry":{"type":"Point","coordinates":[11.8249591,54.0515801]},"properties":{"maxweight":"10"}},{"type":"Feature","geometry":{"type":"Point","coordinates":[11.7779854,54.0748701]},"properties":{"maxweight":"10"}},{"type":"Feature","geometry":{"type":"Point","coordinates":[11.9585417,54.0597917]},"properties":{"maxweight":"10"}},{"type":"Feature","geometry":{"type":"Point","coordinates":[11.9850893,54.0403353]},"properties":{"maxweight":"10"}},{"type":"Feature","geometry":{"type":"Point","coordinates":[11.9596923,54.1415738]},"properties":{"maxweight":"10"}},{"type":"Feature","geometry":{"type":"Point","coordinates":[11.9405253,54.0585858]},"properties":{"maxweight":"10"}},{"type":"Feature","geometry":{"type":"Point","coordinates":[11.9824482,54.1402083]},"properties":{"maxweight":"5"}},{"type":"Feature","geometry":{"type":"Point","coordinates":[11.8043375,54.0333682]},"properties":{"maxweight":"10"}},{"type":"Feature","geometry":{"type":"Point","coordinates":[11.9907253,54.0714603]},"properties":{"maxweight":"10"}},{"type":"Feature","geometry":{"type":"Point","coordinates":[11.9857911,54.0575823]},"properties":{"maxweight":"10"}},{"type":"Feature","geometry":{"type":"Point","coordinates":[11.9017316,54.1060856]},"properties":{"hgv":"no","goods":"destination"}},{"type":"Feature","geometry":{"type":"Point","coordinates":[11.9486473,54.0604881]},"properties":{"maxweight":"10"}},{"type":"Feature","geometry":{"type":"Point","coordinates":[11.2200535,54.4908982]},"properties":{"maxheight":"4"}},{"type":"Feature","geometry":{"type":"Point","coordinates":[11.8580537,54.0511391]},"properties":{"maxweight":"10"}},{"type":"Feature","geometry":{"type":"Point","coordinates":[11.8683888,54.046547]},"properties":{"maxweight":"10"}},{"type":"Feature","geometry":{"type":"Point","coordinates":[11.986285,54.0404215]},"properties":{"maxweight":"10"}},{"type":"Feature","geometry":{"type":"Point","coordinates":[11.9835841,54.0412357]},"properties":{"maxweight":"10"}},{"type":"Feature","geometry":{"type":"Point","coordinates":[11.9848503,54.0386159]},"properties":{"maxweight":"10"}},{"type":"Feature","geometry":{"type":"Point","coordinates":[11.9845004,54.0397821]},"properties":{"maxweight":"10"}},{"type":"Feature","geometry":{"type":"Point","coordinates":[11.899845,54.0606378]},"properties":{"hgv":"no"}},{"type":"Feature","geometry":{"type":"Point","coordinates":[11.8841167,54.0479832]},"properties":{"maxweight":"10"}},{"type":"Feature","geometry":{"type":"Point","coordinates":[11.8839616,54.0461821]},"properties":{"maxweight":"10"}},{"type":"Feature","geometry":{"type":"Point","coordinates":[11.8840029,54.046487]},"properties":{"maxweight":"10"}},{"type":"Feature","geometry":{"type":"Point","coordinates":[11.8849558,54.0479146]},"properties":{"maxweight":"10"}},{"type":"Feature","geometry":{"type":"Point","coordinates":[11.901262,54.0863758]},"properties":{"maxweight":"20 t"}},{"type":"Feature","geometry":{"type":"Point","coordinates":[11.2115463,54.427595]},"properties":{"maxweight":"3.5"}},{"type":"Feature","geometry":{"type":"Point","coordinates":[11.7354261,54.1126145]},"properties":{"maxweight":"10"}},{"type":"Feature","geometry":{"type":"Point","coordinates":[11.0303205,54.33075]},"properties":{"maxweight":"7.5"}},{"type":"Feature","geometry":{"type":"Point","coordinates":[11.874771,54.0125469]},"properties":{"maxweight":"10"}},{"type":"Feature","geometry":{"type":"Point","coordinates":[11.8713075,54.0146879]},"properties":{"maxweight":"10"}},{"type":"Feature","geometry":{"type":"Point","coordinates":[11.1096636,54.396288]},"properties":{"maxheight":"5"}},{"type":"Feature","geometry":{"type":"Point","coordinates":[11.0412132,54.2855233]},"properties":{"maxweight":"5"}},{"type":"Feature","geometry":{"type":"Point","coordinates":[11.9030481,54.087419]},"properties":{"maxweight":"20 t"}},{"type":"Feature","geometry":{"type":"Point","coordinates":[11.9058757,54.0889888]},"properties":{"maxweight":"20 t"}},{"type":"Feature","geometry":{"type":"Point","coordinates":[11.6688773,54.0318217]},"properties":{"maxweight":"2.5"}},{"type":"Feature","geometry":{"type":"Point","coordinates":[11.7403226,54.1325227]},"properties":{"maxweight":"20"}},{"type":"Feature","geometry":{"type":"Point","coordinates":[11.1520802,54.0073847]},"properties":{"maxweight":"7.5"}},{"type":"Feature","geometry":{"type":"Point","coordinates":[11.8690323,54.1472622]},"properties":{"maxweight":"16"}},{"type":"Feature","geometry":{"type":"Point","coordinates":[11.7040897,54.1274727]},"properties":{"maxweight":"20"}},{"type":"Feature","geometry":{"type":"Point","coordinates":[11.7023963,54.126967]},"properties":{"maxweight":"20"}},{"type":"Feature","geometry":{"type":"Point","coordinates":[11.6940094,54.1130635]},"properties":{"maxweight":"10"}},{"type":"Feature","geometry":{"type":"Point","coordinates":[11.6755187,54.0329802]},"properties":{"maxweight":"7.5"}},{"type":"Feature","geometry":{"type":"Point","coordinates":[11.1662422,54.0013728]},"properties":{"maxweight":"7.5"}},{"type":"Feature","geometry":{"type":"Point","coordinates":[11.840139,54.0453115]},"properties":{"maxweight":"30"}},{"type":"Feature","geometry":{"type":"Point","coordinates":[11.9063504,54.0757152]},"properties":{"hgv":"no"}},{"type":"Feature","geometry":{"type":"Point","coordinates":[11.0879432,54.2237831]},"properties":{"goods":"destination"}},{"type":"Feature","geometry":{"type":"Point","coordinates":[11.8997822,54.1463679]},"properties":{"maxweight":"3"}},{"type":"Feature","geometry":{"type":"Point","coordinates":[11.9857788,54.0765514]},"properties":{"maxweight":"10"}},{"type":"Feature","geometry":{"type":"Point","coordinates":[11.8859456,54.0798825]},"properties":{"maxweight":"10"}},{"type":"Feature","geometry":{"type":"Point","coordinates":[11.8887737,54.0738673]},"properties":{"maxweight":"10"}},{"type":"Feature","geometry":{"type":"Point","coordinates":[11.1910491,54.456839]},"properties":{"maxheight":"default"}},{"type":"Feature","geometry":{"type":"Point","coordinates":[11.1392661,54.4300449]},"properties":{"maxheight":"default"}},{"type":"Feature","geometry":{"type":"Point","coordinates":[11.2773496,54.5768322]},"properties":{"hgv":"yes"}},{"type":"Feature","geometry":{"type":"Point","coordinates":[11.0859023,54.2278208]},"properties":{"goods":"destination"}},{"type":"Feature","geometry":{"type":"Point","coordinates":[11.0867203,54.2256525]},"properties":{"goods":"destination"}},{"type":"Feature","geometry":{"type":"Point","coordinates":[11.1986059,54.4349747]},"properties":{"maxweight":"3.5"}},{"type":"Feature","geometry":{"type":"Point","coordinates":[11.9761976,54.0586769]},"properties":{"maxweight":"10"}},{"type":"Feature","geometry":{"type":"Point","coordinates":[11.9716242,54.0594949]},"properties":{"maxweight":"10"}},{"type":"Feature","geometry":{"type":"Point","coordinates":[11.8703629,54.0455472]},"properties":{"maxweight":"10"}},{"type":"Feature","geometry":{"type":"Point","coordinates":[11.8893858,54.0747349]},"properties":{"maxweight":"10"}},{"type":"Feature","geometry":{"type":"Point","coordinates":[11.8889451,54.0773654]},"properties":{"maxweight":"10"}},{"type":"Feature","geometry":{"type":"Point","coordinates":[11.8898915,54.0768545]},"properties":{"maxweight":"10"}},{"type":"Feature","geometry":{"type":"Point","coordinates":[11.7330468,54.1446607]},"properties":{"maxweight":"3"}},{"type":"Feature","geometry":{"type":"Point","coordinates":[11.7575456,54.0888219]},"properties":{"maxweight":"10"}},{"type":"Feature","geometry":{"type":"Point","coordinates":[11.1957067,54.4308899]},"properties":{"maxweight":"2.8"}},{"type":"Feature","geometry":{"type":"Point","coordinates":[11.563275,54.0171709]},"properties":{"maxweight":"20"}},{"type":"Feature","geometry":{"type":"Point","coordinates":[11.5651848,54.0171266]},"properties":{"maxweight":"20"}},{"type":"Feature","geometry":{"type":"Point","coordinates":[11.7313549,54.1513981]},"properties":{"hgv":"designated","goods":"designated"}},{"type":"Feature","geometry":{"type":"Point","coordinates":[11.7306573,54.1510421]},"properties":{"hgv":"designated","goods":"designated"}},{"type":"Feature","geometry":{"type":"Point","coordinates":[11.7644875,54.1443387]},"properties":{"maxweight":"7.5"}},{"type":"Feature","geometry":{"type":"Point","coordinates":[11.1831475,54.4462651]},"properties":{"hgv":"no"}},{"type":"Feature","geometry":{"type":"Point","coordinates":[11.928008,54.1062005]},"properties":{"maxheight":"default"}},{"type":"Feature","geometry":{"type":"Point","coordinates":[11.9284276,54.1062406]},"properties":{"maxheight":"default"}},{"type":"Feature","geometry":{"type":"Point","coordinates":[11.6678014,54.0342012]},"properties":{"maxweight":"3.5"}},{"type":"Feature","geometry":{"type":"Point","coordinates":[11.6675518,54.0324684]},"properties":{"maxweight":"3.5"}},{"type":"Feature","geometry":{"type":"Point","coordinates":[11.7637195,54.0863478]},"properties":{"maxweight":"10"}},{"type":"Feature","geometry":{"type":"Point","coordinates":[11.1816529,54.4464286]},"properties":{"hgv":"no"}},{"type":"Feature","geometry":{"type":"Point","coordinates":[11.1817882,54.4462548]},"properties":{"hgv":"no"}},{"type":"Feature","geometry":{"type":"Point","coordinates":[11.2274614,54.5019942]},"properties":{"maxheight":"3.15"}},{"type":"Feature","geometry":{"type":"Point","coordinates":[11.6821267,54.1286478]},"properties":{"maxweight":"10"}},{"type":"Feature","geometry":{"type":"Point","coordinates":[11.2235539,54.498132]},"properties":{"hgv":"only"}},{"type":"Feature","geometry":{"type":"Point","coordinates":[11.8864918,54.1493863]},"properties":{"maxheight":"2"}},{"type":"Feature","geometry":{"type":"Point","coordinates":[11.6701016,54.0316038]},"properties":{"maxweight":"2.5"}},{"type":"Feature","geometry":{"type":"Point","coordinates":[11.0877557,54.3794815]},"properties":{"maxheight":"default"}},{"type":"Feature","geometry":{"type":"Point","coordinates":[11.7312281,54.1509771]},"properties":{"hgv":"designated","goods":"designated"}},{"type":"Feature","geometry":{"type":"Point","coordinates":[11.7311971,54.150863]},"properties":{"hgv":"designated","goods":"designated"}},{"type":"Feature","geometry":{"type":"Point","coordinates":[11.7630854,54.1510522]},"properties":{"maxheight":"2.0"}},{"type":"Feature","geometry":{"type":"Point","coordinates":[11.8333752,54.0635926]},"properties":{"maxweight":"10"}},{"type":"Feature","geometry":{"type":"Point","coordinates":[11.8263709,54.0648423]},"properties":{"maxweight":"10"}},{"type":"Feature","geometry":{"type":"Point","coordinates":[11.7587842,54.0786767]},"properties":{"maxweight":"10"}},{"type":"Feature","geometry":{"type":"Point","coordinates":[11.7632756,54.0782802]},"properties":{"maxweight":"10"}},{"type":"Feature","geometry":{"type":"Point","coordinates":[11.025258,54.2443917]},"properties":{"maxweight":"2"}},{"type":"Feature","geometry":{"type":"Point","coordinates":[11.2020153,54.4697051]},"properties":{"maxweight":"6"}},{"type":"Feature","geometry":{"type":"Point","coordinates":[11.7878317,54.0723157]},"properties":{"maxweight":"10"}},{"type":"Feature","geometry":{"type":"Point","coordinates":[11.8070217,54.0708362]},"properties":{"maxweight":"10"}},{"type":"Feature","geometry":{"type":"Point","coordinates":[11.7970968,54.0691499]},"properties":{"maxweight":"10"}},{"type":"Feature","geometry":{"type":"Point","coordinates":[11.7932642,54.0704029]},"properties":{"maxweight":"10"}},{"type":"Feature","geometry":{"type":"Point","coordinates":[11.8244392,54.0655644]},"properties":{"maxweight":"10"}},{"type":"Feature","geometry":{"type":"Point","coordinates":[11.8209869,54.0673124]},"properties":{"maxweight":"10"}},{"type":"Feature","geometry":{"type":"Point","coordinates":[11.8193632,54.0679616]},"properties":{"maxweight":"10"}},{"type":"Feature","geometry":{"type":"Point","coordinates":[11.8142491,54.0694023]},"properties":{"maxweight":"10"}},{"type":"Feature","geometry":{"type":"Point","coordinates":[11.8444255,54.0615618]},"properties":{"maxweight":"10"}},{"type":"Feature","geometry":{"type":"Point","coordinates":[11.7638882,54.1497603]},"properties":{"maxweight":"10"}},{"type":"Feature","geometry":{"type":"Point","coordinates":[11.8560836,54.1117046]},"properties":{"maxweight":"10"}},{"type":"Feature","geometry":{"type":"Point","coordinates":[11.8115052,54.112445]},"properties":{"maxweight":"10"}},{"type":"Feature","geometry":{"type":"Point","coordinates":[11.8145592,54.1106597]},"properties":{"maxweight":"10"}},{"type":"Feature","geometry":{"type":"Point","coordinates":[11.2262612,54.5019363]},"properties":{"maxheight":"3.15"}},{"type":"Feature","geometry":{"type":"Point","coordinates":[11.6051885,54.1038333]},"properties":{"maxheight":"2"}},{"type":"Feature","geometry":{"type":"Point","coordinates":[11.0845336,54.230212]},"properties":{"goods":"destination"}},{"type":"Feature","geometry":{"type":"Point","coordinates":[11.0848603,54.2311459]},"properties":{"goods":"destination"}},{"type":"Feature","geometry":{"type":"Point","coordinates":[11.2213578,54.4954976]},"properties":{"hgv":"designated"}},{"type":"Feature","geometry":{"type":"Point","coordinates":[11.2231126,54.5026051]},"properties":{"hgv":"no"}},{"type":"Feature","geometry":{"type":"Point","coordinates":[11.2219312,54.4964213]},"properties":{"hgv":"yes"}},{"type":"Feature","geometry":{"type":"Point","coordinates":[11.0471576,54.2613288]},"properties":{"hgv":"no","goods":"no"}},{"type":"Feature","geometry":{"type":"Point","coordinates":[11.1922961,54.4247331]},"properties":{"maxweight":"3.5"}},{"type":"Feature","geometry":{"type":"Point","coordinates":[11.1981703,54.4416292]},"properties":{"maxweight":"2.0"}},{"type":"Feature","geometry":{"type":"Point","coordinates":[11.8994034,54.1010382]},"properties":{"maxweight":"5.5"}},{"type":"Feature","geometry":{"type":"Point","coordinates":[11.9942513,54.0701469]},"properties":{"maxweight":"10"}},{"type":"Feature","geometry":{"type":"Point","coordinates":[11.833351,54.0468394]},"properties":{"maxweight":"10"}},{"type":"Feature","geometry":{"type":"Point","coordinates":[11.1190252,54.0103651]},"properties":{"goods":"no"}},{"type":"Feature","geometry":{"type":"Point","coordinates":[11.2084846,54.434745]},"properties":{"maxheight":"1.7"}},{"type":"Feature","geometry":{"type":"Point","coordinates":[11.6674994,54.0297264]},"properties":{"hgv":"delivery"}},{"type":"Feature","geometry":{"type":"Point","coordinates":[11.0935114,54.3824487]},"properties":{"hgv":"no"}},{"type":"Feature","geometry":{"type":"Point","coordinates":[11.0850152,54.230442]},"properties":{"goods":"destination"}},{"type":"Feature","geometry":{"type":"Point","coordinates":[11.8269804,54.0443517]},"properties":{"maxweight":"10"}},{"type":"Feature","geometry":{"type":"Point","coordinates":[11.208513,54.4344432]},"properties":{"maxheight":"1.7"}},{"type":"Feature","geometry":{"type":"Point","coordinates":[11.9891678,54.0722749]},"properties":{"maxweight":"10"}},{"type":"Feature","geometry":{"type":"Point","coordinates":[11.8165348,54.0688642]},"properties":{"maxweight":"10"}},{"type":"Feature","geometry":{"type":"Point","coordinates":[11.8722095,54.0159906]},"properties":{"maxweight":"10"}},{"type":"Feature","geometry":{"type":"Point","coordinates":[11.9000439,54.0638685]},"properties":{"hgv":"no"}},{"type":"Feature","geometry":{"type":"Point","coordinates":[11.8108633,54.1147359]},"properties":{"maxweight":"10"}},{"type":"Feature","geometry":{"type":"Point","coordinates":[11.8111821,54.117866]},"properties":{"maxweight":"10"}},{"type":"Feature","geometry":{"type":"Point","coordinates":[11.9031783,54.0737676]},"properties":{"hgv":"no"}},{"type":"Feature","geometry":{"type":"Point","coordinates":[11.9847418,54.0401625]},"properties":{"maxweight":"10"}},{"type":"Feature","geometry":{"type":"Point","coordinates":[11.9850956,54.0401277]},"properties":{"maxweight":"10"}},{"type":"Feature","geometry":{"type":"Point","coordinates":[11.7312599,54.1511303]},"properties":{"hgv":"designated","goods":"designated"}},{"type":"Feature","geometry":{"type":"Point","coordinates":[11.7655245,54.0881789]},"properties":{"maxweight":"10"}},{"type":"Feature","geometry":{"type":"Point","coordinates":[11.9687995,54.058804]},"properties":{"maxweight":"10"}},{"type":"Feature","geometry":{"type":"Point","coordinates":[11.7303222,54.1308031]},"properties":{"maxweight":"20"}},{"type":"Feature","geometry":{"type":"Point","coordinates":[11.7330751,54.1307018]},"properties":{"maxweight":"20"}},{"type":"Feature","geometry":{"type":"Point","coordinates":[11.5658239,54.0179558]},"properties":{"maxweight":"20"}},{"type":"Feature","geometry":{"type":"Point","coordinates":[11.8718411,54.1140114]},"properties":{"maxweight":"10"}},{"type":"Feature","geometry":{"type":"Point","coordinates":[11.9028477,54.1047608]},"properties":{"maxweight":"3.5"}},{"type":"Feature","geometry":{"type":"Point","coordinates":[11.7720286,54.1315077]},"properties":{"maxweight":"20"}},{"type":"Feature","geometry":{"type":"Point","coordinates":[11.8152063,54.108918]},"properties":{"maxweight":"10"}},{"type":"Feature","geometry":{"type":"Point","coordinates":[11.9725703,54.1110387]},"properties":{"maxheight":"default"}},{"type":"Feature","geometry":{"type":"Point","coordinates":[11.972428,54.1110284]},"properties":{"maxheight":"default"}},{"type":"Feature","geometry":{"type":"Point","coordinates":[11.2217412,54.4957895]},"properties":{"hgv":"designated"}},{"type":"Feature","geometry":{"type":"Point","coordinates":[11.0808121,54.2612177]},"properties":{"maxheight":"2.2"}},{"type":"Feature","geometry":{"type":"Point","coordinates":[11.2220186,54.4965516]},"properties":{"hgv":"yes"}},{"type":"Feature","geometry":{"type":"Point","coordinates":[11.2223553,54.497202]},"properties":{"hgv":"yes"}},{"type":"Feature","geometry":{"type":"Point","coordinates":[11.2229166,54.4982719]},"properties":{"hgv":"yes"}},{"type":"Feature","geometry":{"type":"Point","coordinates":[11.2223934,54.4972746]},"properties":{"hgv":"yes"}},{"type":"Feature","geometry":{"type":"Point","coordinates":[11.2230704,54.4985694]},"properties":{"hgv":"yes"}},{"type":"Feature","geometry":{"type":"Point","coordinates":[11.6749572,54.0311898]},"properties":{"maxweight":"7.5"}},{"type":"Feature","geometry":{"type":"Point","coordinates":[11.9027736,54.1045114]},"properties":{"maxweight":"3.5"}},{"type":"Feature","geometry":{"type":"Point","coordinates":[11.9027001,54.104236]},"properties":{"maxweight":"3.5"}},{"type":"Feature","geometry":{"type":"Point","coordinates":[11.8372047,54.05862]},"properties":{"maxweight":"10"}},{"type":"Feature","geometry":{"type":"Point","coordinates":[11.8313951,54.0604045]},"properties":{"maxweight":"10"}},{"type":"Feature","geometry":{"type":"Point","coordinates":[11.2169362,54.5035794]},"properties":{"maxweight":"2 t"}},{"type":"Feature","geometry":{"type":"Point","coordinates":[11.0080227,54.3652716]},"properties":{"hgv":"no"}},{"type":"Feature","geometry":{"type":"Point","coordinates":[11.7618146,54.1500826]},"properties":{"maxweight":"10"}},{"type":"Feature","geometry":{"type":"Point","coordinates":[11.9052963,54.0750211]},"properties":{"hgv":"no"}},{"type":"Feature","geometry":{"type":"Point","coordinates":[11.0866953,54.2257154]},"properties":{"goods":"destination"}},{"type":"Feature","geometry":{"type":"Point","coordinates":[11.7311864,54.1508235]},"properties":{"hgv":"designated","goods":"designated"}},{"type":"Feature","geometry":{"type":"Point","coordinates":[11.7312281,54.1509771]},"properties":{"hgv":"designated","goods":"designated"}},{"type":"Feature","geometry":{"type":"Point","coordinates":[11.8321792,54.0461128]},"properties":{"maxweight":"10"}},{"type":"Feature","geometry":{"type":"Point","coordinates":[11.8316323,54.0390281]},"properties":{"maxweight":"30"}},{"type":"Feature","geometry":{"type":"Point","coordinates":[11.9677886,54.1590386]},"properties":{"maxweight":"10"}},{"type":"Feature","geometry":{"type":"Point","coordinates":[11.6683772,54.0319835]},"properties":{"maxweight":"2.5"}},{"type":"Feature","geometry":{"type":"Point","coordinates":[11.2016888,54.4296821]},"properties":{"maxweight":"3.5"}},{"type":"Feature","geometry":{"type":"Point","coordinates":[11.7620553,54.1500242]},"properties":{"maxweight":"10"}},{"type":"Feature","geometry":{"type":"Point","coordinates":[11.6747535,54.0307986]},"properties":{"maxweight":"7.5"}},{"type":"Feature","geometry":{"type":"Point","coordinates":[11.6680032,54.0293446]},"properties":{"hgv":"delivery"}},{"type":"Feature","geometry":{"type":"Point","coordinates":[11.6687463,54.0318533]},"properties":{"maxweight":"2.5"}},{"type":"Feature","geometry":{"type":"Point","coordinates":[11.6680355,54.0321607]},"properties":{"maxweight":"2.5"}},{"type":"Feature","geometry":{"type":"Point","coordinates":[11.6744461,54.0309027]},"properties":{"maxweight":"7.5"}},{"type":"Feature","geometry":{"type":"Point","coordinates":[11.7681064,54.150584]},"properties":{"maxheight":"2"}},{"type":"Feature","geometry":{"type":"Point","coordinates":[11.769085,54.1506065]},"properties":{"maxheight":"2"}},{"type":"Feature","geometry":{"type":"Point","coordinates":[11.7913494,54.0707305]},"properties":{"maxweight":"10"}},{"type":"Feature","geometry":{"type":"Point","coordinates":[11.3064337,54.6245558]},"properties":{"hgv":"yes"}},{"type":"Feature","geometry":{"type":"Point","coordinates":[11.7290331,54.1306955]},"properties":{"maxweight":"20"}},{"type":"Feature","geometry":{"type":"Point","coordinates":[11.0784393,54.2643599]},"properties":{"maxlength":"13"}},{"type":"Feature","geometry":{"type":"Point","coordinates":[11.8444195,54.0575829]},"properties":{"maxweight":"10"}},{"type":"Feature","geometry":{"type":"Point","coordinates":[11.9674369,54.1596846]},"properties":{"maxweight":"10"}},{"type":"Feature","geometry":{"type":"Point","coordinates":[11.990834,54.1585158]},"properties":{"maxweight":"10"}},{"type":"Feature","geometry":{"type":"Point","coordinates":[11.049954,54.2659073]},"properties":{"hgv":"no","goods":"no"}},{"type":"Feature","geometry":{"type":"Point","coordinates":[11.7309602,54.145237]},"properties":{"maxweight":"3"}},{"type":"Feature","geometry":{"type":"Point","coordinates":[11.0313036,54.2793333]},"properties":{"maxweight":"5"}},{"type":"Feature","geometry":{"type":"Point","coordinates":[11.0117287,54.2986876]},"properties":{"maxweight":"5.5"}},{"type":"Feature","geometry":{"type":"Point","coordinates":[11.0306515,54.3584976]},"properties":{"maxweight":"7.5"}},{"type":"Feature","geometry":{"type":"Point","coordinates":[11.0487308,54.2998313]},"properties":{"maxweight":"5.5"}},{"type":"Feature","geometry":{"type":"Point","coordinates":[11.0568799,54.2910149]},"properties":{"maxweight":"5"}},{"type":"Feature","geometry":{"type":"Point","coordinates":[11.8716079,54.0451461]},"properties":{"maxweight":"10"}},{"type":"Feature","geometry":{"type":"Point","coordinates":[11.8720817,54.0121643]},"properties":{"maxweight":"10"}},{"type":"Feature","geometry":{"type":"Point","coordinates":[11.8715537,54.0133657]},"properties":{"maxweight":"10"}},{"type":"Feature","geometry":{"type":"Point","coordinates":[11.1791132,54.4467649]},"properties":{"hgv":"designated"}},{"type":"Feature","geometry":{"type":"Point","coordinates":[11.1959404,54.4431761]},"properties":{"maxweight":"2.8"}},{"type":"Feature","geometry":{"type":"Point","coordinates":[11.181031,54.4465513]},"properties":{"hgv":"no"}},{"type":"Feature","geometry":{"type":"Point","coordinates":[11.1814424,54.4462876]},"properties":{"hgv":"no"}},{"type":"Feature","geometry":{"type":"Point","coordinates":[11.1815604,54.4461588]},"properties":{"hgv":"no"}},{"type":"Feature","geometry":{"type":"Point","coordinates":[11.1811299,54.4453695]},"properties":{"hgv":"no"}},{"type":"Feature","geometry":{"type":"Point","coordinates":[11.7966516,54.0287838]},"properties":{"maxweight":"10"}},{"type":"Feature","geometry":{"type":"Point","coordinates":[11.9996057,54.0681641]},"properties":{"maxweight":"10"}},{"type":"Feature","geometry":{"type":"Point","coordinates":[11.7278011,54.1407727]},"properties":{"hgv":"no"}},{"type":"Feature","geometry":{"type":"Point","coordinates":[11.0876956,54.2243618]},"properties":{"goods":"destination"}},{"type":"Feature","geometry":{"type":"Point","coordinates":[11.7018604,54.1266356]},"properties":{"maxweight":"20"}},{"type":"Feature","geometry":{"type":"Point","coordinates":[11.7028233,54.1271502]},"properties":{"maxweight":"20"}}]}