{"type":"FeatureCollection","features":[{"type":"Feature","geometry":{"type":"Point","coordinates":[12.7223477,53.3536205]},"properties":{"hgv":"no"}},{"type":"Feature","geometry":{"type":"Point","coordinates":[12.2755925,53.6595694]},"properties":{"maxwidth":"1.2"}},{"type":"Feature","geometry":{"type":"Point","coordinates":[12.6268942,53.5077837]},"properties":{"maxheight":"14"}},{"type":"Feature","geometry":{"type":"Point","coordinates":[12.8009889,53.2724219]},"properties":{"maxheight":"3.98"}},{"type":"Feature","geometry":{"type":"Point","coordinates":[12.8017266,53.2721155]},"properties":{"maxheight":"3.98"}},{"type":"Feature","geometry":{"type":"Point","coordinates":[12.2822072,53.7701292]},"properties":{"maxheight":"default"}},{"type":"Feature","geometry":{"type":"Point","coordinates":[12.882713,53.3931082]},"properties":{"maxwidth":"2.5"}},{"type":"Feature","geometry":{"type":"Point","coordinates":[12.2709387,53.656401]},"properties":{"maxwidth":"1.5"}},{"type":"Feature","geometry":{"type":"Point","coordinates":[12.9735966,53.2801574]},"properties":{"maxheight":"2.5","maxwidth":"2"}},{"type":"Feature","geometry":{"type":"Point","coordinates":[12.88314,53.8600392]},"properties":{"maxheight":"9 m"}},{"type":"Feature","geometry":{"type":"Point","coordinates":[12.7481399,53.7490397]},"properties":{"maxheight":"2.0 m"}},{"type":"Feature","geometry":{"type":"Point","coordinates":[12.7451332,53.748282]},"properties":{"maxheight":"1.8 m"}},{"type":"Feature","geometry":{"type":"Point","coordinates":[12.8853359,53.8588294]},"properties":{"maxheight":"9 m"}},{"type":"Feature","geometry":{"type":"Point","coordinates":[12.6636481,53.4953877]},"properties":{"maxheight":"2"}},{"type":"Feature","geometry":{"type":"Point","coordinates":[12.119022,53.7387093]},"properties":{"hgv":"no"}},{"type":"Feature","geometry":{"type":"Point","coordinates":[12.9941192,53.2053342]},"properties":{"maxheight":"4.1 m"}},{"type":"Feature","geometry":{"type":"Point","coordinates":[12.9959503,53.2060496]},"properties":{"maxheight":"4.1 m"}},{"type":"Feature","geometry":{"type":"Point","coordinates":[12.3825138,53.462065]},"properties":{"maxheight":"5.95"}},{"type":"Feature","geometry":{"type":"Point","coordinates":[12.3988348,53.4624057]},"properties":{"maxheight":"8"}},{"type":"Feature","geometry":{"type":"Point","coordinates":[12.3486698,53.4688822]},"properties":{"maxheight":"4.25"}},{"type":"Feature","geometry":{"type":"Point","coordinates":[12.6339732,53.5064256]},"properties":{"maxheight":"4.2"}},{"type":"Feature","geometry":{"type":"Point","coordinates":[12.8019007,53.2720389]},"properties":{"maxheight":"4.22"}},{"type":"Feature","geometry":{"type":"Point","coordinates":[12.9199739,53.1861168]},"properties":{"maxheight":"4.2","maxwidth":"16"}},{"type":"Feature","geometry":{"type":"Point","coordinates":[12.8740891,53.1420589]},"properties":{"maxheight":"3.90","maxwidth":"5.3"}},{"type":"Feature","geometry":{"type":"Point","coordinates":[12.8863143,53.1748288]},"properties":{"maxheight":"4.2","maxwidth":"12"}},{"type":"Feature","geometry":{"type":"Point","coordinates":[12.7802867,53.1590383]},"properties":{"maxheight":"4.45"}},{"type":"Feature","geometry":{"type":"Point","coordinates":[12.8649646,53.1673471]},"properties":{"maxheight":"3.6"}},{"type":"Feature","geometry":{"type":"Point","coordinates":[12.9564266,53.3182052]},"properties":{"hgv":"no"}},{"type":"Feature","geometry":{"type":"Point","coordinates":[12.0273762,53.4620055]},"properties":{"maxheight":"3.2"}},{"type":"Feature","geometry":{"type":"Point","coordinates":[12.882153,53.148724]},"properties":{"maxheight":"3.70"}},{"type":"Feature","geometry":{"type":"Point","coordinates":[12.8718031,53.156082]},"properties":{"maxheight":"4.3","maxwidth":"12"}},{"type":"Feature","geometry":{"type":"Point","coordinates":[12.8168513,53.1483149]},"properties":{"maxheight":"3.6","maxwidth":"5.4"}},{"type":"Feature","geometry":{"type":"Point","coordinates":[12.9596641,53.3207041]},"properties":{"maxheight":"3"}},{"type":"Feature","geometry":{"type":"Point","coordinates":[12.9841734,53.2802114]},"properties":{"maxheight":"4.2"}},{"type":"Feature","geometry":{"type":"Point","coordinates":[12.9758991,53.3064268]},"properties":{"maxheight":"4.2"}},{"type":"Feature","geometry":{"type":"Point","coordinates":[12.828954,53.131597]},"properties":{"maxheight":"1.8 m"}},{"type":"Feature","geometry":{"type":"Point","coordinates":[12.1139255,53.7463436]},"properties":{"hgv":"no"}},{"type":"Feature","geometry":{"type":"Point","coordinates":[12.1351927,53.7440367]},"properties":{"hgv":"no"}},{"type":"Feature","geometry":{"type":"Point","coordinates":[12.6186611,53.3872362]},"properties":{"maxweight":"6.3"}},{"type":"Feature","geometry":{"type":"Point","coordinates":[12.6752193,53.2472603]},"properties":{"maxheight":"2.0 m"}},{"type":"Feature","geometry":{"type":"Point","coordinates":[12.6941751,53.2704359]},"properties":{"maxheight":"2.3 m"}},{"type":"Feature","geometry":{"type":"Point","coordinates":[12.8548011,53.2136896]},"properties":{"maxheight":"3.0 m"}},{"type":"Feature","geometry":{"type":"Point","coordinates":[12.9046942,53.2388825]},"properties":{"maxheight":"3.1","maxwidth":"5"}},{"type":"Feature","geometry":{"type":"Point","coordinates":[12.2880017,53.6461204]},"properties":{"maxwidth":"0.6"}},{"type":"Feature","geometry":{"type":"Point","coordinates":[12.7356166,53.3094355]},"properties":{"maxwidth":"2.5"}},{"type":"Feature","geometry":{"type":"Point","coordinates":[12.7360591,53.3093707]},"properties":{"maxwidth":"2.5"}},{"type":"Feature","geometry":{"type":"Point","coordinates":[12.1747988,53.7947941]},"properties":{"maxwidth":"1.2"}},{"type":"Feature","geometry":{"type":"Point","coordinates":[12.1749069,53.7949094]},"properties":{"maxwidth":"1.2"}},{"type":"Feature","geometry":{"type":"Point","coordinates":[12.2327082,53.7842852]},"properties":{"maxheight":"2","maxwidth":"4"}},{"type":"Feature","geometry":{"type":"Point","coordinates":[12.2905969,53.6444113]},"properties":{"maxwidth":"3"}},{"type":"Feature","geometry":{"type":"Point","coordinates":[12.9859422,53.0679652]},"properties":{"maxheight":"2","maxwidth":"4"}},{"type":"Feature","geometry":{"type":"Point","coordinates":[12.7834975,53.7415379]},"properties":{"maxweight":"40"}},{"type":"Feature","geometry":{"type":"Point","coordinates":[12.7181139,53.3305234]},"properties":{"maxwidth":"0.6"}},{"type":"Feature","geometry":{"type":"Point","coordinates":[12.237553,53.3272705]},"properties":{"maxheight":"1.10"}},{"type":"Feature","geometry":{"type":"Point","coordinates":[12.746151,53.3150737]},"properties":{"maxwidth":"3"}},{"type":"Feature","geometry":{"type":"Point","coordinates":[12.6794613,53.5156755]},"properties":{"maxwidth":"1"}},{"type":"Feature","geometry":{"type":"Point","coordinates":[12.6797733,53.5155371]},"properties":{"maxwidth":"0.5"}},{"type":"Feature","geometry":{"type":"Point","coordinates":[12.690609,53.5051096]},"properties":{"maxwidth":"0.3"}},{"type":"Feature","geometry":{"type":"Point","coordinates":[12.9660933,53.2811481]},"properties":{"maxwidth":"2"}},{"type":"Feature","geometry":{"type":"Point","coordinates":[12.9660988,53.2808262]},"properties":{"maxwidth":"0.8"}},{"type":"Feature","geometry":{"type":"Point","coordinates":[12.7736284,53.4968476]},"properties":{"maxwidth":"1.2"}},{"type":"Feature","geometry":{"type":"Point","coordinates":[12.2909411,53.6466757]},"properties":{"maxwidth":"1"}},{"type":"Feature","geometry":{"type":"Point","coordinates":[12.2933446,53.6402012]},"properties":{"maxwidth":"1.2"}},{"type":"Feature","geometry":{"type":"Point","coordinates":[12.2772351,53.6508982]},"properties":{"maxwidth":"1.2"}},{"type":"Feature","geometry":{"type":"Point","coordinates":[12.2712102,53.656237]},"properties":{"maxwidth":"1"}},{"type":"Feature","geometry":{"type":"Point","coordinates":[12.2711813,53.6562642]},"properties":{"maxwidth":"1"}},{"type":"Feature","geometry":{"type":"Point","coordinates":[12.2705644,53.6549393]},"properties":{"maxwidth":"1"}},{"type":"Feature","geometry":{"type":"Point","coordinates":[12.2705175,53.6549449]},"properties":{"maxwidth":"1"}},{"type":"Feature","geometry":{"type":"Point","coordinates":[12.2755077,53.6596312]},"properties":{"maxwidth":"3"}},{"type":"Feature","geometry":{"type":"Point","coordinates":[12.7088893,53.5264155]},"properties":{"maxwidth":"6"}},{"type":"Feature","geometry":{"type":"Point","coordinates":[12.675359,53.2472021]},"properties":{"maxheight":"2.0"}},{"type":"Feature","geometry":{"type":"Point","coordinates":[12.6941488,53.2704311]},"properties":{"maxheight":"2.3"}},{"type":"Feature","geometry":{"type":"Point","coordinates":[12.3354046,53.3485899]},"properties":{"maxwidth":"2.2"}},{"type":"Feature","geometry":{"type":"Point","coordinates":[12.3189211,53.3716286]},"properties":{"maxwidth":"2.2"}},{"type":"Feature","geometry":{"type":"Point","coordinates":[12.4924791,53.1596144]},"properties":{"maxheight":"2"}},{"type":"Feature","geometry":{"type":"Point","coordinates":[12.4925664,53.1595665]},"properties":{"maxheight":"2"}},{"type":"Feature","geometry":{"type":"Point","coordinates":[12.1807252,53.7216879]},"properties":{"maxheight":"1"}},{"type":"Feature","geometry":{"type":"Point","coordinates":[12.1909929,53.6729237]},"properties":{"maxheight":"1"}},{"type":"Feature","geometry":{"type":"Point","coordinates":[12.8093917,53.272525]},"properties":{"hgv":"no"}},{"type":"Feature","geometry":{"type":"Point","coordinates":[12.7655393,53.7440332]},"properties":{"maxwidth":"2"}},{"type":"Feature","geometry":{"type":"Point","coordinates":[12.7664736,53.7440814]},"properties":{"maxwidth":"1"}},{"type":"Feature","geometry":{"type":"Point","coordinates":[12.6850328,53.5162132]},"properties":{"maxheight":"2.20 m"}},{"type":"Feature","geometry":{"type":"Point","coordinates":[12.4369266,53.4790924]},"properties":{"maxweight":"3.2"}},{"type":"Feature","geometry":{"type":"Point","coordinates":[12.8162352,53.519609]},"properties":{"maxheight":"1.5","maxwidth":"3"}},{"type":"Feature","geometry":{"type":"Point","coordinates":[12.4821731,53.1563289]},"properties":{"hgv":"no"}},{"type":"Feature","geometry":{"type":"Point","coordinates":[12.0360369,53.2942949]},"properties":{"maxheight":"default"}},{"type":"Feature","geometry":{"type":"Point","coordinates":[12.1083659,53.2722743]},"properties":{"maxheight":"default"}},{"type":"Feature","geometry":{"type":"Point","coordinates":[12.199647,53.2348558]},"properties":{"maxheight":"default"}},{"type":"Feature","geometry":{"type":"Point","coordinates":[12.1704237,53.2524886]},"properties":{"maxheight":"default"}},{"type":"Feature","geometry":{"type":"Point","coordinates":[12.2227534,53.225737]},"properties":{"maxheight":"default"}},{"type":"Feature","geometry":{"type":"Point","coordinates":[12.2959859,53.1824709]},"properties":{"maxheight":"default"}},{"type":"Feature","geometry":{"type":"Point","coordinates":[12.3788574,53.1644294]},"properties":{"maxheight":"default"}},{"type":"Feature","geometry":{"type":"Point","coordinates":[12.506701,53.0937709]},"properties":{"maxheight":"default"}},{"type":"Feature","geometry":{"type":"Point","coordinates":[12.4631278,53.1214968]},"properties":{"maxheight":"default"}},{"type":"Feature","geometry":{"type":"Point","coordinates":[12.1821527,53.7961295]},"properties":{"maxheight":"default"}},{"type":"Feature","geometry":{"type":"Point","coordinates":[12.3488504,53.4658424]},"properties":{"maxweight":"7.5"}},{"type":"Feature","geometry":{"type":"Point","coordinates":[12.3757263,53.4686363]},"properties":{"maxweight":"7.5"}},{"type":"Feature","geometry":{"type":"Point","coordinates":[12.4226663,53.5188289]},"properties":{"hgv":"agricultural;forestry"}},{"type":"Feature","geometry":{"type":"Point","coordinates":[12.3614222,53.5134889]},"properties":{"maxheight":"default"}},{"type":"Feature","geometry":{"type":"Point","coordinates":[12.3629662,53.663753]},"properties":{"maxheight":"default"}},{"type":"Feature","geometry":{"type":"Point","coordinates":[12.2575432,53.8887881]},"properties":{"maxheight":"default"}},{"type":"Feature","geometry":{"type":"Point","coordinates":[12.4100818,53.4384567]},"properties":{"maxheight":"default"}},{"type":"Feature","geometry":{"type":"Point","coordinates":[12.1766272,53.7900658]},"properties":{"maxlength":"8"}},{"type":"Feature","geometry":{"type":"Point","coordinates":[12.4409341,53.4707482]},"properties":{"maxweight":"2.8"}},{"type":"Feature","geometry":{"type":"Point","coordinates":[12.6011816,53.3859792]},"properties":{"hgv":"delivery"}},{"type":"Feature","geometry":{"type":"Point","coordinates":[12.4705635,53.4834415]},"properties":{"hgv":"destination"}},{"type":"Feature","geometry":{"type":"Point","coordinates":[12.4306916,53.4760036]},"properties":{"maxweight":"2.8"}},{"type":"Feature","geometry":{"type":"Point","coordinates":[12.4283651,53.4744488]},"properties":{"maxweight":"2.8"}},{"type":"Feature","geometry":{"type":"Point","coordinates":[12.0722985,53.879062]},"properties":{"maxweight":"20"}},{"type":"Feature","geometry":{"type":"Point","coordinates":[12.0686206,53.8820197]},"properties":{"maxweight":"20"}},{"type":"Feature","geometry":{"type":"Point","coordinates":[12.1807078,53.9837395]},"properties":{"maxweight":"10"}},{"type":"Feature","geometry":{"type":"Point","coordinates":[12.1742901,53.9807452]},"properties":{"maxweight":"10"}},{"type":"Feature","geometry":{"type":"Point","coordinates":[12.1803817,53.7957215]},"properties":{"maxlength":"8"}},{"type":"Feature","geometry":{"type":"Point","coordinates":[12.2140276,53.7858485]},"properties":{"maxweight":"20"}},{"type":"Feature","geometry":{"type":"Point","coordinates":[12.0571779,53.888129]},"properties":{"maxweight":"20"}},{"type":"Feature","geometry":{"type":"Point","coordinates":[12.0538641,53.8899024]},"properties":{"maxweight":"20"}},{"type":"Feature","geometry":{"type":"Point","coordinates":[12.2600908,53.1534465]},"properties":{"hgv":"no"}},{"type":"Feature","geometry":{"type":"Point","coordinates":[12.1776962,53.1516059]},"properties":{"hgv":"no"}},{"type":"Feature","geometry":{"type":"Point","coordinates":[12.0247529,53.1553295]},"properties":{"hgv":"agricultural"}},{"type":"Feature","geometry":{"type":"Point","coordinates":[12.0478303,53.2922885]},"properties":{"maxweight":"24"}},{"type":"Feature","geometry":{"type":"Point","coordinates":[12.0242235,53.29554]},"properties":{"maxweight":"24"}},{"type":"Feature","geometry":{"type":"Point","coordinates":[12.2630549,53.538687]},"properties":{"maxweight":"12"}},{"type":"Feature","geometry":{"type":"Point","coordinates":[12.7525353,53.6017945]},"properties":{"maxweight":"12"}},{"type":"Feature","geometry":{"type":"Point","coordinates":[12.6846347,53.5173905]},"properties":{"maxweight":"16"}},{"type":"Feature","geometry":{"type":"Point","coordinates":[12.361595,53.5135431]},"properties":{"maxheight":"default"}},{"type":"Feature","geometry":{"type":"Point","coordinates":[12.5992425,53.6273429]},"properties":{"maxweight":"12.0"}},{"type":"Feature","geometry":{"type":"Point","coordinates":[12.4308754,53.4755015]},"properties":{"maxweight":"2.8"}},{"type":"Feature","geometry":{"type":"Point","coordinates":[12.7013295,53.51769]},"properties":{"maxlength":"10"}},{"type":"Feature","geometry":{"type":"Point","coordinates":[12.7026153,53.5201066]},"properties":{"hgv":"no"}},{"type":"Feature","geometry":{"type":"Point","coordinates":[12.1026947,53.9368792]},"properties":{"hgv":"no"}},{"type":"Feature","geometry":{"type":"Point","coordinates":[12.6835893,53.5265666]},"properties":{"hgv":"delivery"}},{"type":"Feature","geometry":{"type":"Point","coordinates":[12.65091,53.5356912]},"properties":{"hgv":"destination"}},{"type":"Feature","geometry":{"type":"Point","coordinates":[12.6435958,53.5294455]},"properties":{"hgv":"destination"}},{"type":"Feature","geometry":{"type":"Point","coordinates":[12.5404177,53.720728]},"properties":{"maxweight":"20"}},{"type":"Feature","geometry":{"type":"Point","coordinates":[12.7031742,53.5245923]},"properties":{"maxweight":"2.5"}},{"type":"Feature","geometry":{"type":"Point","coordinates":[12.0985458,53.8734716]},"properties":{"goods":"delivery","maxweight":"10"}},{"type":"Feature","geometry":{"type":"Point","coordinates":[12.8598634,53.3315507]},"properties":{"hgv":"delivery"}},{"type":"Feature","geometry":{"type":"Point","coordinates":[12.1205335,53.1085264]},"properties":{"maxweight":"3.5"}},{"type":"Feature","geometry":{"type":"Point","coordinates":[12.8907371,53.0947809]},"properties":{"maxweight":"7.5"}},{"type":"Feature","geometry":{"type":"Point","coordinates":[12.452974,53.1743061]},"properties":{"hgv":"agricultural"}},{"type":"Feature","geometry":{"type":"Point","coordinates":[12.9868102,53.2780037]},"properties":{"maxweight":"12"}},{"type":"Feature","geometry":{"type":"Point","coordinates":[12.996495,53.31582]},"properties":{"hgv":"no"}},{"type":"Feature","geometry":{"type":"Point","coordinates":[12.9735966,53.2801574]},"properties":{"maxheight":"2.5"}},{"type":"Feature","geometry":{"type":"Point","coordinates":[12.970414,53.281434]},"properties":{"goods":"yes"}},{"type":"Feature","geometry":{"type":"Point","coordinates":[12.837008,53.349467]},"properties":{"hgv":"delivery;agricultural"}},{"type":"Feature","geometry":{"type":"Point","coordinates":[12.4258453,53.476999]},"properties":{"maxwidth":"2.8"}},{"type":"Feature","geometry":{"type":"Point","coordinates":[12.9574066,53.2826189]},"properties":{"hgv":"no"}},{"type":"Feature","geometry":{"type":"Point","coordinates":[12.2327061,53.9226669]},"properties":{"maxheight":"default"}},{"type":"Feature","geometry":{"type":"Point","coordinates":[12.8546886,53.2081918]},"properties":{"maxweight":"16"}},{"type":"Feature","geometry":{"type":"Point","coordinates":[12.5804172,53.7725799]},"properties":{"hgv":"no"}},{"type":"Feature","geometry":{"type":"Point","coordinates":[12.3539861,53.8622374]},"properties":{"maxweight":"30"}},{"type":"Feature","geometry":{"type":"Point","coordinates":[12.3544796,53.8622861]},"properties":{"maxweight":"30"}},{"type":"Feature","geometry":{"type":"Point","coordinates":[12.4552546,53.9940227]},"properties":{"maxweight":"10"}},{"type":"Feature","geometry":{"type":"Point","coordinates":[12.9759139,53.3065689]},"properties":{"maxweight":"15"}},{"type":"Feature","geometry":{"type":"Point","coordinates":[12.9939726,53.2054851]},"properties":{"maxweight":"16"}},{"type":"Feature","geometry":{"type":"Point","coordinates":[12.4316747,53.476156]},"properties":{"maxweight":"2.8"}},{"type":"Feature","geometry":{"type":"Point","coordinates":[12.2904665,53.8385692]},"properties":{"hgv":"designated"}},{"type":"Feature","geometry":{"type":"Point","coordinates":[12.8703077,53.8528241]},"properties":{"maxweight":"5.5"}},{"type":"Feature","geometry":{"type":"Point","coordinates":[12.8149248,53.283805]},"properties":{"hgv":"no"}},{"type":"Feature","geometry":{"type":"Point","coordinates":[12.4690863,53.1603587]},"properties":{"maxweight":"7.5 t"}},{"type":"Feature","geometry":{"type":"Point","coordinates":[12.3006473,53.1805432]},"properties":{"maxweight":"24"}},{"type":"Feature","geometry":{"type":"Point","coordinates":[12.7002173,53.5247804]},"properties":{"maxwidth":"2","maxweight":"2.5"}},{"type":"Feature","geometry":{"type":"Point","coordinates":[12.699006,53.5249489]},"properties":{"maxwidth":"2","maxweight":"2.5"}},{"type":"Feature","geometry":{"type":"Point","coordinates":[12.8126098,53.2753607]},"properties":{"maxweight":"10"}},{"type":"Feature","geometry":{"type":"Point","coordinates":[12.8117067,53.2762205]},"properties":{"maxweight":"10"}},{"type":"Feature","geometry":{"type":"Point","coordinates":[12.8769743,53.3914817]},"properties":{"hgv":"delivery"}},{"type":"Feature","geometry":{"type":"Point","coordinates":[12.4795956,53.1617593]},"properties":{"maxweight":"7.5 t"}},{"type":"Feature","geometry":{"type":"Point","coordinates":[12.4812597,53.1584846]},"properties":{"hgv":"delivery"}},{"type":"Feature","geometry":{"type":"Point","coordinates":[12.2079836,53.9953554]},"properties":{"maxweight":"10"}},{"type":"Feature","geometry":{"type":"Point","coordinates":[12.8152685,53.2699909]},"properties":{"hgv":"no"}},{"type":"Feature","geometry":{"type":"Point","coordinates":[12.9785897,53.9256548]},"properties":{"maxweight":"2.5"}},{"type":"Feature","geometry":{"type":"Point","coordinates":[12.9907704,53.9250937]},"properties":{"maxweight":"5.5"}},{"type":"Feature","geometry":{"type":"Point","coordinates":[12.9950449,53.9280017]},"properties":{"maxweight":"5.5"}},{"type":"Feature","geometry":{"type":"Point","coordinates":[12.9956122,53.928732]},"properties":{"maxweight":"5.5"}},{"type":"Feature","geometry":{"type":"Point","coordinates":[12.9569126,53.9055386]},"properties":{"maxweight":"5.5"}},{"type":"Feature","geometry":{"type":"Point","coordinates":[12.092842,53.9901406]},"properties":{"maxweight":"10"}},{"type":"Feature","geometry":{"type":"Point","coordinates":[12.0982578,53.9392085]},"properties":{"maxweight":"2.5"}},{"type":"Feature","geometry":{"type":"Point","coordinates":[12.8970962,53.0976748]},"properties":{"maxweight":"3.5"}},{"type":"Feature","geometry":{"type":"Point","coordinates":[12.7659211,53.1582529]},"properties":{"hgv":"no"}},{"type":"Feature","geometry":{"type":"Point","coordinates":[12.215826,53.7649445]},"properties":{"maxweight":"20"}},{"type":"Feature","geometry":{"type":"Point","coordinates":[12.4353188,53.4729813]},"properties":{"maxweight":"2.8"}},{"type":"Feature","geometry":{"type":"Point","coordinates":[12.1242584,53.7391129]},"properties":{"maxweight":"7.5"}},{"type":"Feature","geometry":{"type":"Point","coordinates":[12.2153186,53.7639226]},"properties":{"maxweight":"20"}},{"type":"Feature","geometry":{"type":"Point","coordinates":[12.2135059,53.7833305]},"properties":{"maxweight":"20"}},{"type":"Feature","geometry":{"type":"Point","coordinates":[12.4692743,53.1149393]},"properties":{"hgv":"designated"}},{"type":"Feature","geometry":{"type":"Point","coordinates":[12.191203,53.7545864]},"properties":{"maxweight":"20"}},{"type":"Feature","geometry":{"type":"Point","coordinates":[12.1641211,53.7438299]},"properties":{"maxweight":"20"}},{"type":"Feature","geometry":{"type":"Point","coordinates":[12.4808939,53.1646857]},"properties":{"maxweight":"7.5 t"}},{"type":"Feature","geometry":{"type":"Point","coordinates":[12.6907896,53.5142388]},"properties":{"maxwidth":"2"}},{"type":"Feature","geometry":{"type":"Point","coordinates":[12.1157509,53.8247067]},"properties":{"maxweight":"7.5"}},{"type":"Feature","geometry":{"type":"Point","coordinates":[12.6887591,53.515125]},"properties":{"maxlength":"8"}},{"type":"Feature","geometry":{"type":"Point","coordinates":[12.3457955,53.9284581]},"properties":{"maxweight":"3.5"}},{"type":"Feature","geometry":{"type":"Point","coordinates":[12.3467922,53.9294883]},"properties":{"maxweight":"5.5"}},{"type":"Feature","geometry":{"type":"Point","coordinates":[12.5386983,53.9347677]},"properties":{"maxweight":"20"}},{"type":"Feature","geometry":{"type":"Point","coordinates":[12.177836,53.7924087]},"properties":{"maxlength":"8"}},{"type":"Feature","geometry":{"type":"Point","coordinates":[12.9798863,53.8389296]},"properties":{"maxweight":"5.5"}},{"type":"Feature","geometry":{"type":"Point","coordinates":[12.4349577,53.4735155]},"properties":{"maxweight":"2.8"}},{"type":"Feature","geometry":{"type":"Point","coordinates":[12.4346209,53.4736344]},"properties":{"maxweight":"2.8"}},{"type":"Feature","geometry":{"type":"Point","coordinates":[12.6842388,53.7399083]},"properties":{"maxweight":"5.5"}},{"type":"Feature","geometry":{"type":"Point","coordinates":[12.6917595,53.7145275]},"properties":{"maxweight":"5.5"}},{"type":"Feature","geometry":{"type":"Point","coordinates":[12.6891885,53.5150622]},"properties":{"maxlength":"8"}},{"type":"Feature","geometry":{"type":"Point","coordinates":[12.6594449,53.5197225]},"properties":{"hgv":"no"}},{"type":"Feature","geometry":{"type":"Point","coordinates":[12.8111781,53.9714096]},"properties":{"maxweight":"3"}},{"type":"Feature","geometry":{"type":"Point","coordinates":[12.8257985,53.9975892]},"properties":{"maxwidth":"2.2","maxweight":"3"}},{"type":"Feature","geometry":{"type":"Point","coordinates":[12.6810386,53.5274733]},"properties":{"hgv":"no"}},{"type":"Feature","geometry":{"type":"Point","coordinates":[12.5197796,53.6075465]},"properties":{"maxweight":"16"}},{"type":"Feature","geometry":{"type":"Point","coordinates":[12.1537943,53.9337473]},"properties":{"maxweight":"1.5"}},{"type":"Feature","geometry":{"type":"Point","coordinates":[12.3459574,53.9282285]},"properties":{"maxweight":"3.5"}},{"type":"Feature","geometry":{"type":"Point","coordinates":[12.356284,53.9276714]},"properties":{"maxweight":"3.5"}},{"type":"Feature","geometry":{"type":"Point","coordinates":[12.4307775,53.4757801]},"properties":{"maxweight":"2.8"}},{"type":"Feature","geometry":{"type":"Point","coordinates":[12.5363478,53.4657998]},"properties":{"maxweight":"12"}},{"type":"Feature","geometry":{"type":"Point","coordinates":[12.5073265,53.5837451]},"properties":{"hgv":"no"}},{"type":"Feature","geometry":{"type":"Point","coordinates":[12.6576947,53.7252656]},"properties":{"maxweight":"5.5"}},{"type":"Feature","geometry":{"type":"Point","coordinates":[12.7079593,53.7005093]},"properties":{"maxweight":"5.5"}},{"type":"Feature","geometry":{"type":"Point","coordinates":[12.3473083,53.5109953]},"properties":{"hgv":"no"}},{"type":"Feature","geometry":{"type":"Point","coordinates":[12.3032321,53.9822992]},"properties":{"maxweight":"20"}},{"type":"Feature","geometry":{"type":"Point","coordinates":[12.3441303,53.9714599]},"properties":{"maxweight":"20"}},{"type":"Feature","geometry":{"type":"Point","coordinates":[12.1382881,53.8249759]},"properties":{"maxweight":"12"}},{"type":"Feature","geometry":{"type":"Point","coordinates":[12.6899707,53.5131949]},"properties":{"maxweight":"2"}},{"type":"Feature","geometry":{"type":"Point","coordinates":[12.3083297,53.9687043]},"properties":{"maxweight":"20"}},{"type":"Feature","geometry":{"type":"Point","coordinates":[12.1870828,53.7843101]},"properties":{"maxweight":"7.5"}},{"type":"Feature","geometry":{"type":"Point","coordinates":[12.1561261,53.7980498]},"properties":{"maxweight":"3.5"}},{"type":"Feature","geometry":{"type":"Point","coordinates":[12.1801644,53.7897215]},"properties":{"maxweight":"3.5"}},{"type":"Feature","geometry":{"type":"Point","coordinates":[12.2377529,53.1321338]},"properties":{"maxweight":"12"}},{"type":"Feature","geometry":{"type":"Point","coordinates":[12.9370923,53.4289202]},"properties":{"maxheight":"4.3"}},{"type":"Feature","geometry":{"type":"Point","coordinates":[12.885798,53.1161425]},"properties":{"maxheight":"4"}},{"type":"Feature","geometry":{"type":"Point","coordinates":[12.1857663,53.7880976]},"properties":{"maxweight":"18"}},{"type":"Feature","geometry":{"type":"Point","coordinates":[12.7589078,53.7438272]},"properties":{"maxweight":"7.5"}},{"type":"Feature","geometry":{"type":"Point","coordinates":[12.7590446,53.7435455]},"properties":{"maxweight":"7.5"}},{"type":"Feature","geometry":{"type":"Point","coordinates":[12.1712906,53.8034719]},"properties":{"maxweight":"7.5"}},{"type":"Feature","geometry":{"type":"Point","coordinates":[12.6542895,53.2068817]},"properties":{"maxheight":"3.5"}},{"type":"Feature","geometry":{"type":"Point","coordinates":[12.9754743,53.9148943]},"properties":{"maxweight":"5.5"}},{"type":"Feature","geometry":{"type":"Point","coordinates":[12.9811957,53.9092452]},"properties":{"maxweight":"16"}},{"type":"Feature","geometry":{"type":"Point","coordinates":[12.9884355,53.9030702]},"properties":{"maxweight":"16"}},{"type":"Feature","geometry":{"type":"Point","coordinates":[12.9770537,53.9166525]},"properties":{"maxweight":"5.5"}},{"type":"Feature","geometry":{"type":"Point","coordinates":[12.3086127,53.1605382]},"properties":{"hgv":"agricultural"}},{"type":"Feature","geometry":{"type":"Point","coordinates":[12.2412398,53.322395]},"properties":{"maxweight":"5.0"}},{"type":"Feature","geometry":{"type":"Point","coordinates":[12.9996488,53.9314521]},"properties":{"maxweight":"5.5"}},{"type":"Feature","geometry":{"type":"Point","coordinates":[12.4357579,53.4726649]},"properties":{"maxweight":"2.8"}},{"type":"Feature","geometry":{"type":"Point","coordinates":[12.4138701,53.4678119]},"properties":{"maxweight":"2.5"}},{"type":"Feature","geometry":{"type":"Point","coordinates":[12.6920796,53.5133197]},"properties":{"maxweight":"2"}},{"type":"Feature","geometry":{"type":"Point","coordinates":[12.6092493,53.3754543]},"properties":{"hgv":"delivery"}},{"type":"Feature","geometry":{"type":"Point","coordinates":[12.6024163,53.3853891]},"properties":{"hgv":"delivery"}},{"type":"Feature","geometry":{"type":"Point","coordinates":[12.9190722,53.9361228]},"properties":{"maxweight":"5.5"}},{"type":"Feature","geometry":{"type":"Point","coordinates":[12.816354,53.9838425]},"properties":{"maxweight":"3"}},{"type":"Feature","geometry":{"type":"Point","coordinates":[12.1250808,53.7449272]},"properties":{"hgv":"no","maxweight":"7.5"}},{"type":"Feature","geometry":{"type":"Point","coordinates":[12.9692517,53.2821131]},"properties":{"goods":"yes"}},{"type":"Feature","geometry":{"type":"Point","coordinates":[12.3489974,53.4691788]},"properties":{"maxweight":"7.5"}},{"type":"Feature","geometry":{"type":"Point","coordinates":[12.3487921,53.4690007]},"properties":{"maxweight":"7.5"}},{"type":"Feature","geometry":{"type":"Point","coordinates":[12.4895269,53.1636088]},"properties":{"maxweight":"7.5 t"}},{"type":"Feature","geometry":{"type":"Point","coordinates":[12.8956951,53.7611501]},"properties":{"maxweight":"5.5"}},{"type":"Feature","geometry":{"type":"Point","coordinates":[12.1704301,53.2525716]},"properties":{"maxheight":"default"}},{"type":"Feature","geometry":{"type":"Point","coordinates":[12.9059859,53.940971]},"properties":{"maxweight":"5.5"}},{"type":"Feature","geometry":{"type":"Point","coordinates":[12.5989503,53.2788288]},"properties":{"maxweight":"7.5"}},{"type":"Feature","geometry":{"type":"Point","coordinates":[12.7035615,53.5166258]},"properties":{"hgv":"no"}},{"type":"Feature","geometry":{"type":"Point","coordinates":[12.180256,53.7859646]},"properties":{"maxweight":"12"}},{"type":"Feature","geometry":{"type":"Point","coordinates":[12.8794791,53.783339]},"properties":{"maxweight":"5.5"}},{"type":"Feature","geometry":{"type":"Point","coordinates":[12.1802451,53.750377]},"properties":{"maxweight":"20"}},{"type":"Feature","geometry":{"type":"Point","coordinates":[12.1135325,53.8285101]},"properties":{"maxweight":"7.5"}},{"type":"Feature","geometry":{"type":"Point","coordinates":[12.1135987,53.8254525]},"properties":{"maxweight":"16 t"}},{"type":"Feature","geometry":{"type":"Point","coordinates":[12.9952203,53.1474654]},"properties":{"maxweight":"1"}},{"type":"Feature","geometry":{"type":"Point","coordinates":[12.7214169,53.2386081]},"properties":{"maxheight":"3.5"}},{"type":"Feature","geometry":{"type":"Point","coordinates":[12.0709485,53.9695198]},"properties":{"maxweight":"10"}},{"type":"Feature","geometry":{"type":"Point","coordinates":[12.4825888,53.1625195]},"properties":{"maxweight":"30"}},{"type":"Feature","geometry":{"type":"Point","coordinates":[12.2907852,53.8404878]},"properties":{"hgv":"designated"}},{"type":"Feature","geometry":{"type":"Point","coordinates":[12.1504471,53.9169343]},"properties":{"maxweight":"20"}},{"type":"Feature","geometry":{"type":"Point","coordinates":[12.1168609,53.9349767]},"properties":{"maxheight":"3.5"}},{"type":"Feature","geometry":{"type":"Point","coordinates":[12.9742213,53.9129556]},"properties":{"maxweight":"5.5"}},{"type":"Feature","geometry":{"type":"Point","coordinates":[12.5761857,53.4663446]},"properties":{"maxweight":"12"}},{"type":"Feature","geometry":{"type":"Point","coordinates":[12.2399418,53.7550748]},"properties":{"hgv":"no"}},{"type":"Feature","geometry":{"type":"Point","coordinates":[12.8750321,53.1561347]},"properties":{"hgv":"no"}},{"type":"Feature","geometry":{"type":"Point","coordinates":[12.2999383,53.9864326]},"properties":{"maxweight":"20"}},{"type":"Feature","geometry":{"type":"Point","coordinates":[12.8234306,53.2733204]},"properties":{"hgv":"delivery"}},{"type":"Feature","geometry":{"type":"Point","coordinates":[12.5331189,53.0698698]},"properties":{"hgv":"designated"}},{"type":"Feature","geometry":{"type":"Point","coordinates":[12.9254131,53.7035234]},"properties":{"maxheight":"4.6"}},{"type":"Feature","geometry":{"type":"Point","coordinates":[12.8017266,53.2721155]},"properties":{"maxwidth":"6.63","maxlength":"54.5"}},{"type":"Feature","geometry":{"type":"Point","coordinates":[12.348155,53.467595]},"properties":{"maxweight":"7.5"}},{"type":"Feature","geometry":{"type":"Point","coordinates":[12.6048077,53.384555]},"properties":{"hgv":"delivery"}},{"type":"Feature","geometry":{"type":"Point","coordinates":[12.8087464,53.2770115]},"properties":{"maxweight":"10"}},{"type":"Feature","geometry":{"type":"Point","coordinates":[12.809095,53.2767864]},"properties":{"maxweight":"10"}},{"type":"Feature","geometry":{"type":"Point","coordinates":[12.8343969,53.7477685]},"properties":{"maxweight":"5.5"}},{"type":"Feature","geometry":{"type":"Point","coordinates":[12.7578168,53.7445887]},"properties":{"hgv":"no","goods":"no"}},{"type":"Feature","geometry":{"type":"Point","coordinates":[12.7608031,53.741761]},"properties":{"maxweight":"5.5"}},{"type":"Feature","geometry":{"type":"Point","coordinates":[12.6748567,53.5238734]},"properties":{"hgv":"delivery"}},{"type":"Feature","geometry":{"type":"Point","coordinates":[12.6914373,53.5088209]},"properties":{"hgv":"delivery"}},{"type":"Feature","geometry":{"type":"Point","coordinates":[12.9934351,53.6150325]},"properties":{"maxweight":"5.5"}},{"type":"Feature","geometry":{"type":"Point","coordinates":[12.4563064,53.1851014]},"properties":{"hgv":"no"}},{"type":"Feature","geometry":{"type":"Point","coordinates":[12.4567347,53.1916981]},"properties":{"hgv":"no"}},{"type":"Feature","geometry":{"type":"Point","coordinates":[12.4565709,53.1916903]},"properties":{"hgv":"no"}},{"type":"Feature","geometry":{"type":"Point","coordinates":[12.34755,53.1759746]},"properties":{"hgv":"delivery"}},{"type":"Feature","geometry":{"type":"Point","coordinates":[12.4833938,53.874307]},"properties":{"maxweight":"20"}},{"type":"Feature","geometry":{"type":"Point","coordinates":[12.8168668,53.1482115]},"properties":{"maxweight":"9"}},{"type":"Feature","geometry":{"type":"Point","coordinates":[12.0473008,53.8271873]},"properties":{"maxweight":"16"}},{"type":"Feature","geometry":{"type":"Point","coordinates":[12.6755198,53.2471858]},"properties":{"maxweight":"16"}},{"type":"Feature","geometry":{"type":"Point","coordinates":[12.4458854,53.1358463]},"properties":{"maxheight":"default"}},{"type":"Feature","geometry":{"type":"Point","coordinates":[12.4052041,53.0946872]},"properties":{"maxweight":"5.5"}},{"type":"Feature","geometry":{"type":"Point","coordinates":[12.2990477,53.9888284]},"properties":{"maxweight":"20"}},{"type":"Feature","geometry":{"type":"Point","coordinates":[12.2794547,53.9796443]},"properties":{"hgv":"no"}},{"type":"Feature","geometry":{"type":"Point","coordinates":[12.7028603,53.5063116]},"properties":{"hgv":"yes"}},{"type":"Feature","geometry":{"type":"Point","coordinates":[12.32188,53.226858]},"properties":{"hgv":"delivery"}},{"type":"Feature","geometry":{"type":"Point","coordinates":[12.1804172,53.7962348]},"properties":{"maxweight":"24"}},{"type":"Feature","geometry":{"type":"Point","coordinates":[12.1804397,53.7965598]},"properties":{"maxweight":"24"}},{"type":"Feature","geometry":{"type":"Point","coordinates":[12.4832657,53.158697]},"properties":{"hgv":"delivery"}},{"type":"Feature","geometry":{"type":"Point","coordinates":[12.4841313,53.1562951]},"properties":{"hgv":"delivery"}},{"type":"Feature","geometry":{"type":"Point","coordinates":[12.4803435,53.1540417]},"properties":{"hgv":"delivery"}},{"type":"Feature","geometry":{"type":"Point","coordinates":[12.3106383,53.1885946]},"properties":{"hgv":"agricultural"}},{"type":"Feature","geometry":{"type":"Point","coordinates":[12.4855548,53.1651333]},"properties":{"maxweight":"7.5 t"}},{"type":"Feature","geometry":{"type":"Point","coordinates":[12.4852351,53.1661704]},"properties":{"maxheight":"3.6","maxweight":"7.5 t"}},{"type":"Feature","geometry":{"type":"Point","coordinates":[12.4797409,53.1617726]},"properties":{"maxweight":"7.5 t"}},{"type":"Feature","geometry":{"type":"Point","coordinates":[12.480996,53.1619095]},"properties":{"maxweight":"7.5 t"}},{"type":"Feature","geometry":{"type":"Point","coordinates":[12.4793092,53.1618837]},"properties":{"maxweight":"7.5 t"}},{"type":"Feature","geometry":{"type":"Point","coordinates":[12.4793625,53.1617335]},"properties":{"maxweight":"7.5 t"}},{"type":"Feature","geometry":{"type":"Point","coordinates":[12.4460024,53.9507767]},"properties":{"maxweight":"20"}},{"type":"Feature","geometry":{"type":"Point","coordinates":[12.1063584,53.9842033]},"properties":{"hgv":"no"}},{"type":"Feature","geometry":{"type":"Point","coordinates":[12.482709,53.162345]},"properties":{"maxweight":"7.5 t"}},{"type":"Feature","geometry":{"type":"Point","coordinates":[12.4830053,53.1621302]},"properties":{"maxweight":"7.5 t"}},{"type":"Feature","geometry":{"type":"Point","coordinates":[12.1033991,53.9807214]},"properties":{"hgv":"no"}},{"type":"Feature","geometry":{"type":"Point","coordinates":[12.2014297,53.8017106]},"properties":{"hgv":"destination"}},{"type":"Feature","geometry":{"type":"Point","coordinates":[12.1796007,53.7500358]},"properties":{"maxweight":"20"}},{"type":"Feature","geometry":{"type":"Point","coordinates":[12.91918,53.5655618]},"properties":{"maxweight":"3.5"}},{"type":"Feature","geometry":{"type":"Point","coordinates":[12.91762,53.563994]},"properties":{"maxweight":"12"}},{"type":"Feature","geometry":{"type":"Point","coordinates":[12.7014072,53.5246892]},"properties":{"maxwidth":"2","maxweight":"2.5"}},{"type":"Feature","geometry":{"type":"Point","coordinates":[12.9100589,53.0673373]},"properties":{"maxweight":"6"}},{"type":"Feature","geometry":{"type":"Point","coordinates":[12.1595321,53.6918467]},"properties":{"maxweight":"6"}},{"type":"Feature","geometry":{"type":"Point","coordinates":[12.2131118,53.7707475]},"properties":{"maxweight":"20"}},{"type":"Feature","geometry":{"type":"Point","coordinates":[12.2605727,53.4571075]},"properties":{"maxweight":"6"}},{"type":"Feature","geometry":{"type":"Point","coordinates":[12.1765327,53.6568174]},"properties":{"hgv":"no"}},{"type":"Feature","geometry":{"type":"Point","coordinates":[12.4326011,53.4754457]},"properties":{"maxweight":"2.8"}},{"type":"Feature","geometry":{"type":"Point","coordinates":[12.4329358,53.4751471]},"properties":{"maxweight":"2.8"}},{"type":"Feature","geometry":{"type":"Point","coordinates":[12.4427028,53.7849498]},"properties":{"maxweight":"12"}},{"type":"Feature","geometry":{"type":"Point","coordinates":[12.6877238,53.5156502]},"properties":{"maxweight":"12"}},{"type":"Feature","geometry":{"type":"Point","coordinates":[12.6847058,53.5167835]},"properties":{"maxheight":"default"}},{"type":"Feature","geometry":{"type":"Point","coordinates":[12.6879019,53.5154977]},"properties":{"maxweight":"12"}},{"type":"Feature","geometry":{"type":"Point","coordinates":[12.4542791,53.158023]},"properties":{"maxheight":"default"}},{"type":"Feature","geometry":{"type":"Point","coordinates":[12.4752468,53.1574845]},"properties":{"hgv":"delivery"}},{"type":"Feature","geometry":{"type":"Point","coordinates":[12.4734841,53.1573931]},"properties":{"hgv":"delivery"}},{"type":"Feature","geometry":{"type":"Point","coordinates":[12.1779538,53.1186188]},"properties":{"maxweight":"12"}},{"type":"Feature","geometry":{"type":"Point","coordinates":[12.8482855,53.7469391]},"properties":{"maxweight":"5.5"}},{"type":"Feature","geometry":{"type":"Point","coordinates":[12.2602495,53.4657398]},"properties":{"hgv":"no"}},{"type":"Feature","geometry":{"type":"Point","coordinates":[12.2355219,53.3076191]},"properties":{"hgv":"no"}},{"type":"Feature","geometry":{"type":"Point","coordinates":[12.2420921,53.3224559]},"properties":{"maxweight":"5.0"}},{"type":"Feature","geometry":{"type":"Point","coordinates":[12.3263281,53.1966822]},"properties":{"hgv":"agricultural"}},{"type":"Feature","geometry":{"type":"Point","coordinates":[12.3089996,53.181561]},"properties":{"hgv":"delivery"}},{"type":"Feature","geometry":{"type":"Point","coordinates":[12.3350137,53.1749712]},"properties":{"hgv":"agricultural"}},{"type":"Feature","geometry":{"type":"Point","coordinates":[12.8600525,53.2076133]},"properties":{"maxweight":"12"}},{"type":"Feature","geometry":{"type":"Point","coordinates":[12.9035712,53.1995762]},"properties":{"maxweight":"12"}},{"type":"Feature","geometry":{"type":"Point","coordinates":[12.3502338,53.4695485]},"properties":{"maxweight":"7.5"}},{"type":"Feature","geometry":{"type":"Point","coordinates":[12.0612269,53.8867668]},"properties":{"maxweight":"20"}},{"type":"Feature","geometry":{"type":"Point","coordinates":[12.0642136,53.885292]},"properties":{"maxweight":"20"}},{"type":"Feature","geometry":{"type":"Point","coordinates":[12.0516392,53.8928772]},"properties":{"maxweight":"20"}},{"type":"Feature","geometry":{"type":"Point","coordinates":[12.0515283,53.8933066]},"properties":{"maxweight":"20"}},{"type":"Feature","geometry":{"type":"Point","coordinates":[12.1308819,53.9495705]},"properties":{"maxweight":"1.5"}},{"type":"Feature","geometry":{"type":"Point","coordinates":[12.1002839,53.9386939]},"properties":{"hgv":"destination"}},{"type":"Feature","geometry":{"type":"Point","coordinates":[12.144109,53.9331783]},"properties":{"maxweight":"7.5"}},{"type":"Feature","geometry":{"type":"Point","coordinates":[12.1026916,53.9388384]},"properties":{"hgv":"no"}},{"type":"Feature","geometry":{"type":"Point","coordinates":[12.1060049,53.9401521]},"properties":{"maxweight":"2.8 t"}},{"type":"Feature","geometry":{"type":"Point","coordinates":[12.0396522,53.2443183]},"properties":{"maxweight":"7.5"}},{"type":"Feature","geometry":{"type":"Point","coordinates":[12.2243977,53.2247531]},"properties":{"maxheight":"default"}},{"type":"Feature","geometry":{"type":"Point","coordinates":[12.4615806,53.1923442]},"properties":{"hgv":"no"}},{"type":"Feature","geometry":{"type":"Point","coordinates":[12.1960823,53.9810009]},"properties":{"maxheight":"default"}},{"type":"Feature","geometry":{"type":"Point","coordinates":[12.1988905,53.9533762]},"properties":{"maxheight":"default"}},{"type":"Feature","geometry":{"type":"Point","coordinates":[12.2729982,53.461749]},"properties":{"maxweight":"26"}},{"type":"Feature","geometry":{"type":"Point","coordinates":[12.1001705,53.9745566]},"properties":{"maxweight":"10"}},{"type":"Feature","geometry":{"type":"Point","coordinates":[12.1015201,53.9730399]},"properties":{"maxweight":"10"}},{"type":"Feature","geometry":{"type":"Point","coordinates":[12.861255,53.2079003]},"properties":{"maxwidth":"5.4","maxlength":"43"}},{"type":"Feature","geometry":{"type":"Point","coordinates":[12.9558752,53.3172929]},"properties":{"maxwidth":"3.5","maxlength":"65"}},{"type":"Feature","geometry":{"type":"Point","coordinates":[12.989353,53.2739687]},"properties":{"maxwidth":"6.6","maxlength":"55.6"}},{"type":"Feature","geometry":{"type":"Point","coordinates":[12.9976485,53.2063294]},"properties":{"maxwidth":"5.10","maxlength":"42.4"}},{"type":"Feature","geometry":{"type":"Point","coordinates":[12.9043237,53.198998]},"properties":{"maxwidth":"5.3","maxlength":"41.5"}},{"type":"Feature","geometry":{"type":"Point","coordinates":[12.0277839,53.462372]},"properties":{"maxwidth":"6.5","maxlength":"53.6"}},{"type":"Feature","geometry":{"type":"Point","coordinates":[12.0706696,53.4914246]},"properties":{"maxwidth":"6.6","maxlength":"53.5"}},{"type":"Feature","geometry":{"type":"Point","coordinates":[12.1877511,53.4691307]},"properties":{"maxwidth":"6.5","maxlength":"55"}},{"type":"Feature","geometry":{"type":"Point","coordinates":[12.2605877,53.4568123]},"properties":{"maxwidth":"5.10","maxlength":"41.5"}},{"type":"Feature","geometry":{"type":"Point","coordinates":[12.9045236,53.1822352]},"properties":{"maxwidth":"5.1","maxlength":"42.5"}},{"type":"Feature","geometry":{"type":"Point","coordinates":[12.815314,53.2742093]},"properties":{"maxweight":"5"}},{"type":"Feature","geometry":{"type":"Point","coordinates":[12.6562037,53.2270645]},"properties":{"hgv":"private","goods":"private"}},{"type":"Feature","geometry":{"type":"Point","coordinates":[12.9436541,53.3187201]},"properties":{"hgv":"delivery"}},{"type":"Feature","geometry":{"type":"Point","coordinates":[12.9387466,53.3111882]},"properties":{"hgv":"delivery"}},{"type":"Feature","geometry":{"type":"Point","coordinates":[12.9428736,53.3183165]},"properties":{"hgv":"delivery"}},{"type":"Feature","geometry":{"type":"Point","coordinates":[12.9404303,53.3162615]},"properties":{"hgv":"delivery"}},{"type":"Feature","geometry":{"type":"Point","coordinates":[12.8899999,53.7722031]},"properties":{"maxweight":"5.5"}},{"type":"Feature","geometry":{"type":"Point","coordinates":[12.6859247,53.5161327]},"properties":{"maxheight":"default"}},{"type":"Feature","geometry":{"type":"Point","coordinates":[12.1821434,53.7962255]},"properties":{"maxheight":"default"}},{"type":"Feature","geometry":{"type":"Point","coordinates":[12.6325718,53.1788012]},"properties":{"maxweight":"7.5 t"}},{"type":"Feature","geometry":{"type":"Point","coordinates":[12.811225,53.2762472]},"properties":{"maxweight":"10"}},{"type":"Feature","geometry":{"type":"Point","coordinates":[12.8119027,53.2761525]},"properties":{"maxweight":"10"}},{"type":"Feature","geometry":{"type":"Point","coordinates":[12.1472861,53.0901744]},"properties":{"maxweight":"7.5"}},{"type":"Feature","geometry":{"type":"Point","coordinates":[12.1053651,53.9832463]},"properties":{"hgv":"no"}},{"type":"Feature","geometry":{"type":"Point","coordinates":[12.0312268,53.1683938]},"properties":{"hgv":"agricultural"}},{"type":"Feature","geometry":{"type":"Point","coordinates":[12.4627643,53.1226309]},"properties":{"maxheight":"default"}},{"type":"Feature","geometry":{"type":"Point","coordinates":[12.866611,53.9039215]},"properties":{"maxheight":"default"}},{"type":"Feature","geometry":{"type":"Point","coordinates":[12.5884478,53.0099163]},"properties":{"hgv":"designated"}},{"type":"Feature","geometry":{"type":"Point","coordinates":[12.8942123,53.0939315]},"properties":{"maxweight":"10"}},{"type":"Feature","geometry":{"type":"Point","coordinates":[12.6401025,53.5169088]},"properties":{"maxweight":"7.5"}},{"type":"Feature","geometry":{"type":"Point","coordinates":[12.8237826,53.2738935]},"properties":{"hgv":"delivery"}},{"type":"Feature","geometry":{"type":"Point","coordinates":[12.8234831,53.2734536]},"properties":{"hgv":"delivery"}},{"type":"Feature","geometry":{"type":"Point","coordinates":[12.8237516,53.2734056]},"properties":{"hgv":"delivery"}},{"type":"Feature","geometry":{"type":"Point","coordinates":[12.5000942,53.6506596]},"properties":{"maxweight":"12.0"}},{"type":"Feature","geometry":{"type":"Point","coordinates":[12.6739771,53.5277857]},"properties":{"maxheight":"default"}},{"type":"Feature","geometry":{"type":"Point","coordinates":[12.500318,53.6505848]},"properties":{"maxweight":"12"}},{"type":"Feature","geometry":{"type":"Point","coordinates":[12.5376778,53.4612855]},"properties":{"maxweight":"12"}},{"type":"Feature","geometry":{"type":"Point","coordinates":[12.8122668,53.2758235]},"properties":{"maxweight":"10"}},{"type":"Feature","geometry":{"type":"Point","coordinates":[12.3009914,53.9973263]},"properties":{"maxweight":"20"}},{"type":"Feature","geometry":{"type":"Point","coordinates":[12.4770946,53.1614439]},"properties":{"maxweight":"7.5 t"}},{"type":"Feature","geometry":{"type":"Point","coordinates":[12.4719953,53.1607736]},"properties":{"hgv":"delivery"}},{"type":"Feature","geometry":{"type":"Point","coordinates":[12.3857536,53.471354]},"properties":{"maxweight":"7.5"}},{"type":"Feature","geometry":{"type":"Point","coordinates":[12.2073157,53.7608467]},"properties":{"maxweight":"20"}},{"type":"Feature","geometry":{"type":"Point","coordinates":[12.2130927,53.7632973]},"properties":{"maxweight":"20"}},{"type":"Feature","geometry":{"type":"Point","coordinates":[12.4771384,53.307134]},"properties":{"maxheight":"default"}},{"type":"Feature","geometry":{"type":"Point","coordinates":[12.6033276,53.2802485]},"properties":{"maxweight":"7.5"}},{"type":"Feature","geometry":{"type":"Point","coordinates":[12.6104067,53.2841399]},"properties":{"maxweight":"7.5"}},{"type":"Feature","geometry":{"type":"Point","coordinates":[12.2435488,53.3226606]},"properties":{"maxweight":"5.0"}},{"type":"Feature","geometry":{"type":"Point","coordinates":[12.4369319,53.4721784]},"properties":{"maxweight":"2.8"}},{"type":"Feature","geometry":{"type":"Point","coordinates":[12.2726324,53.6610023]},"properties":{"maxheight":"32"}},{"type":"Feature","geometry":{"type":"Point","coordinates":[12.4715477,53.298889]},"properties":{"hgv":"no"}},{"type":"Feature","geometry":{"type":"Point","coordinates":[12.3907786,53.5151997]},"properties":{"hgv":"agricultural;forestry"}},{"type":"Feature","geometry":{"type":"Point","coordinates":[12.3524556,53.5120619]},"properties":{"hgv":"no"}},{"type":"Feature","geometry":{"type":"Point","coordinates":[12.4117231,53.5188542]},"properties":{"hgv":"agricultural;forestry"}},{"type":"Feature","geometry":{"type":"Point","coordinates":[12.6852233,53.7195632]},"properties":{"maxweight":"5.5"}},{"type":"Feature","geometry":{"type":"Point","coordinates":[12.6906646,53.7525108]},"properties":{"maxweight":"5.5"}},{"type":"Feature","geometry":{"type":"Point","coordinates":[12.2115928,53.7741028]},"properties":{"maxweight":"20"}},{"type":"Feature","geometry":{"type":"Point","coordinates":[12.1276497,53.8160993]},"properties":{"maxweight":"12 t"}},{"type":"Feature","geometry":{"type":"Point","coordinates":[12.3571698,53.4625125]},"properties":{"maxweight":"7.5"}},{"type":"Feature","geometry":{"type":"Point","coordinates":[12.9743278,53.9130029]},"properties":{"maxweight":"5.5"}},{"type":"Feature","geometry":{"type":"Point","coordinates":[12.4756726,53.1596536]},"properties":{"hgv":"no"}},{"type":"Feature","geometry":{"type":"Point","coordinates":[12.3562719,53.7150118]},"properties":{"hgv":"designated","goods":"designated"}},{"type":"Feature","geometry":{"type":"Point","coordinates":[12.358556,53.7106639]},"properties":{"hgv":"designated","goods":"designated"}},{"type":"Feature","geometry":{"type":"Point","coordinates":[12.0708568,53.4921329]},"properties":{"maxweight":"9"}},{"type":"Feature","geometry":{"type":"Point","coordinates":[12.4480769,53.1574772]},"properties":{"maxheight":"default"}},{"type":"Feature","geometry":{"type":"Point","coordinates":[12.4478338,53.1580244]},"properties":{"maxheight":"default"}},{"type":"Feature","geometry":{"type":"Point","coordinates":[12.4508997,53.2215905]},"properties":{"maxheight":"default"}},{"type":"Feature","geometry":{"type":"Point","coordinates":[12.4114845,53.4373636]},"properties":{"maxheight":"default"}},{"type":"Feature","geometry":{"type":"Point","coordinates":[12.4723755,53.2943749]},"properties":{"hgv":"no"}},{"type":"Feature","geometry":{"type":"Point","coordinates":[12.09102,53.1452375]},"properties":{"maxheight":"default"}},{"type":"Feature","geometry":{"type":"Point","coordinates":[12.5378201,53.0540249]},"properties":{"maxheight":"default"}},{"type":"Feature","geometry":{"type":"Point","coordinates":[12.5371364,53.0545544]},"properties":{"maxheight":"default"}},{"type":"Feature","geometry":{"type":"Point","coordinates":[12.578687,53.0185727]},"properties":{"maxheight":"default"}},{"type":"Feature","geometry":{"type":"Point","coordinates":[12.5276074,53.0722438]},"properties":{"maxheight":"default"}},{"type":"Feature","geometry":{"type":"Point","coordinates":[12.5133887,53.0895679]},"properties":{"maxheight":"default"}},{"type":"Feature","geometry":{"type":"Point","coordinates":[12.2136646,53.780269]},"properties":{"maxweight":"20"}},{"type":"Feature","geometry":{"type":"Point","coordinates":[12.3698379,53.6829126]},"properties":{"maxheight":"default"}},{"type":"Feature","geometry":{"type":"Point","coordinates":[12.3698871,53.6824626]},"properties":{"maxheight":"default"}},{"type":"Feature","geometry":{"type":"Point","coordinates":[12.3211993,53.7732049]},"properties":{"maxheight":"default"}},{"type":"Feature","geometry":{"type":"Point","coordinates":[12.3234799,53.7683276]},"properties":{"maxheight":"default"}},{"type":"Feature","geometry":{"type":"Point","coordinates":[12.2999714,53.8277763]},"properties":{"maxheight":"default"}},{"type":"Feature","geometry":{"type":"Point","coordinates":[12.2999554,53.8270085]},"properties":{"maxheight":"default"}},{"type":"Feature","geometry":{"type":"Point","coordinates":[12.1650821,53.5216974]},"properties":{"maxweight":"12 t"}},{"type":"Feature","geometry":{"type":"Point","coordinates":[12.3642741,53.682172]},"properties":{"hgv":"no"}},{"type":"Feature","geometry":{"type":"Point","coordinates":[12.028662,53.1617173]},"properties":{"hgv":"agricultural"}},{"type":"Feature","geometry":{"type":"Point","coordinates":[12.0265505,53.157829]},"properties":{"hgv":"agricultural"}},{"type":"Feature","geometry":{"type":"Point","coordinates":[12.4371785,53.4721167]},"properties":{"maxweight":"2.8"}},{"type":"Feature","geometry":{"type":"Point","coordinates":[12.1083069,53.2721781]},"properties":{"maxheight":"default"}},{"type":"Feature","geometry":{"type":"Point","coordinates":[12.0857246,53.2789857]},"properties":{"maxheight":"default"}},{"type":"Feature","geometry":{"type":"Point","coordinates":[12.0830205,53.2803661]},"properties":{"maxheight":"default"}},{"type":"Feature","geometry":{"type":"Point","coordinates":[12.0886783,53.2778948]},"properties":{"maxheight":"default"}},{"type":"Feature","geometry":{"type":"Point","coordinates":[12.0315139,53.2947944]},"properties":{"maxheight":"default"}},{"type":"Feature","geometry":{"type":"Point","coordinates":[12.2108267,53.2306701]},"properties":{"maxheight":"default"}},{"type":"Feature","geometry":{"type":"Point","coordinates":[12.2578517,53.8884767]},"properties":{"maxheight":"default"}},{"type":"Feature","geometry":{"type":"Point","coordinates":[12.3751182,53.6152131]},"properties":{"maxheight":"default"}},{"type":"Feature","geometry":{"type":"Point","coordinates":[12.375622,53.6164513]},"properties":{"maxheight":"default"}},{"type":"Feature","geometry":{"type":"Point","coordinates":[12.2367966,53.9160551]},"properties":{"maxheight":"default"}},{"type":"Feature","geometry":{"type":"Point","coordinates":[12.2612188,53.860655]},"properties":{"maxheight":"default"}},{"type":"Feature","geometry":{"type":"Point","coordinates":[12.4677545,53.367473]},"properties":{"maxheight":"default"}},{"type":"Feature","geometry":{"type":"Point","coordinates":[12.4625418,53.3734898]},"properties":{"maxheight":"default"}},{"type":"Feature","geometry":{"type":"Point","coordinates":[12.2143642,53.7850838]},"properties":{"maxweight":"20"}},{"type":"Feature","geometry":{"type":"Point","coordinates":[12.2911384,53.8400555]},"properties":{"maxheight":"default"}},{"type":"Feature","geometry":{"type":"Point","coordinates":[12.290931,53.8399159]},"properties":{"maxheight":"default"}},{"type":"Feature","geometry":{"type":"Point","coordinates":[12.4719709,53.2988087]},"properties":{"hgv":"designated"}},{"type":"Feature","geometry":{"type":"Point","coordinates":[12.4720002,53.2951701]},"properties":{"hgv":"designated"}},{"type":"Feature","geometry":{"type":"Point","coordinates":[12.452716,53.2674802]},"properties":{"maxheight":"default"}},{"type":"Feature","geometry":{"type":"Point","coordinates":[12.4490313,53.238295]},"properties":{"maxheight":"default"}},{"type":"Feature","geometry":{"type":"Point","coordinates":[12.4693182,53.1153445]},"properties":{"hgv":"designated"}},{"type":"Feature","geometry":{"type":"Point","coordinates":[12.4668835,53.115678]},"properties":{"hgv":"designated"}},{"type":"Feature","geometry":{"type":"Point","coordinates":[12.6466795,53.2316899]},"properties":{"hgv":"no"}},{"type":"Feature","geometry":{"type":"Point","coordinates":[12.198614,53.9535265]},"properties":{"maxheight":"default"}},{"type":"Feature","geometry":{"type":"Point","coordinates":[12.1961943,53.9820897]},"properties":{"maxheight":"default"}},{"type":"Feature","geometry":{"type":"Point","coordinates":[12.2577088,53.8888961]},"properties":{"maxheight":"default"}},{"type":"Feature","geometry":{"type":"Point","coordinates":[12.2621955,53.8592595]},"properties":{"maxheight":"default"}},{"type":"Feature","geometry":{"type":"Point","coordinates":[12.3566483,53.7226654]},"properties":{"maxheight":"default"}},{"type":"Feature","geometry":{"type":"Point","coordinates":[12.353885,53.7272591]},"properties":{"maxheight":"default"}},{"type":"Feature","geometry":{"type":"Point","coordinates":[12.363195,53.6624732]},"properties":{"maxheight":"default"}},{"type":"Feature","geometry":{"type":"Point","coordinates":[12.447722,53.1357709]},"properties":{"maxheight":"default"}},{"type":"Feature","geometry":{"type":"Point","coordinates":[12.5699933,53.0294299]},"properties":{"maxheight":"default"}},{"type":"Feature","geometry":{"type":"Point","coordinates":[12.1367771,53.490161]},"properties":{"maxweight":"12"}},{"type":"Feature","geometry":{"type":"Point","coordinates":[12.143122,53.2644782]},"properties":{"hgv":"designated"}},{"type":"Feature","geometry":{"type":"Point","coordinates":[12.1428269,53.2636536]},"properties":{"hgv":"designated"}},{"type":"Feature","geometry":{"type":"Point","coordinates":[12.1773392,53.1509265]},"properties":{"hgv":"no"}},{"type":"Feature","geometry":{"type":"Point","coordinates":[12.1775409,53.1513434]},"properties":{"hgv":"no"}},{"type":"Feature","geometry":{"type":"Point","coordinates":[12.8109632,53.0192802]},"properties":{"maxweight":"16"}},{"type":"Feature","geometry":{"type":"Point","coordinates":[12.7752729,53.0274997]},"properties":{"maxheight":"4"}},{"type":"Feature","geometry":{"type":"Point","coordinates":[12.4578816,53.1349265]},"properties":{"maxheight":"default"}},{"type":"Feature","geometry":{"type":"Point","coordinates":[12.4580039,53.1351695]},"properties":{"maxheight":"default"}},{"type":"Feature","geometry":{"type":"Point","coordinates":[12.4569288,53.1374503]},"properties":{"maxheight":"default"}},{"type":"Feature","geometry":{"type":"Point","coordinates":[12.9133218,53.6932699]},"properties":{"maxweight":"5.5"}},{"type":"Feature","geometry":{"type":"Point","coordinates":[12.3580588,53.8625095]},"properties":{"maxweight":"30"}},{"type":"Feature","geometry":{"type":"Point","coordinates":[12.5879095,53.7707002]},"properties":{"hgv":"no"}},{"type":"Feature","geometry":{"type":"Point","coordinates":[12.347769,53.4661269]},"properties":{"maxweight":"7.5"}},{"type":"Feature","geometry":{"type":"Point","coordinates":[12.3473058,53.4664589]},"properties":{"maxweight":"7.5"}},{"type":"Feature","geometry":{"type":"Point","coordinates":[12.2599985,53.3150525]},"properties":{"hgv":"only"}},{"type":"Feature","geometry":{"type":"Point","coordinates":[12.5339596,53.0692684]},"properties":{"hgv":"no"}},{"type":"Feature","geometry":{"type":"Point","coordinates":[12.5328567,53.0687885]},"properties":{"hgv":"only"}},{"type":"Feature","geometry":{"type":"Point","coordinates":[12.9428736,53.3183165]},"properties":{"hgv":"delivery"}},{"type":"Feature","geometry":{"type":"Point","coordinates":[12.1304976,53.8170926]},"properties":{"maxheight":"3.2","maxwidth":"3","maxweight":"12"}},{"type":"Feature","geometry":{"type":"Point","coordinates":[12.1130323,53.8328813]},"properties":{"maxweight":"7.5"}},{"type":"Feature","geometry":{"type":"Point","coordinates":[12.4829026,53.1597852]},"properties":{"maxweight":"7.5 t"}},{"type":"Feature","geometry":{"type":"Point","coordinates":[12.1302378,53.0924201]},"properties":{"hgv":"agricultural"}},{"type":"Feature","geometry":{"type":"Point","coordinates":[12.1778681,53.1518904]},"properties":{"hgv":"no"}},{"type":"Feature","geometry":{"type":"Point","coordinates":[12.483843,53.1518368]},"properties":{"hgv":"delivery"}},{"type":"Feature","geometry":{"type":"Point","coordinates":[12.8232147,53.2734465]},"properties":{"hgv":"delivery"}},{"type":"Feature","geometry":{"type":"Point","coordinates":[12.8100378,53.2766492]},"properties":{"maxweight":"10"}},{"type":"Feature","geometry":{"type":"Point","coordinates":[12.717021,53.3183243]},"properties":{"maxweight":"12"}},{"type":"Feature","geometry":{"type":"Point","coordinates":[12.1750742,53.8028495]},"properties":{"maxweight":"7.5"}},{"type":"Feature","geometry":{"type":"Point","coordinates":[12.1794568,53.8019605]},"properties":{"maxweight":"7.5"}},{"type":"Feature","geometry":{"type":"Point","coordinates":[12.1445197,53.744862]},"properties":{"maxweight":"20"}},{"type":"Feature","geometry":{"type":"Point","coordinates":[12.1552819,53.7446307]},"properties":{"maxweight":"20"}},{"type":"Feature","geometry":{"type":"Point","coordinates":[12.4912139,53.1636362]},"properties":{"maxweight":"7.5 t"}},{"type":"Feature","geometry":{"type":"Point","coordinates":[12.3614656,53.6794239]},"properties":{"hgv":"no"}},{"type":"Feature","geometry":{"type":"Point","coordinates":[12.1831677,53.7508916]},"properties":{"maxweight":"20"}},{"type":"Feature","geometry":{"type":"Point","coordinates":[12.1744575,53.7477865]},"properties":{"maxweight":"20"}},{"type":"Feature","geometry":{"type":"Point","coordinates":[12.6026569,53.3853011]},"properties":{"hgv":"delivery"}},{"type":"Feature","geometry":{"type":"Point","coordinates":[12.5910173,53.3741261]},"properties":{"hgv":"no"}},{"type":"Feature","geometry":{"type":"Point","coordinates":[12.5429921,53.5657302]},"properties":{"hgv":"no"}},{"type":"Feature","geometry":{"type":"Point","coordinates":[12.3906218,53.5151724]},"properties":{"hgv":"agricultural;forestry"}},{"type":"Feature","geometry":{"type":"Point","coordinates":[12.6738566,53.7337029]},"properties":{"maxweight":"5.5"}},{"type":"Feature","geometry":{"type":"Point","coordinates":[12.7539728,53.6939374]},"properties":{"hgv":"no"}},{"type":"Feature","geometry":{"type":"Point","coordinates":[12.1055751,53.9834232]},"properties":{"hgv":"no"}},{"type":"Feature","geometry":{"type":"Point","coordinates":[12.8218364,53.2690364]},"properties":{"hgv":"delivery"}},{"type":"Feature","geometry":{"type":"Point","coordinates":[12.9856182,53.2802606]},"properties":{"maxweight":"12"}},{"type":"Feature","geometry":{"type":"Point","coordinates":[12.5960803,53.8826694]},"properties":{"maxweight":"20"}},{"type":"Feature","geometry":{"type":"Point","coordinates":[12.1137656,53.7463477]},"properties":{"maxweight":"7.5"}},{"type":"Feature","geometry":{"type":"Point","coordinates":[12.4906928,53.1635835]},"properties":{"maxweight":"7.5 t"}},{"type":"Feature","geometry":{"type":"Point","coordinates":[12.4904682,53.163568]},"properties":{"maxweight":"7.5 t"}},{"type":"Feature","geometry":{"type":"Point","coordinates":[12.1230194,53.1496663]},"properties":{"maxheight":"default"}},{"type":"Feature","geometry":{"type":"Point","coordinates":[12.4811152,53.1559598]},"properties":{"hgv":"delivery"}},{"type":"Feature","geometry":{"type":"Point","coordinates":[12.8250788,53.2736977]},"properties":{"hgv":"delivery"}},{"type":"Feature","geometry":{"type":"Point","coordinates":[12.823769,53.2737398]},"properties":{"hgv":"delivery"}},{"type":"Feature","geometry":{"type":"Point","coordinates":[12.6803397,53.7237406]},"properties":{"maxweight":"5.5"}},{"type":"Feature","geometry":{"type":"Point","coordinates":[12.6738227,53.7270566]},"properties":{"maxweight":"5.5"}},{"type":"Feature","geometry":{"type":"Point","coordinates":[12.6875193,53.515709]},"properties":{"maxheight":"default"}},{"type":"Feature","geometry":{"type":"Point","coordinates":[12.6871961,53.5158094]},"properties":{"maxheight":"default"}},{"type":"Feature","geometry":{"type":"Point","coordinates":[12.6869138,53.5159021]},"properties":{"maxheight":"default"}},{"type":"Feature","geometry":{"type":"Point","coordinates":[12.6834057,53.5176649]},"properties":{"maxheight":"default"}},{"type":"Feature","geometry":{"type":"Point","coordinates":[12.6853716,53.5164685]},"properties":{"maxheight":"default"}},{"type":"Feature","geometry":{"type":"Point","coordinates":[12.6859341,53.5162254]},"properties":{"maxheight":"default"}},{"type":"Feature","geometry":{"type":"Point","coordinates":[12.6756379,53.5241036]},"properties":{"hgv":"delivery"}},{"type":"Feature","geometry":{"type":"Point","coordinates":[12.6590549,53.5412542]},"properties":{"hgv":"destination"}},{"type":"Feature","geometry":{"type":"Point","coordinates":[12.6991866,53.7069978]},"properties":{"maxweight":"5.5"}},{"type":"Feature","geometry":{"type":"Point","coordinates":[12.7067955,53.7034103]},"properties":{"maxweight":"5.5"}},{"type":"Feature","geometry":{"type":"Point","coordinates":[12.4747303,53.1611227]},"properties":{"maxweight":"7.5 t"}},{"type":"Feature","geometry":{"type":"Point","coordinates":[12.8114786,53.2761861]},"properties":{"maxweight":"10"}},{"type":"Feature","geometry":{"type":"Point","coordinates":[12.6756881,53.5240525]},"properties":{"hgv":"delivery"}},{"type":"Feature","geometry":{"type":"Point","coordinates":[12.7565363,53.6003867]},"properties":{"maxweight":"12"}},{"type":"Feature","geometry":{"type":"Point","coordinates":[12.8237439,53.2733732]},"properties":{"hgv":"delivery"}},{"type":"Feature","geometry":{"type":"Point","coordinates":[12.6874002,53.5156342]},"properties":{"maxheight":"default"}},{"type":"Feature","geometry":{"type":"Point","coordinates":[12.6866207,53.5158763]},"properties":{"maxheight":"default"}},{"type":"Feature","geometry":{"type":"Point","coordinates":[12.6868277,53.5158124]},"properties":{"maxheight":"default"}},{"type":"Feature","geometry":{"type":"Point","coordinates":[12.6845943,53.5167421]},"properties":{"maxheight":"default"}},{"type":"Feature","geometry":{"type":"Point","coordinates":[12.6839765,53.5171137]},"properties":{"maxheight":"default"}},{"type":"Feature","geometry":{"type":"Point","coordinates":[12.6855511,53.5162822]},"properties":{"maxheight":"default"}},{"type":"Feature","geometry":{"type":"Point","coordinates":[12.6851019,53.5164803]},"properties":{"maxheight":"default"}},{"type":"Feature","geometry":{"type":"Point","coordinates":[12.9435878,53.3186882]},"properties":{"hgv":"delivery"}},{"type":"Feature","geometry":{"type":"Point","coordinates":[12.8270835,53.9120113]},"properties":{"maxweight":"30"}},{"type":"Feature","geometry":{"type":"Point","coordinates":[12.1858546,53.7859953]},"properties":{"maxwidth":"1.9","maxweight":"1.5"}},{"type":"Feature","geometry":{"type":"Point","coordinates":[12.3810333,53.4637622]},"properties":{"maxheight":"4.5"}},{"type":"Feature","geometry":{"type":"Point","coordinates":[12.5326771,53.0685816]},"properties":{"hgv":"only","maxheight":"4.4"}},{"type":"Feature","geometry":{"type":"Point","coordinates":[12.5325564,53.0684426]},"properties":{"hgv":"only"}},{"type":"Feature","geometry":{"type":"Point","coordinates":[12.5330361,53.068459]},"properties":{"maxheight":"4.4"}},{"type":"Feature","geometry":{"type":"Point","coordinates":[12.9967199,53.00161]},"properties":{"hgv":"no"}},{"type":"Feature","geometry":{"type":"Point","coordinates":[12.6802436,53.5293959]},"properties":{"hgv":"destination"}},{"type":"Feature","geometry":{"type":"Point","coordinates":[12.485346,53.1658352]},"properties":{"maxheight":"3.6","maxweight":"7.5 t"}},{"type":"Feature","geometry":{"type":"Point","coordinates":[12.4849984,53.1611168]},"properties":{"maxweight":"7.5 t"}},{"type":"Feature","geometry":{"type":"Point","coordinates":[12.4901305,53.1635802]},"properties":{"maxweight":"7.5 t"}},{"type":"Feature","geometry":{"type":"Point","coordinates":[12.8120133,53.2761068]},"properties":{"maxweight":"10"}},{"type":"Feature","geometry":{"type":"Point","coordinates":[12.7257141,53.3284826]},"properties":{"hgv":"delivery"}},{"type":"Feature","geometry":{"type":"Point","coordinates":[12.8427853,53.7483513]},"properties":{"maxweight":"5.5"}},{"type":"Feature","geometry":{"type":"Point","coordinates":[12.2475334,53.881711]},"properties":{"maxheight":"default"}},{"type":"Feature","geometry":{"type":"Point","coordinates":[12.3980451,53.1152394]},"properties":{"maxweight":"5.5"}},{"type":"Feature","geometry":{"type":"Point","coordinates":[12.254904,53.1498334]},"properties":{"hgv":"no"}},{"type":"Feature","geometry":{"type":"Point","coordinates":[12.1728268,53.0820585]},"properties":{"maxweight":"12"}},{"type":"Feature","geometry":{"type":"Point","coordinates":[12.6731495,53.5242383]},"properties":{"hgv":"delivery"}},{"type":"Feature","geometry":{"type":"Point","coordinates":[12.3227898,53.1517011]},"properties":{"hgv":"agricultural"}},{"type":"Feature","geometry":{"type":"Point","coordinates":[12.6753717,53.5239815]},"properties":{"hgv":"delivery"}},{"type":"Feature","geometry":{"type":"Point","coordinates":[12.6744705,53.5239148]},"properties":{"hgv":"delivery"}},{"type":"Feature","geometry":{"type":"Point","coordinates":[12.674398,53.5239293]},"properties":{"hgv":"delivery"}},{"type":"Feature","geometry":{"type":"Point","coordinates":[12.6754186,53.5239973]},"properties":{"hgv":"delivery"}},{"type":"Feature","geometry":{"type":"Point","coordinates":[12.4726606,53.1193603]},"properties":{"hgv":"no"}},{"type":"Feature","geometry":{"type":"Point","coordinates":[12.9876035,53.6175634]},"properties":{"maxweight":"5.5"}},{"type":"Feature","geometry":{"type":"Point","coordinates":[12.9880594,53.6173837]},"properties":{"maxweight":"5.5"}},{"type":"Feature","geometry":{"type":"Point","coordinates":[12.9969859,53.6125589]},"properties":{"maxweight":"5.5"}},{"type":"Feature","geometry":{"type":"Point","coordinates":[12.422476,53.5188888]},"properties":{"hgv":"agricultural;forestry"}},{"type":"Feature","geometry":{"type":"Point","coordinates":[12.4218235,53.5188889]},"properties":{"hgv":"agricultural;forestry"}},{"type":"Feature","geometry":{"type":"Point","coordinates":[12.5381397,53.7208093]},"properties":{"maxweight":"20"}},{"type":"Feature","geometry":{"type":"Point","coordinates":[12.475856,53.7589858]},"properties":{"maxheight":"3.6"}},{"type":"Feature","geometry":{"type":"Point","coordinates":[12.0705259,53.4915007]},"properties":{"maxweight":"9"}},{"type":"Feature","geometry":{"type":"Point","coordinates":[12.397542,53.7608589]},"properties":{"maxheight":"below_default"}},{"type":"Feature","geometry":{"type":"Point","coordinates":[12.4649084,53.7916562]},"properties":{"maxweight":"18"}},{"type":"Feature","geometry":{"type":"Point","coordinates":[12.4683518,53.7914632]},"properties":{"maxweight":"18"}},{"type":"Feature","geometry":{"type":"Point","coordinates":[12.4731778,53.7915678]},"properties":{"maxweight":"18"}},{"type":"Feature","geometry":{"type":"Point","coordinates":[12.4835003,53.7882496]},"properties":{"maxweight":"18"}},{"type":"Feature","geometry":{"type":"Point","coordinates":[12.4910649,53.7839541]},"properties":{"maxweight":"18"}},{"type":"Feature","geometry":{"type":"Point","coordinates":[12.4479724,53.7880221]},"properties":{"maxweight":"12"}},{"type":"Feature","geometry":{"type":"Point","coordinates":[12.4246276,53.779105]},"properties":{"maxweight":"12"}},{"type":"Feature","geometry":{"type":"Point","coordinates":[12.3546215,53.8623256]},"properties":{"maxweight":"30"}},{"type":"Feature","geometry":{"type":"Point","coordinates":[12.64702,53.5234346]},"properties":{"hgv":"no"}},{"type":"Feature","geometry":{"type":"Point","coordinates":[12.6414315,53.5276113]},"properties":{"hgv":"destination"}},{"type":"Feature","geometry":{"type":"Point","coordinates":[12.523946,53.5789493]},"properties":{"hgv":"no"}},{"type":"Feature","geometry":{"type":"Point","coordinates":[12.5232097,53.5755949]},"properties":{"hgv":"no"}},{"type":"Feature","geometry":{"type":"Point","coordinates":[12.5276114,53.5723779]},"properties":{"hgv":"no"}},{"type":"Feature","geometry":{"type":"Point","coordinates":[12.5237851,53.573583]},"properties":{"hgv":"no"}},{"type":"Feature","geometry":{"type":"Point","coordinates":[12.5239616,53.5790319]},"properties":{"hgv":"no"}},{"type":"Feature","geometry":{"type":"Point","coordinates":[12.2743758,53.4602558]},"properties":{"maxweight":"26"}},{"type":"Feature","geometry":{"type":"Point","coordinates":[12.687654,53.7487022]},"properties":{"maxweight":"5.5"}},{"type":"Feature","geometry":{"type":"Point","coordinates":[12.6865597,53.7479548]},"properties":{"maxweight":"5.5"}},{"type":"Feature","geometry":{"type":"Point","coordinates":[12.6895691,53.7499488]},"properties":{"maxweight":"5.5"}},{"type":"Feature","geometry":{"type":"Point","coordinates":[12.688673,53.7493764]},"properties":{"maxweight":"5.5"}},{"type":"Feature","geometry":{"type":"Point","coordinates":[12.6855277,53.7466877]},"properties":{"maxweight":"5.5"}},{"type":"Feature","geometry":{"type":"Point","coordinates":[12.6917386,53.7145431]},"properties":{"maxweight":"5.5"}},{"type":"Feature","geometry":{"type":"Point","coordinates":[12.6819001,53.7226986]},"properties":{"maxweight":"5.5"}},{"type":"Feature","geometry":{"type":"Point","coordinates":[12.6936234,53.7107039]},"properties":{"maxweight":"5.5"}},{"type":"Feature","geometry":{"type":"Point","coordinates":[12.6932715,53.7109211]},"properties":{"maxweight":"5.5"}},{"type":"Feature","geometry":{"type":"Point","coordinates":[12.6934712,53.7107979]},"properties":{"maxweight":"5.5"}},{"type":"Feature","geometry":{"type":"Point","coordinates":[12.6920896,53.7116526]},"properties":{"maxweight":"5.5"}},{"type":"Feature","geometry":{"type":"Point","coordinates":[12.6903621,53.7127454]},"properties":{"maxweight":"5.5"}},{"type":"Feature","geometry":{"type":"Point","coordinates":[12.707507,53.6967702]},"properties":{"maxweight":"5.5"}},{"type":"Feature","geometry":{"type":"Point","coordinates":[12.7038638,53.7036972]},"properties":{"maxweight":"5.5"}},{"type":"Feature","geometry":{"type":"Point","coordinates":[12.7565124,53.6927805]},"properties":{"hgv":"no"}},{"type":"Feature","geometry":{"type":"Point","coordinates":[12.7561804,53.6929319]},"properties":{"hgv":"no"}},{"type":"Feature","geometry":{"type":"Point","coordinates":[12.2758388,53.1970802]},"properties":{"hgv":"yes"}},{"type":"Feature","geometry":{"type":"Point","coordinates":[12.275199,53.196453]},"properties":{"hgv":"yes"}},{"type":"Feature","geometry":{"type":"Point","coordinates":[12.3089886,53.1769707]},"properties":{"maxheight":"default"}},{"type":"Feature","geometry":{"type":"Point","coordinates":[12.4406757,53.4710611]},"properties":{"maxweight":"2.8"}},{"type":"Feature","geometry":{"type":"Point","coordinates":[12.4404732,53.4712231]},"properties":{"maxweight":"2.8"}},{"type":"Feature","geometry":{"type":"Point","coordinates":[12.4397864,53.4714897]},"properties":{"maxweight":"2.8"}},{"type":"Feature","geometry":{"type":"Point","coordinates":[12.9239155,53.522647]},"properties":{"maxheight":"4.5"}},{"type":"Feature","geometry":{"type":"Point","coordinates":[12.1878187,53.7990306]},"properties":{"maxheight":"default"}},{"type":"Feature","geometry":{"type":"Point","coordinates":[12.4773555,53.1614779]},"properties":{"maxweight":"7.5 t"}},{"type":"Feature","geometry":{"type":"Point","coordinates":[12.4063524,53.914161]},"properties":{"maxweight":"20"}},{"type":"Feature","geometry":{"type":"Point","coordinates":[12.3986859,53.9151612]},"properties":{"maxweight":"20"}},{"type":"Feature","geometry":{"type":"Point","coordinates":[12.9963648,53.6128419]},"properties":{"maxweight":"5.5"}},{"type":"Feature","geometry":{"type":"Point","coordinates":[12.7730713,53.4965671]},"properties":{"maxheight":"default"}},{"type":"Feature","geometry":{"type":"Point","coordinates":[12.8866581,53.1163417]},"properties":{"maxheight":"4"}},{"type":"Feature","geometry":{"type":"Point","coordinates":[12.8867432,53.1164729]},"properties":{"maxheight":"4"}},{"type":"Feature","geometry":{"type":"Point","coordinates":[12.1060438,53.9838199]},"properties":{"hgv":"no"}},{"type":"Feature","geometry":{"type":"Point","coordinates":[12.1063152,53.9841247]},"properties":{"hgv":"no"}},{"type":"Feature","geometry":{"type":"Point","coordinates":[12.6828924,53.5180241]},"properties":{"maxheight":"default"}},{"type":"Feature","geometry":{"type":"Point","coordinates":[12.9714763,53.8436477]},"properties":{"maxweight":"5.5"}},{"type":"Feature","geometry":{"type":"Point","coordinates":[12.4048581,53.1030823]},"properties":{"maxweight":"5.5"}},{"type":"Feature","geometry":{"type":"Point","coordinates":[12.4048545,53.1031284]},"properties":{"maxweight":"5.5"}},{"type":"Feature","geometry":{"type":"Point","coordinates":[12.4049669,53.1050176]},"properties":{"maxweight":"5.5"}},{"type":"Feature","geometry":{"type":"Point","coordinates":[12.4048343,53.1033837]},"properties":{"maxweight":"5.5"}},{"type":"Feature","geometry":{"type":"Point","coordinates":[12.404811,53.1036796]},"properties":{"maxweight":"5.5"}},{"type":"Feature","geometry":{"type":"Point","coordinates":[12.1063555,53.9844698]},"properties":{"hgv":"no"}},{"type":"Feature","geometry":{"type":"Point","coordinates":[12.2427793,53.3233651]},"properties":{"maxweight":"5.0"}},{"type":"Feature","geometry":{"type":"Point","coordinates":[12.366983,53.617854]},"properties":{"maxweight":"100 kg"}},{"type":"Feature","geometry":{"type":"Point","coordinates":[12.4525292,53.2674998]},"properties":{"maxheight":"default"}},{"type":"Feature","geometry":{"type":"Point","coordinates":[12.4675193,53.2894884]},"properties":{"maxheight":"default"}},{"type":"Feature","geometry":{"type":"Point","coordinates":[12.4679868,53.289901]},"properties":{"maxheight":"default"}},{"type":"Feature","geometry":{"type":"Point","coordinates":[12.2140212,53.7696437]},"properties":{"maxweight":"20"}},{"type":"Feature","geometry":{"type":"Point","coordinates":[12.1708521,53.7977337]},"properties":{"maxheight":"default"}},{"type":"Feature","geometry":{"type":"Point","coordinates":[12.141569,53.8365671]},"properties":{"maxweight":"12"}},{"type":"Feature","geometry":{"type":"Point","coordinates":[12.0959524,53.9390398]},"properties":{"hgv":"no"}},{"type":"Feature","geometry":{"type":"Point","coordinates":[12.4349889,53.4732959]},"properties":{"maxweight":"2.8"}},{"type":"Feature","geometry":{"type":"Point","coordinates":[12.1994609,53.8021059]},"properties":{"hgv":"no"}},{"type":"Feature","geometry":{"type":"Point","coordinates":[12.4815595,53.1620178]},"properties":{"maxweight":"7.5 t"}},{"type":"Feature","geometry":{"type":"Point","coordinates":[12.4853761,53.1657126]},"properties":{"maxheight":"3.6","maxweight":"7.5 t"}},{"type":"Feature","geometry":{"type":"Point","coordinates":[12.4853687,53.1657382]},"properties":{"maxheight":"3.6","maxweight":"7.5 t"}},{"type":"Feature","geometry":{"type":"Point","coordinates":[12.3420824,53.1502468]},"properties":{"hgv":"agricultural"}},{"type":"Feature","geometry":{"type":"Point","coordinates":[12.3338861,53.200506]},"properties":{"hgv":"delivery"}},{"type":"Feature","geometry":{"type":"Point","coordinates":[12.1783798,53.1363628]},"properties":{"maxheight":"default"}},{"type":"Feature","geometry":{"type":"Point","coordinates":[12.2507471,53.191332]},"properties":{"maxweight":"16"}},{"type":"Feature","geometry":{"type":"Point","coordinates":[12.3055749,53.1839045]},"properties":{"hgv":"delivery"}},{"type":"Feature","geometry":{"type":"Point","coordinates":[12.3134145,53.1585024]},"properties":{"hgv":"agricultural"}},{"type":"Feature","geometry":{"type":"Point","coordinates":[12.3682395,53.167579]},"properties":{"maxheight":"default"}},{"type":"Feature","geometry":{"type":"Point","coordinates":[12.4828048,53.1597173]},"properties":{"maxweight":"7.5 t"}},{"type":"Feature","geometry":{"type":"Point","coordinates":[12.3663971,53.6013886]},"properties":{"hgv":"designated"}},{"type":"Feature","geometry":{"type":"Point","coordinates":[12.368453,53.6013528]},"properties":{"hgv":"designated"}},{"type":"Feature","geometry":{"type":"Point","coordinates":[12.7254892,53.3284971]},"properties":{"hgv":"delivery"}},{"type":"Feature","geometry":{"type":"Point","coordinates":[12.2682603,53.4571606]},"properties":{"maxheight":"3.6"}},{"type":"Feature","geometry":{"type":"Point","coordinates":[12.2686255,53.4573166]},"properties":{"maxheight":"3.6"}},{"type":"Feature","geometry":{"type":"Point","coordinates":[12.4845306,53.4912152]},"properties":{"maxheight":"3"}},{"type":"Feature","geometry":{"type":"Point","coordinates":[12.2704733,53.6544548]},"properties":{"maxweight":"1.8"}},{"type":"Feature","geometry":{"type":"Point","coordinates":[12.9810895,53.0675632]},"properties":{"maxweight":"7.5"}},{"type":"Feature","geometry":{"type":"Point","coordinates":[12.9887317,53.0755432]},"properties":{"maxweight":"7.5"}},{"type":"Feature","geometry":{"type":"Point","coordinates":[12.9964795,53.0799239]},"properties":{"maxweight":"7.5"}},{"type":"Feature","geometry":{"type":"Point","coordinates":[12.9981488,53.0808582]},"properties":{"maxweight":"7.5"}},{"type":"Feature","geometry":{"type":"Point","coordinates":[12.9993769,53.0807578]},"properties":{"maxweight":"7.5"}},{"type":"Feature","geometry":{"type":"Point","coordinates":[12.352412,53.4702804]},"properties":{"maxweight":"7.5"}},{"type":"Feature","geometry":{"type":"Point","coordinates":[12.3599464,53.4586159]},"properties":{"maxweight":"7.5"}},{"type":"Feature","geometry":{"type":"Point","coordinates":[12.3573298,53.4586289]},"properties":{"maxweight":"7.5"}},{"type":"Feature","geometry":{"type":"Point","coordinates":[12.3612165,53.4584969]},"properties":{"maxweight":"7.5"}},{"type":"Feature","geometry":{"type":"Point","coordinates":[12.3628403,53.4584921]},"properties":{"maxweight":"7.5"}},{"type":"Feature","geometry":{"type":"Point","coordinates":[12.4410036,53.4706555]},"properties":{"maxweight":"2.8"}},{"type":"Feature","geometry":{"type":"Point","coordinates":[12.4751118,53.1611721]},"properties":{"maxweight":"7.5 t"}},{"type":"Feature","geometry":{"type":"Point","coordinates":[12.2372511,53.3068217]},"properties":{"hgv":"no"}},{"type":"Feature","geometry":{"type":"Point","coordinates":[12.2364941,53.3071708]},"properties":{"hgv":"no"}},{"type":"Feature","geometry":{"type":"Point","coordinates":[12.2118925,53.1437655]},"properties":{"maxheight":"default"}},{"type":"Feature","geometry":{"type":"Point","coordinates":[12.4506265,53.2276632]},"properties":{"hgv":"designated"}},{"type":"Feature","geometry":{"type":"Point","coordinates":[12.4527776,53.3848658]},"properties":{"hgv":"designated"}},{"type":"Feature","geometry":{"type":"Point","coordinates":[12.4556798,53.379719]},"properties":{"hgv":"designated"}},{"type":"Feature","geometry":{"type":"Point","coordinates":[12.3672044,53.6005148]},"properties":{"hgv":"designated"}},{"type":"Feature","geometry":{"type":"Point","coordinates":[12.1982306,53.9673021]},"properties":{"hgv":"yes"}},{"type":"Feature","geometry":{"type":"Point","coordinates":[12.1969874,53.9694155]},"properties":{"hgv":"yes"}},{"type":"Feature","geometry":{"type":"Point","coordinates":[12.074022,53.2850524]},"properties":{"hgv":"yes"}},{"type":"Feature","geometry":{"type":"Point","coordinates":[12.0733899,53.2844806]},"properties":{"hgv":"yes"}},{"type":"Feature","geometry":{"type":"Point","coordinates":[12.4257629,53.4750874]},"properties":{"maxheight":"2"}},{"type":"Feature","geometry":{"type":"Point","coordinates":[12.4290863,53.4745576]},"properties":{"maxheight":"2.5"}},{"type":"Feature","geometry":{"type":"Point","coordinates":[12.425142,53.4757404]},"properties":{"maxheight":"3"}},{"type":"Feature","geometry":{"type":"Point","coordinates":[12.3985542,53.1471102]},"properties":{"maxheight":"3","maxweight":"3.5"}},{"type":"Feature","geometry":{"type":"Point","coordinates":[12.4074954,53.1487465]},"properties":{"maxheight":"default"}},{"type":"Feature","geometry":{"type":"Point","coordinates":[12.3420016,53.5845555]},"properties":{"maxheight":"4"}},{"type":"Feature","geometry":{"type":"Point","coordinates":[12.9418438,53.3177181]},"properties":{"hgv":"delivery"}},{"type":"Feature","geometry":{"type":"Point","coordinates":[12.2715367,53.6566286]},"properties":{"maxwidth":"1"}},{"type":"Feature","geometry":{"type":"Point","coordinates":[12.8161,53.2680247]},"properties":{"hgv":"no"}},{"type":"Feature","geometry":{"type":"Point","coordinates":[12.5831203,53.3783953]},"properties":{"hgv":"delivery"}},{"type":"Feature","geometry":{"type":"Point","coordinates":[12.8239961,53.2733712]},"properties":{"hgv":"delivery"}},{"type":"Feature","geometry":{"type":"Point","coordinates":[12.4311585,53.4188829]},"properties":{"maxheight":"default"}},{"type":"Feature","geometry":{"type":"Point","coordinates":[12.1855827,53.78751]},"properties":{"maxwidth":"1.9","maxweight":"1.5"}},{"type":"Feature","geometry":{"type":"Point","coordinates":[12.3543401,53.7875674]},"properties":{"maxheight":"4.3"}},{"type":"Feature","geometry":{"type":"Point","coordinates":[12.6906525,53.5107901]},"properties":{"maxheight":"3.5 m"}},{"type":"Feature","geometry":{"type":"Point","coordinates":[12.3346535,53.1487466]},"properties":{"hgv":"agricultural"}},{"type":"Feature","geometry":{"type":"Point","coordinates":[12.3100353,53.15988]},"properties":{"hgv":"agricultural"}},{"type":"Feature","geometry":{"type":"Point","coordinates":[12.3110617,53.1594583]},"properties":{"hgv":"agricultural"}},{"type":"Feature","geometry":{"type":"Point","coordinates":[12.2574947,53.5374024]},"properties":{"maxweight":"12"}},{"type":"Feature","geometry":{"type":"Point","coordinates":[12.6076174,53.3835189]},"properties":{"hgv":"delivery"}},{"type":"Feature","geometry":{"type":"Point","coordinates":[12.825575,53.9973652]},"properties":{"maxwidth":"2.2","maxweight":"3"}},{"type":"Feature","geometry":{"type":"Point","coordinates":[12.8255178,53.9973118]},"properties":{"maxwidth":"2.2","maxweight":"3"}},{"type":"Feature","geometry":{"type":"Point","coordinates":[12.8259846,53.9977724]},"properties":{"maxwidth":"2.2","maxweight":"3"}},{"type":"Feature","geometry":{"type":"Point","coordinates":[12.6818066,53.520657]},"properties":{"maxwidth":"1.5"}},{"type":"Feature","geometry":{"type":"Point","coordinates":[12.5278386,53.0721429]},"properties":{"maxheight":"default"}},{"type":"Feature","geometry":{"type":"Point","coordinates":[12.5284041,53.0708484]},"properties":{"maxheight":"default"}},{"type":"Feature","geometry":{"type":"Point","coordinates":[12.5283117,53.0706101]},"properties":{"maxheight":"default"}},{"type":"Feature","geometry":{"type":"Point","coordinates":[12.3136061,53.1924106]},"properties":{"hgv":"agricultural"}},{"type":"Feature","geometry":{"type":"Point","coordinates":[12.3193485,53.1755912]},"properties":{"hgv":"agricultural"}},{"type":"Feature","geometry":{"type":"Point","coordinates":[12.4797892,53.3075413]},"properties":{"maxheight":"default"}},{"type":"Feature","geometry":{"type":"Point","coordinates":[12.4834371,53.3067044]},"properties":{"maxheight":"default"}},{"type":"Feature","geometry":{"type":"Point","coordinates":[12.8125584,53.1115993]},"properties":{"maxweight":"7.5"}},{"type":"Feature","geometry":{"type":"Point","coordinates":[12.6031665,53.2802309]},"properties":{"maxweight":"7.5"}},{"type":"Feature","geometry":{"type":"Point","coordinates":[12.6036087,53.2802712]},"properties":{"maxweight":"7.5"}},{"type":"Feature","geometry":{"type":"Point","coordinates":[12.21227,53.7767474]},"properties":{"maxweight":"20"}},{"type":"Feature","geometry":{"type":"Point","coordinates":[12.4345607,53.4736892]},"properties":{"maxweight":"2.8"}},{"type":"Feature","geometry":{"type":"Point","coordinates":[12.4346798,53.4733964]},"properties":{"maxweight":"2.8"}},{"type":"Feature","geometry":{"type":"Point","coordinates":[12.4255795,53.47459]},"properties":{"maxwidth":"2.8"}},{"type":"Feature","geometry":{"type":"Point","coordinates":[12.1784465,53.7890162]},"properties":{"maxweight":"3.5"}},{"type":"Feature","geometry":{"type":"Point","coordinates":[12.9510347,53.4255195]},"properties":{"maxheight":"4.1"}},{"type":"Feature","geometry":{"type":"Point","coordinates":[12.1020945,53.9383305]},"properties":{"hgv":"no"}},{"type":"Feature","geometry":{"type":"Point","coordinates":[12.8247317,53.2737085]},"properties":{"hgv":"delivery"}},{"type":"Feature","geometry":{"type":"Point","coordinates":[12.5365848,53.465248]},"properties":{"maxweight":"12"}},{"type":"Feature","geometry":{"type":"Point","coordinates":[12.5379331,53.4572533]},"properties":{"maxweight":"12"}},{"type":"Feature","geometry":{"type":"Point","coordinates":[12.6856198,53.5162527]},"properties":{"maxheight":"default"}},{"type":"Feature","geometry":{"type":"Point","coordinates":[12.1880624,53.7537049]},"properties":{"maxweight":"20"}},{"type":"Feature","geometry":{"type":"Point","coordinates":[12.3398596,53.1498427]},"properties":{"hgv":"agricultural"}},{"type":"Feature","geometry":{"type":"Point","coordinates":[12.1859194,53.8066196]},"properties":{"maxheight":"default"}},{"type":"Feature","geometry":{"type":"Point","coordinates":[12.2015223,53.8007742]},"properties":{"hgv":"destination"}},{"type":"Feature","geometry":{"type":"Point","coordinates":[12.4520942,53.1735654]},"properties":{"maxheight":"default"}},{"type":"Feature","geometry":{"type":"Point","coordinates":[12.450531,53.1493144]},"properties":{"maxheight":"default"}},{"type":"Feature","geometry":{"type":"Point","coordinates":[12.1572306,53.7991344]},"properties":{"maxweight":"3.5"}},{"type":"Feature","geometry":{"type":"Point","coordinates":[12.3483524,53.4659149]},"properties":{"maxweight":"7.5"}},{"type":"Feature","geometry":{"type":"Point","coordinates":[12.3675106,53.4585214]},"properties":{"maxweight":"7.5"}},{"type":"Feature","geometry":{"type":"Point","coordinates":[12.180162,53.7947768]},"properties":{"maxlength":"8"}},{"type":"Feature","geometry":{"type":"Point","coordinates":[12.2225448,53.6899306]},"properties":{"maxwidth":"70"}},{"type":"Feature","geometry":{"type":"Point","coordinates":[12.4244124,53.4884609]},"properties":{"hgv":"yes"}},{"type":"Feature","geometry":{"type":"Point","coordinates":[12.4229209,53.4868283]},"properties":{"hgv":"yes"}},{"type":"Feature","geometry":{"type":"Point","coordinates":[12.4241667,53.4878302]},"properties":{"hgv":"yes"}},{"type":"Feature","geometry":{"type":"Point","coordinates":[12.4238857,53.4884856]},"properties":{"hgv":"yes"}},{"type":"Feature","geometry":{"type":"Point","coordinates":[12.4238786,53.4873079]},"properties":{"hgv":"yes"}},{"type":"Feature","geometry":{"type":"Point","coordinates":[12.4231091,53.4856509]},"properties":{"hgv":"yes"}},{"type":"Feature","geometry":{"type":"Point","coordinates":[12.8148475,53.271529]},"properties":{"hgv":"no"}},{"type":"Feature","geometry":{"type":"Point","coordinates":[12.8155129,53.2687503]},"properties":{"hgv":"no"}},{"type":"Feature","geometry":{"type":"Point","coordinates":[12.8093987,53.2767159]},"properties":{"maxweight":"10"}},{"type":"Feature","geometry":{"type":"Point","coordinates":[12.936849,53.4288252]},"properties":{"maxheight":"4.3"}},{"type":"Feature","geometry":{"type":"Point","coordinates":[12.9368043,53.4288085]},"properties":{"maxheight":"4.3"}},{"type":"Feature","geometry":{"type":"Point","coordinates":[12.1769748,53.7931004]},"properties":{"maxlength":"8"}},{"type":"Feature","geometry":{"type":"Point","coordinates":[12.4919655,53.1637296]},"properties":{"maxweight":"7.5 t"}},{"type":"Feature","geometry":{"type":"Point","coordinates":[12.5950223,53.6210444]},"properties":{"maxweight":"12.0"}},{"type":"Feature","geometry":{"type":"Point","coordinates":[12.3677271,53.4685841]},"properties":{"maxweight":"7.5"}},{"type":"Feature","geometry":{"type":"Point","coordinates":[12.3570037,53.4703168]},"properties":{"maxweight":"7.5"}},{"type":"Feature","geometry":{"type":"Point","coordinates":[12.4877714,53.6430874]},"properties":{"maxweight":"5.5"}},{"type":"Feature","geometry":{"type":"Point","coordinates":[12.4805041,53.1494665]},"properties":{"hgv":"delivery"}},{"type":"Feature","geometry":{"type":"Point","coordinates":[12.4853571,53.152862]},"properties":{"hgv":"delivery"}},{"type":"Feature","geometry":{"type":"Point","coordinates":[12.4824456,53.1508798]},"properties":{"hgv":"delivery"}},{"type":"Feature","geometry":{"type":"Point","coordinates":[12.650292,53.7238385]},"properties":{"maxweight":"5.5"}},{"type":"Feature","geometry":{"type":"Point","coordinates":[12.9858554,53.2798489]},"properties":{"maxweight":"12"}},{"type":"Feature","geometry":{"type":"Point","coordinates":[12.9879658,53.2769509]},"properties":{"maxweight":"12"}},{"type":"Feature","geometry":{"type":"Point","coordinates":[12.0707825,53.8802942]},"properties":{"maxweight":"20"}},{"type":"Feature","geometry":{"type":"Point","coordinates":[12.7024966,53.524593]},"properties":{"maxwidth":"2","maxweight":"2.5"}},{"type":"Feature","geometry":{"type":"Point","coordinates":[12.0015715,53.1010315]},"properties":{"maxweight":"2,8"}},{"type":"Feature","geometry":{"type":"Point","coordinates":[12.3679823,53.7782287]},"properties":{"maxheight":"3.8"}},{"type":"Feature","geometry":{"type":"Point","coordinates":[12.5606987,53.4145228]},"properties":{"hgv":"designated"}},{"type":"Feature","geometry":{"type":"Point","coordinates":[12.8521605,53.7423471]},"properties":{"maxweight":"5.5"}},{"type":"Feature","geometry":{"type":"Point","coordinates":[12.8541195,53.7410417]},"properties":{"maxweight":"5.5"}},{"type":"Feature","geometry":{"type":"Point","coordinates":[12.8545631,53.7408569]},"properties":{"maxweight":"5.5"}},{"type":"Feature","geometry":{"type":"Point","coordinates":[12.5822079,53.775428]},"properties":{"maxheight":"3.3"}},{"type":"Feature","geometry":{"type":"Point","coordinates":[12.3715777,53.6399535]},"properties":{"maxheight":"default"}},{"type":"Feature","geometry":{"type":"Point","coordinates":[12.6726364,53.527754]},"properties":{"maxheight":"default"}},{"type":"Feature","geometry":{"type":"Point","coordinates":[12.6809627,53.5280702]},"properties":{"hgv":"destination"}},{"type":"Feature","geometry":{"type":"Point","coordinates":[12.6743957,53.5292038]},"properties":{"maxheight":"default"}},{"type":"Feature","geometry":{"type":"Point","coordinates":[12.8171414,53.520084]},"properties":{"maxheight":"2","maxwidth":"5"}},{"type":"Feature","geometry":{"type":"Point","coordinates":[12.6804582,53.5285287]},"properties":{"hgv":"destination"}},{"type":"Feature","geometry":{"type":"Point","coordinates":[12.7560869,53.6005933]},"properties":{"maxweight":"12"}},{"type":"Feature","geometry":{"type":"Point","coordinates":[12.3647906,53.4585787]},"properties":{"maxweight":"7.5"}},{"type":"Feature","geometry":{"type":"Point","coordinates":[12.1122563,53.1181764]},"properties":{"maxweight":"3.5"}},{"type":"Feature","geometry":{"type":"Point","coordinates":[12.1296857,53.8156903]},"properties":{"maxweight":"12 t"}},{"type":"Feature","geometry":{"type":"Point","coordinates":[12.1288868,53.093479]},"properties":{"hgv":"agricultural"}},{"type":"Feature","geometry":{"type":"Point","coordinates":[12.9722813,53.7216337]},"properties":{"hgv":"yes"}},{"type":"Feature","geometry":{"type":"Point","coordinates":[12.7004541,53.524759]},"properties":{"maxwidth":"2","maxweight":"2.5"}},{"type":"Feature","geometry":{"type":"Point","coordinates":[12.9365301,53.428706]},"properties":{"maxheight":"4.3"}},{"type":"Feature","geometry":{"type":"Point","coordinates":[12.9668059,53.3223862]},"properties":{"maxweight":"5.5"}},{"type":"Feature","geometry":{"type":"Point","coordinates":[12.6022773,53.3854452]},"properties":{"hgv":"delivery"}},{"type":"Feature","geometry":{"type":"Point","coordinates":[12.6016468,53.3857227]},"properties":{"hgv":"delivery"}},{"type":"Feature","geometry":{"type":"Point","coordinates":[12.1759194,53.8026585]},"properties":{"maxweight":"7.5"}},{"type":"Feature","geometry":{"type":"Point","coordinates":[12.6565748,53.227232]},"properties":{"hgv":"private","goods":"private"}},{"type":"Feature","geometry":{"type":"Point","coordinates":[12.4497908,53.1728893]},"properties":{"hgv":"no"}},{"type":"Feature","geometry":{"type":"Point","coordinates":[12.4899085,53.1635988]},"properties":{"maxweight":"7.5 t"}}]}