{"type":"FeatureCollection","features":[{"type":"Feature","geometry":{"type":"Point","coordinates":[13.001727,47.631457]},"properties":{"maxheight":"2"}},{"type":"Feature","geometry":{"type":"Point","coordinates":[13.0019571,47.631491]},"properties":{"maxheight":"2"}},{"type":"Feature","geometry":{"type":"Point","coordinates":[13.0019522,47.6313449]},"properties":{"maxheight":"2"}},{"type":"Feature","geometry":{"type":"Point","coordinates":[13.0471659,47.6333978]},"properties":{"maxheight":"3.7"}},{"type":"Feature","geometry":{"type":"Point","coordinates":[13.0472505,47.6339559]},"properties":{"maxheight":"2"}},{"type":"Feature","geometry":{"type":"Point","coordinates":[13.0082725,47.6378856]},"properties":{"maxheight":"2"}},{"type":"Feature","geometry":{"type":"Point","coordinates":[13.0089981,47.6378395]},"properties":{"maxheight":"2"}},{"type":"Feature","geometry":{"type":"Point","coordinates":[13.005304,47.6356185]},"properties":{"maxheight":"2"}},{"type":"Feature","geometry":{"type":"Point","coordinates":[13.0634823,47.6821949]},"properties":{"maxweight":"7.5"}},{"type":"Feature","geometry":{"type":"Point","coordinates":[13.0001204,47.6431467]},"properties":{"hgv":"delivery"}},{"type":"Feature","geometry":{"type":"Point","coordinates":[13.0338766,47.6462343]},"properties":{"hgv":"destination"}},{"type":"Feature","geometry":{"type":"Point","coordinates":[13.0418146,47.6965264]},"properties":{"maxweight":"7.5"}},{"type":"Feature","geometry":{"type":"Point","coordinates":[13.0162981,47.6392056]},"properties":{"maxheight":"2.5"}},{"type":"Feature","geometry":{"type":"Point","coordinates":[13.0843264,47.6757364]},"properties":{"maxweight":"16"}},{"type":"Feature","geometry":{"type":"Point","coordinates":[13.0029399,47.6334162]},"properties":{"hgv":"no"}},{"type":"Feature","geometry":{"type":"Point","coordinates":[13.0775222,47.6945128]},"properties":{"maxweight":"2"}},{"type":"Feature","geometry":{"type":"Point","coordinates":[13.0410469,47.7211938]},"properties":{"maxweight":"25"}},{"type":"Feature","geometry":{"type":"Point","coordinates":[13.038921,47.7235563]},"properties":{"maxweight":"25"}},{"type":"Feature","geometry":{"type":"Point","coordinates":[13.0403048,47.7234123]},"properties":{"maxweight":"25"}},{"type":"Feature","geometry":{"type":"Point","coordinates":[13.040575,47.7230361]},"properties":{"maxweight":"25"}},{"type":"Feature","geometry":{"type":"Point","coordinates":[13.040988,47.7229324]},"properties":{"maxweight":"25"}},{"type":"Feature","geometry":{"type":"Point","coordinates":[13.029245,47.6449334]},"properties":{"maxweight":"12"}},{"type":"Feature","geometry":{"type":"Point","coordinates":[13.0922153,47.6423683]},"properties":{"maxheight":"3.9"}},{"type":"Feature","geometry":{"type":"Point","coordinates":[13.0113906,47.6314846]},"properties":{"maxlength":"10"}},{"type":"Feature","geometry":{"type":"Point","coordinates":[13.0183755,47.6721192]},"properties":{"maxheight":"1.66"}},{"type":"Feature","geometry":{"type":"Point","coordinates":[13.0169205,47.6374437]},"properties":{"maxweight":"30"}},{"type":"Feature","geometry":{"type":"Point","coordinates":[13.066216,47.702578]},"properties":{"maxweight":"8"}},{"type":"Feature","geometry":{"type":"Point","coordinates":[13.0400089,47.7015332]},"properties":{"maxweight":"7.5"}},{"type":"Feature","geometry":{"type":"Point","coordinates":[13.0794918,47.6933528]},"properties":{"hgv":"no"}},{"type":"Feature","geometry":{"type":"Point","coordinates":[13.0025845,47.6528637]},"properties":{"maxwidth":"2.8","maxweight":"6"}},{"type":"Feature","geometry":{"type":"Point","coordinates":[13.0049881,47.6524947]},"properties":{"maxweight":"6"}},{"type":"Feature","geometry":{"type":"Point","coordinates":[13.0800612,47.6759986]},"properties":{"hgv":"no","maxweight":"3.5"}},{"type":"Feature","geometry":{"type":"Point","coordinates":[13.0031793,47.6338816]},"properties":{"hgv":"no"}},{"type":"Feature","geometry":{"type":"Point","coordinates":[13.0039526,47.6325876]},"properties":{"maxweight":"7.5 t"}},{"type":"Feature","geometry":{"type":"Point","coordinates":[13.0204242,47.6339147]},"properties":{"maxweight":"12"}},{"type":"Feature","geometry":{"type":"Point","coordinates":[13.0365968,47.6516932]},"properties":{"hgv":"no"}},{"type":"Feature","geometry":{"type":"Point","coordinates":[13.0086493,47.8471266]},"properties":{"maxweight":"12"}},{"type":"Feature","geometry":{"type":"Point","coordinates":[13.0421188,47.6303388]},"properties":{"maxlength":"10"}},{"type":"Feature","geometry":{"type":"Point","coordinates":[13.0143296,47.6322775]},"properties":{"maxlength":"10"}},{"type":"Feature","geometry":{"type":"Point","coordinates":[13.0148848,47.6319761]},"properties":{"maxheight":"below_default"}},{"type":"Feature","geometry":{"type":"Point","coordinates":[13.0387109,47.7047728]},"properties":{"maxweight":"3.5"}},{"type":"Feature","geometry":{"type":"Point","coordinates":[13.0389859,47.7058543]},"properties":{"maxweight":"3.5"}},{"type":"Feature","geometry":{"type":"Point","coordinates":[13.0157847,47.6394615]},"properties":{"hgv":"no","goods":"no"}},{"type":"Feature","geometry":{"type":"Point","coordinates":[13.0022915,47.6328136]},"properties":{"hgv":"no"}},{"type":"Feature","geometry":{"type":"Point","coordinates":[13.0020888,47.6331839]},"properties":{"hgv":"no","maxheight":"3.6"}},{"type":"Feature","geometry":{"type":"Point","coordinates":[13.0025995,47.6332509]},"properties":{"hgv":"no","maxheight":"2.6"}},{"type":"Feature","geometry":{"type":"Point","coordinates":[13.0022604,47.6332166]},"properties":{"hgv":"no"}},{"type":"Feature","geometry":{"type":"Point","coordinates":[13.0465059,47.6959027]},"properties":{"maxlength":"10"}},{"type":"Feature","geometry":{"type":"Point","coordinates":[13.074579,47.6659296]},"properties":{"maxweight":"12"}},{"type":"Feature","geometry":{"type":"Point","coordinates":[13.0394054,47.7104092]},"properties":{"maxweight":"24"}},{"type":"Feature","geometry":{"type":"Point","coordinates":[13.0923393,47.6423532]},"properties":{"maxheight":"3.9"}},{"type":"Feature","geometry":{"type":"Point","coordinates":[13.0000492,47.6619033]},"properties":{"maxweight":"10"}},{"type":"Feature","geometry":{"type":"Point","coordinates":[13.0029376,47.6535155]},"properties":{"maxweight":"6"}},{"type":"Feature","geometry":{"type":"Point","coordinates":[13.0031569,47.6338321]},"properties":{"hgv":"no","maxheight":"3.9"}},{"type":"Feature","geometry":{"type":"Point","coordinates":[13.0029667,47.6396859]},"properties":{"hgv":"delivery"}},{"type":"Feature","geometry":{"type":"Point","coordinates":[13.0011153,47.6417965]},"properties":{"hgv":"delivery"}},{"type":"Feature","geometry":{"type":"Point","coordinates":[13.041493,47.6302401]},"properties":{"maxlength":"10"}},{"type":"Feature","geometry":{"type":"Point","coordinates":[13.0264659,47.6311809]},"properties":{"maxlength":"10"}},{"type":"Feature","geometry":{"type":"Point","coordinates":[13.0409968,47.6300384]},"properties":{"maxlength":"10"}},{"type":"Feature","geometry":{"type":"Point","coordinates":[13.0008898,47.630727]},"properties":{"maxheight":"2.75"}},{"type":"Feature","geometry":{"type":"Point","coordinates":[13.0438889,47.6414639]},"properties":{"maxheight":"2"}},{"type":"Feature","geometry":{"type":"Point","coordinates":[13.0005923,47.6342545]},"properties":{"maxweight":"7.5 t"}},{"type":"Feature","geometry":{"type":"Point","coordinates":[13.001774,47.6412323]},"properties":{"hgv":"delivery"}},{"type":"Feature","geometry":{"type":"Point","coordinates":[13.0051057,47.8495198]},"properties":{"maxweight":"12"}},{"type":"Feature","geometry":{"type":"Point","coordinates":[13.0387636,47.7023073]},"properties":{"maxweight":"7.5"}},{"type":"Feature","geometry":{"type":"Point","coordinates":[13.0015078,47.6311832]},"properties":{"maxheight":"2"}},{"type":"Feature","geometry":{"type":"Point","coordinates":[13.0019756,47.6314588]},"properties":{"maxheight":"2"}},{"type":"Feature","geometry":{"type":"Point","coordinates":[13.0583415,47.6850182]},"properties":{"maxweight":"3.5"}},{"type":"Feature","geometry":{"type":"Point","coordinates":[13.0595071,47.6850086]},"properties":{"maxweight":"3.5"}},{"type":"Feature","geometry":{"type":"Point","coordinates":[13.0542082,47.6855934]},"properties":{"maxweight":"7.5"}},{"type":"Feature","geometry":{"type":"Point","coordinates":[13.0572469,47.6853741]},"properties":{"maxweight":"3.5"}},{"type":"Feature","geometry":{"type":"Point","coordinates":[13.05229,47.6871316]},"properties":{"maxweight":"3.5"}},{"type":"Feature","geometry":{"type":"Point","coordinates":[13.0643243,47.7030996]},"properties":{"maxweight":"8"}},{"type":"Feature","geometry":{"type":"Point","coordinates":[13.0026754,47.6400183]},"properties":{"hgv":"delivery"}},{"type":"Feature","geometry":{"type":"Point","coordinates":[13.0055653,47.6394155]},"properties":{"hgv":"delivery"}},{"type":"Feature","geometry":{"type":"Point","coordinates":[13.0024423,47.6406904]},"properties":{"hgv":"delivery"}},{"type":"Feature","geometry":{"type":"Point","coordinates":[13.0386495,47.7243675]},"properties":{"maxweight":"25"}},{"type":"Feature","geometry":{"type":"Point","coordinates":[13.0406201,47.7229947]},"properties":{"maxweight":"25"}},{"type":"Feature","geometry":{"type":"Point","coordinates":[13.0872396,47.6658561]},"properties":{"maxweight":"8"}},{"type":"Feature","geometry":{"type":"Point","coordinates":[13.0811753,47.6844056]},"properties":{"maxweight":"3.5"}},{"type":"Feature","geometry":{"type":"Point","coordinates":[13.0856915,47.6812916]},"properties":{"maxweight":"3.5"}},{"type":"Feature","geometry":{"type":"Point","coordinates":[13.083822,47.6738612]},"properties":{"maxheight":"2.8"}},{"type":"Feature","geometry":{"type":"Point","coordinates":[13.084993,47.6731717]},"properties":{"maxweight":"16"}},{"type":"Feature","geometry":{"type":"Point","coordinates":[13.0845005,47.6738928]},"properties":{"maxweight":"16"}},{"type":"Feature","geometry":{"type":"Point","coordinates":[13.0875958,47.667782]},"properties":{"maxweight":"8"}},{"type":"Feature","geometry":{"type":"Point","coordinates":[13.0871277,47.6661065]},"properties":{"maxweight":"8"}},{"type":"Feature","geometry":{"type":"Point","coordinates":[13.0868363,47.6683211]},"properties":{"maxweight":"8"}},{"type":"Feature","geometry":{"type":"Point","coordinates":[13.0868627,47.6676016]},"properties":{"maxweight":"8"}},{"type":"Feature","geometry":{"type":"Point","coordinates":[13.0518849,47.687511]},"properties":{"maxweight":"7.5"}},{"type":"Feature","geometry":{"type":"Point","coordinates":[13.0884911,47.6816184]},"properties":{"maxweight":"3.5"}},{"type":"Feature","geometry":{"type":"Point","coordinates":[13.0020325,47.6331603]},"properties":{"hgv":"no","maxheight":"3.6"}},{"type":"Feature","geometry":{"type":"Point","coordinates":[13.0032192,47.652754]},"properties":{"maxweight":"6"}},{"type":"Feature","geometry":{"type":"Point","coordinates":[13.0018285,47.6312119]},"properties":{"hgv":"no"}},{"type":"Feature","geometry":{"type":"Point","coordinates":[13.002212,47.6604151]},"properties":{"maxweight":"10"}},{"type":"Feature","geometry":{"type":"Point","coordinates":[13.0394639,47.6324516]},"properties":{"maxlength":"10"}},{"type":"Feature","geometry":{"type":"Point","coordinates":[13.0376735,47.6328691]},"properties":{"maxlength":"10"}},{"type":"Feature","geometry":{"type":"Point","coordinates":[13.0846819,47.6817748]},"properties":{"maxweight":"3.5"}},{"type":"Feature","geometry":{"type":"Point","coordinates":[13.0012702,47.63115]},"properties":{"maxheight":"3"}},{"type":"Feature","geometry":{"type":"Point","coordinates":[13.0422125,47.6303369]},"properties":{"maxlength":"10"}},{"type":"Feature","geometry":{"type":"Point","coordinates":[13.0000456,47.6329949]},"properties":{"maxweight":"1.5"}},{"type":"Feature","geometry":{"type":"Point","coordinates":[13.0058164,47.6334085]},"properties":{"maxheight":"3"}},{"type":"Feature","geometry":{"type":"Point","coordinates":[13.0043398,47.6322149]},"properties":{"maxweight":"7.5 t"}},{"type":"Feature","geometry":{"type":"Point","coordinates":[13.0012626,47.6306503]},"properties":{"maxheight":"2.75"}},{"type":"Feature","geometry":{"type":"Point","coordinates":[13.0012705,47.6307952]},"properties":{"maxheight":"2.75"}}]}