{"type":"FeatureCollection","features":[{"type":"Feature","geometry":{"type":"Point","coordinates":[13.2970822,54.6669688]},"properties":{"hgv":"no"}},{"type":"Feature","geometry":{"type":"Point","coordinates":[13.692513,54.1411415]},"properties":{"maxwidth":"1"}},{"type":"Feature","geometry":{"type":"Point","coordinates":[13.709573,54.3565629]},"properties":{"maxwidth":"3"}},{"type":"Feature","geometry":{"type":"Point","coordinates":[13.5373986,54.5089222]},"properties":{"maxheight":"default"}},{"type":"Feature","geometry":{"type":"Point","coordinates":[13.2846633,54.6204334]},"properties":{"maxweight":"10"}},{"type":"Feature","geometry":{"type":"Point","coordinates":[13.2834545,54.6205853]},"properties":{"maxweight":"2.5"}},{"type":"Feature","geometry":{"type":"Point","coordinates":[13.3755645,54.0972948]},"properties":{"maxheight":"2"}},{"type":"Feature","geometry":{"type":"Point","coordinates":[13.1022726,54.3051948]},"properties":{"maxwidth":"2.25"}},{"type":"Feature","geometry":{"type":"Point","coordinates":[13.5231681,54.4807296]},"properties":{"maxwidth":"1"}},{"type":"Feature","geometry":{"type":"Point","coordinates":[13.6008998,54.4093464]},"properties":{"maxheight":"2","maxwidth":"6"}},{"type":"Feature","geometry":{"type":"Point","coordinates":[13.7816361,54.0641083]},"properties":{"maxwidth":"1"}},{"type":"Feature","geometry":{"type":"Point","coordinates":[13.1033931,54.58468]},"properties":{"maxwidth":"1.1"}},{"type":"Feature","geometry":{"type":"Point","coordinates":[13.5759144,54.1303781]},"properties":{"maxwidth":"1.2"}},{"type":"Feature","geometry":{"type":"Point","coordinates":[13.504757,54.4016388]},"properties":{"maxwidth":"1.5"}},{"type":"Feature","geometry":{"type":"Point","coordinates":[13.503418,54.4036644]},"properties":{"maxwidth":"4"}},{"type":"Feature","geometry":{"type":"Point","coordinates":[13.5028001,54.4042938]},"properties":{"maxwidth":"4"}},{"type":"Feature","geometry":{"type":"Point","coordinates":[13.090904,54.314044]},"properties":{"maxheight":"2.1"}},{"type":"Feature","geometry":{"type":"Point","coordinates":[13.4338705,54.4341391]},"properties":{"maxheight":"100"}},{"type":"Feature","geometry":{"type":"Point","coordinates":[13.1103344,54.587626]},"properties":{"maxheight":"1.5","maxwidth":"3"}},{"type":"Feature","geometry":{"type":"Point","coordinates":[13.6479331,54.5151642]},"properties":{"maxheight":"2.1"}},{"type":"Feature","geometry":{"type":"Point","coordinates":[13.6465326,54.5147439]},"properties":{"maxheight":"2.1"}},{"type":"Feature","geometry":{"type":"Point","coordinates":[13.5232211,54.4807786]},"properties":{"maxwidth":"1"}},{"type":"Feature","geometry":{"type":"Point","coordinates":[13.6077098,54.4050372]},"properties":{"maxheight":"2.1"}},{"type":"Feature","geometry":{"type":"Point","coordinates":[13.578438,54.4330085]},"properties":{"maxheight":"2.1"}},{"type":"Feature","geometry":{"type":"Point","coordinates":[13.6464178,54.5148942]},"properties":{"maxheight":"2.1"}},{"type":"Feature","geometry":{"type":"Point","coordinates":[13.764299,54.1488569]},"properties":{"maxheight":"1.80","maxwidth":"6"}},{"type":"Feature","geometry":{"type":"Point","coordinates":[13.4320987,54.4088309]},"properties":{"maxheight":"2"}},{"type":"Feature","geometry":{"type":"Point","coordinates":[13.4035068,54.0829466]},"properties":{"maxwidth":"7"}},{"type":"Feature","geometry":{"type":"Point","coordinates":[13.4016783,54.0825723]},"properties":{"maxwidth":"4.2"}},{"type":"Feature","geometry":{"type":"Point","coordinates":[13.4006328,54.0873881]},"properties":{"maxheight":"1.9"}},{"type":"Feature","geometry":{"type":"Point","coordinates":[13.6983456,54.3821055]},"properties":{"maxheight":"2.05"}},{"type":"Feature","geometry":{"type":"Point","coordinates":[13.5815125,54.4281331]},"properties":{"maxheight":"2.1"}},{"type":"Feature","geometry":{"type":"Point","coordinates":[13.6094074,54.4033724]},"properties":{"maxheight":"2"}},{"type":"Feature","geometry":{"type":"Point","coordinates":[13.0932738,54.3170987]},"properties":{"maxheight":"2"}},{"type":"Feature","geometry":{"type":"Point","coordinates":[13.8743417,54.0927107]},"properties":{"maxwidth":"3.5"}},{"type":"Feature","geometry":{"type":"Point","coordinates":[13.3730951,54.082008]},"properties":{"maxheight":"2"}},{"type":"Feature","geometry":{"type":"Point","coordinates":[13.3817362,54.094186]},"properties":{"maxheight":"2"}},{"type":"Feature","geometry":{"type":"Point","coordinates":[13.58055,54.4297446]},"properties":{"maxheight":"2.13"}},{"type":"Feature","geometry":{"type":"Point","coordinates":[13.7150966,54.3616465]},"properties":{"hgv":"no"}},{"type":"Feature","geometry":{"type":"Point","coordinates":[13.0689368,54.3379504]},"properties":{"maxheight":"2"}},{"type":"Feature","geometry":{"type":"Point","coordinates":[13.7124558,54.3636974]},"properties":{"maxwidth":"1.3"}},{"type":"Feature","geometry":{"type":"Point","coordinates":[13.71662,54.3598967]},"properties":{"maxwidth":"2.3"}},{"type":"Feature","geometry":{"type":"Point","coordinates":[13.0766447,54.3502282]},"properties":{"maxheight":"2.2"}},{"type":"Feature","geometry":{"type":"Point","coordinates":[13.0938582,54.3167425]},"properties":{"maxheight":"2"}},{"type":"Feature","geometry":{"type":"Point","coordinates":[13.0875825,54.3162497]},"properties":{"maxheight":"2"}},{"type":"Feature","geometry":{"type":"Point","coordinates":[13.7083288,54.3621795]},"properties":{"maxheight":"below_default"}},{"type":"Feature","geometry":{"type":"Point","coordinates":[13.6090093,54.5341792]},"properties":{"maxheight":"2.5"}},{"type":"Feature","geometry":{"type":"Point","coordinates":[13.6308502,54.5072391]},"properties":{"maxheight":"2","maxwidth":"4"}},{"type":"Feature","geometry":{"type":"Point","coordinates":[13.6365547,54.5603629]},"properties":{"maxwidth":"2.8"}},{"type":"Feature","geometry":{"type":"Point","coordinates":[13.4488161,54.0932823]},"properties":{"hgv":"no"}},{"type":"Feature","geometry":{"type":"Point","coordinates":[13.6019408,54.4044712]},"properties":{"maxheight":"2"}},{"type":"Feature","geometry":{"type":"Point","coordinates":[13.5945134,54.4129831]},"properties":{"maxheight":"2"}},{"type":"Feature","geometry":{"type":"Point","coordinates":[13.5944555,54.4129655]},"properties":{"maxheight":"2"}},{"type":"Feature","geometry":{"type":"Point","coordinates":[13.6209877,54.1373136]},"properties":{"maxwidth":"3"}},{"type":"Feature","geometry":{"type":"Point","coordinates":[13.6210711,54.1371352]},"properties":{"maxwidth":"3"}},{"type":"Feature","geometry":{"type":"Point","coordinates":[13.6078588,54.5319645]},"properties":{"maxheight":"3","maxwidth":"3"}},{"type":"Feature","geometry":{"type":"Point","coordinates":[13.3872059,54.09732]},"properties":{"hgv":"no"}},{"type":"Feature","geometry":{"type":"Point","coordinates":[13.0980473,54.3095818]},"properties":{"maxheight":"2"}},{"type":"Feature","geometry":{"type":"Point","coordinates":[13.5722306,54.4381786]},"properties":{"maxwidth":"1"}},{"type":"Feature","geometry":{"type":"Point","coordinates":[13.573344,54.4381567]},"properties":{"maxwidth":"1"}},{"type":"Feature","geometry":{"type":"Point","coordinates":[13.6167606,54.3990239]},"properties":{"maxheight":"2.05"}},{"type":"Feature","geometry":{"type":"Point","coordinates":[13.8743563,54.0927462]},"properties":{"maxwidth":"1"}},{"type":"Feature","geometry":{"type":"Point","coordinates":[13.3930588,54.098301]},"properties":{"maxheight":"2"}},{"type":"Feature","geometry":{"type":"Point","coordinates":[13.5878896,54.4905441]},"properties":{"maxheight":"2.5","maxwidth":"5"}},{"type":"Feature","geometry":{"type":"Point","coordinates":[13.5926938,54.4881638]},"properties":{"maxheight":"2.5","maxwidth":"5"}},{"type":"Feature","geometry":{"type":"Point","coordinates":[13.5943872,54.4908564]},"properties":{"maxheight":"2.5","maxwidth":"5"}},{"type":"Feature","geometry":{"type":"Point","coordinates":[13.3633997,54.1170549]},"properties":{"hgv":"no"}},{"type":"Feature","geometry":{"type":"Point","coordinates":[13.0596653,54.3074862]},"properties":{"maxwidth":"1"}},{"type":"Feature","geometry":{"type":"Point","coordinates":[13.6600273,54.5720894]},"properties":{"maxheight":"1.9"}},{"type":"Feature","geometry":{"type":"Point","coordinates":[13.6600203,54.5721024]},"properties":{"maxheight":"1.9"}},{"type":"Feature","geometry":{"type":"Point","coordinates":[13.1281565,54.0861921]},"properties":{"maxheight":"default"}},{"type":"Feature","geometry":{"type":"Point","coordinates":[13.2182747,54.0692301]},"properties":{"maxheight":"default"}},{"type":"Feature","geometry":{"type":"Point","coordinates":[13.4989281,54.3417153]},"properties":{"maxwidth":"2.1"}},{"type":"Feature","geometry":{"type":"Point","coordinates":[13.3052899,54.2377768]},"properties":{"maxweight":"5.0"}},{"type":"Feature","geometry":{"type":"Point","coordinates":[13.4217046,54.3427612]},"properties":{"maxweight":"7.5"}},{"type":"Feature","geometry":{"type":"Point","coordinates":[13.2939883,54.6659902]},"properties":{"hgv":"no"}},{"type":"Feature","geometry":{"type":"Point","coordinates":[13.2471162,54.5562691]},"properties":{"maxweight":"30"}},{"type":"Feature","geometry":{"type":"Point","coordinates":[13.1765461,54.1671484]},"properties":{"maxheight":"default"}},{"type":"Feature","geometry":{"type":"Point","coordinates":[13.518524,54.5212224]},"properties":{"hgv":"no"}},{"type":"Feature","geometry":{"type":"Point","coordinates":[13.2511533,54.2114699]},"properties":{"maxweight":"24"}},{"type":"Feature","geometry":{"type":"Point","coordinates":[13.2947963,54.6668319]},"properties":{"hgv":"no"}},{"type":"Feature","geometry":{"type":"Point","coordinates":[13.4074208,54.0937431]},"properties":{"hgv":"no"}},{"type":"Feature","geometry":{"type":"Point","coordinates":[13.3469239,54.0710947]},"properties":{"maxheight":"default"}},{"type":"Feature","geometry":{"type":"Point","coordinates":[13.3445109,54.0720731]},"properties":{"maxheight":"default"}},{"type":"Feature","geometry":{"type":"Point","coordinates":[13.3444389,54.0906583]},"properties":{"maxheight":"default"}},{"type":"Feature","geometry":{"type":"Point","coordinates":[13.0498971,54.2942141]},"properties":{"maxheight":"default"}},{"type":"Feature","geometry":{"type":"Point","coordinates":[13.0528642,54.294247]},"properties":{"maxheight":"default"}},{"type":"Feature","geometry":{"type":"Point","coordinates":[13.0756348,54.2867492]},"properties":{"maxheight":"default"}},{"type":"Feature","geometry":{"type":"Point","coordinates":[13.4507575,54.0891259]},"properties":{"maxweight":"7.5"}},{"type":"Feature","geometry":{"type":"Point","coordinates":[13.7695827,54.0482666]},"properties":{"maxweight":"12"}},{"type":"Feature","geometry":{"type":"Point","coordinates":[13.447544,54.0963854]},"properties":{"maxweight":"20"}},{"type":"Feature","geometry":{"type":"Point","coordinates":[13.3396109,54.1568889]},"properties":{"maxweight":"5"}},{"type":"Feature","geometry":{"type":"Point","coordinates":[13.3926591,54.0741761]},"properties":{"hgv":"no"}},{"type":"Feature","geometry":{"type":"Point","coordinates":[13.6104702,54.4036746]},"properties":{"maxweight":"7.5"}},{"type":"Feature","geometry":{"type":"Point","coordinates":[13.6983125,54.3829113]},"properties":{"maxweight":"5.5"}},{"type":"Feature","geometry":{"type":"Point","coordinates":[13.4100424,54.0624667]},"properties":{"maxheight":"default"}},{"type":"Feature","geometry":{"type":"Point","coordinates":[13.9167318,54.0801612]},"properties":{"maxwidth":"2"}},{"type":"Feature","geometry":{"type":"Point","coordinates":[13.7800326,54.0538606]},"properties":{"hgv":"delivery"}},{"type":"Feature","geometry":{"type":"Point","coordinates":[13.4114623,54.0544999]},"properties":{"maxweight":"7"}},{"type":"Feature","geometry":{"type":"Point","coordinates":[13.4117204,54.0563478]},"properties":{"maxweight":"7"}},{"type":"Feature","geometry":{"type":"Point","coordinates":[13.3432797,54.0887482]},"properties":{"maxheight":"default"}},{"type":"Feature","geometry":{"type":"Point","coordinates":[13.0993406,54.2588529]},"properties":{"maxheight":"default"}},{"type":"Feature","geometry":{"type":"Point","coordinates":[13.0975066,54.312172]},"properties":{"hgv":"no"}},{"type":"Feature","geometry":{"type":"Point","coordinates":[13.1803314,54.4560675]},"properties":{"maxweight":"30"}},{"type":"Feature","geometry":{"type":"Point","coordinates":[13.376628,54.088266]},"properties":{"hgv":"no"}},{"type":"Feature","geometry":{"type":"Point","coordinates":[13.6059768,54.404623]},"properties":{"maxweight":"7.5"}},{"type":"Feature","geometry":{"type":"Point","coordinates":[13.6042028,54.4073894]},"properties":{"maxweight":"7.5"}},{"type":"Feature","geometry":{"type":"Point","coordinates":[13.5667916,54.467283]},"properties":{"maxweight":"3.5"}},{"type":"Feature","geometry":{"type":"Point","coordinates":[13.7661387,54.0504633]},"properties":{"maxweight":"12"}},{"type":"Feature","geometry":{"type":"Point","coordinates":[13.7749581,54.0516509]},"properties":{"maxweight":"1.5"}},{"type":"Feature","geometry":{"type":"Point","coordinates":[13.1565746,54.4729741]},"properties":{"maxweight":"1.5"}},{"type":"Feature","geometry":{"type":"Point","coordinates":[13.7804118,54.0525503]},"properties":{"hgv":"no"}},{"type":"Feature","geometry":{"type":"Point","coordinates":[13.3700029,54.0969091]},"properties":{"maxweight":"7.5"}},{"type":"Feature","geometry":{"type":"Point","coordinates":[13.3756082,54.0940801]},"properties":{"maxheight":"below_default"}},{"type":"Feature","geometry":{"type":"Point","coordinates":[13.379382,54.0941567]},"properties":{"hgv":"no"}},{"type":"Feature","geometry":{"type":"Point","coordinates":[13.5298389,54.0745123]},"properties":{"maxweight":"7.5"}},{"type":"Feature","geometry":{"type":"Point","coordinates":[13.0739907,54.2860262]},"properties":{"maxheight":"default"}},{"type":"Feature","geometry":{"type":"Point","coordinates":[13.1190485,54.3054002]},"properties":{"maxweight":"20"}},{"type":"Feature","geometry":{"type":"Point","coordinates":[13.448686,54.0934069]},"properties":{"maxweight":"2.5"}},{"type":"Feature","geometry":{"type":"Point","coordinates":[13.1027253,54.3011385]},"properties":{"maxheight":"3.25"}},{"type":"Feature","geometry":{"type":"Point","coordinates":[13.1078972,54.3065715]},"properties":{"maxheight":"default"}},{"type":"Feature","geometry":{"type":"Point","coordinates":[13.4452099,54.0966676]},"properties":{"maxweight":"20"}},{"type":"Feature","geometry":{"type":"Point","coordinates":[13.0509586,54.3294143]},"properties":{"goods":"yes"}},{"type":"Feature","geometry":{"type":"Point","coordinates":[13.5488763,54.1206826]},"properties":{"maxweight":"12"}},{"type":"Feature","geometry":{"type":"Point","coordinates":[13.5575659,54.1206135]},"properties":{"maxweight":"12"}},{"type":"Feature","geometry":{"type":"Point","coordinates":[13.3564876,54.1208359]},"properties":{"maxheight":"default"}},{"type":"Feature","geometry":{"type":"Point","coordinates":[13.0934651,54.2917664]},"properties":{"maxweight":"30"}},{"type":"Feature","geometry":{"type":"Point","coordinates":[13.1449957,54.3287948]},"properties":{"maxheight":"default"}},{"type":"Feature","geometry":{"type":"Point","coordinates":[13.2521402,54.1286162]},"properties":{"maxweight":"7.5"}},{"type":"Feature","geometry":{"type":"Point","coordinates":[13.0912584,54.3173591]},"properties":{"maxheight":"2.5"}},{"type":"Feature","geometry":{"type":"Point","coordinates":[13.4432805,54.0859886]},"properties":{"maxweight":"7.5"}},{"type":"Feature","geometry":{"type":"Point","coordinates":[13.5896895,54.4149524]},"properties":{"hgv":"yes"}},{"type":"Feature","geometry":{"type":"Point","coordinates":[13.6309118,54.1188692]},"properties":{"maxweight":"8"}},{"type":"Feature","geometry":{"type":"Point","coordinates":[13.6628901,54.119153]},"properties":{"maxweight":"8"}},{"type":"Feature","geometry":{"type":"Point","coordinates":[13.6290767,54.0647939]},"properties":{"maxweight":"12"}},{"type":"Feature","geometry":{"type":"Point","coordinates":[13.7243796,54.1000659]},"properties":{"maxweight":"8"}},{"type":"Feature","geometry":{"type":"Point","coordinates":[13.7208539,54.1005693]},"properties":{"maxweight":"8"}},{"type":"Feature","geometry":{"type":"Point","coordinates":[13.439218,54.414976]},"properties":{"maxweight":"5.5"}},{"type":"Feature","geometry":{"type":"Point","coordinates":[13.1689914,54.2395816]},"properties":{"maxweight":"7"}},{"type":"Feature","geometry":{"type":"Point","coordinates":[13.1720527,54.2419555]},"properties":{"maxweight":"7"}},{"type":"Feature","geometry":{"type":"Point","coordinates":[13.1732497,54.2419496]},"properties":{"maxweight":"7"}},{"type":"Feature","geometry":{"type":"Point","coordinates":[13.1693036,54.2373141]},"properties":{"maxweight":"7"}},{"type":"Feature","geometry":{"type":"Point","coordinates":[13.1708355,54.242869]},"properties":{"maxweight":"7"}},{"type":"Feature","geometry":{"type":"Point","coordinates":[13.1725646,54.2427445]},"properties":{"maxweight":"7"}},{"type":"Feature","geometry":{"type":"Point","coordinates":[13.6052954,54.0867873]},"properties":{"maxweight":"12"}},{"type":"Feature","geometry":{"type":"Point","coordinates":[13.6075648,54.1321681]},"properties":{"hgv":"no"}},{"type":"Feature","geometry":{"type":"Point","coordinates":[13.2676595,54.2267893]},"properties":{"maxweight":"7.5"}},{"type":"Feature","geometry":{"type":"Point","coordinates":[13.2700785,54.2270185]},"properties":{"maxweight":"7.5"}},{"type":"Feature","geometry":{"type":"Point","coordinates":[13.1169758,54.3107261]},"properties":{"maxheight":"default"}},{"type":"Feature","geometry":{"type":"Point","coordinates":[13.0118424,54.3123891]},"properties":{"maxweight":"30"}},{"type":"Feature","geometry":{"type":"Point","coordinates":[13.2516463,54.2121649]},"properties":{"hgv":"no","goods":"no"}},{"type":"Feature","geometry":{"type":"Point","coordinates":[13.0976454,54.3137012]},"properties":{"maxlength":"12","maxweight":"30"}},{"type":"Feature","geometry":{"type":"Point","coordinates":[13.3629821,54.0810033]},"properties":{"maxweight":"7.5"}},{"type":"Feature","geometry":{"type":"Point","coordinates":[13.0769131,54.3349457]},"properties":{"maxheight":"below_default"}},{"type":"Feature","geometry":{"type":"Point","coordinates":[13.3965652,54.0978423]},"properties":{"maxweight":"7.5"}},{"type":"Feature","geometry":{"type":"Point","coordinates":[13.018531,54.2889265]},"properties":{"maxwidth":"2.1"}},{"type":"Feature","geometry":{"type":"Point","coordinates":[13.324106,54.0680683]},"properties":{"maxweight":"8.5"}},{"type":"Feature","geometry":{"type":"Point","coordinates":[13.3266122,54.0659071]},"properties":{"goods":"yes","maxweight":"7.5"}},{"type":"Feature","geometry":{"type":"Point","coordinates":[13.3226596,54.0685448]},"properties":{"maxweight":"8.5"}},{"type":"Feature","geometry":{"type":"Point","coordinates":[13.4278671,54.0745285]},"properties":{"hgv":"no"}},{"type":"Feature","geometry":{"type":"Point","coordinates":[13.0541759,54.2491946]},"properties":{"maxweight":"16"}},{"type":"Feature","geometry":{"type":"Point","coordinates":[13.1542876,54.2244892]},"properties":{"maxheight":"default"}},{"type":"Feature","geometry":{"type":"Point","coordinates":[13.2518086,54.128768]},"properties":{"maxweight":"7.5"}},{"type":"Feature","geometry":{"type":"Point","coordinates":[13.1407646,54.3225584]},"properties":{"maxheight":"3.8"}},{"type":"Feature","geometry":{"type":"Point","coordinates":[13.4982468,54.3409583]},"properties":{"maxwidth":"2.1"}},{"type":"Feature","geometry":{"type":"Point","coordinates":[13.5922675,54.3640203]},"properties":{"maxweight":"7.5"}},{"type":"Feature","geometry":{"type":"Point","coordinates":[13.0863244,54.3138151]},"properties":{"maxheight":"below_default"}},{"type":"Feature","geometry":{"type":"Point","coordinates":[13.3325726,54.1713441]},"properties":{"goods":"yes"}},{"type":"Feature","geometry":{"type":"Point","coordinates":[13.3369143,54.1792837]},"properties":{"goods":"yes","maxweight":"2"}},{"type":"Feature","geometry":{"type":"Point","coordinates":[13.3423979,54.179241]},"properties":{"maxweight":"2"}},{"type":"Feature","geometry":{"type":"Point","coordinates":[13.3406344,54.1795469]},"properties":{"maxweight":"2"}},{"type":"Feature","geometry":{"type":"Point","coordinates":[13.3389485,54.1805776]},"properties":{"maxweight":"2"}},{"type":"Feature","geometry":{"type":"Point","coordinates":[13.3378496,54.1804144]},"properties":{"goods":"yes","maxweight":"2"}},{"type":"Feature","geometry":{"type":"Point","coordinates":[13.3343305,54.1787659]},"properties":{"maxweight":"2"}},{"type":"Feature","geometry":{"type":"Point","coordinates":[13.3292875,54.178124]},"properties":{"maxweight":"2"}},{"type":"Feature","geometry":{"type":"Point","coordinates":[13.3554136,54.126897]},"properties":{"maxweight":"8"}},{"type":"Feature","geometry":{"type":"Point","coordinates":[13.3691597,54.1217951]},"properties":{"hgv":"destination"}},{"type":"Feature","geometry":{"type":"Point","coordinates":[13.3731911,54.121291]},"properties":{"hgv":"destination"}},{"type":"Feature","geometry":{"type":"Point","coordinates":[13.4785214,54.1168058]},"properties":{"goods":"yes"}},{"type":"Feature","geometry":{"type":"Point","coordinates":[13.7735109,54.0557597]},"properties":{"hgv":"no"}},{"type":"Feature","geometry":{"type":"Point","coordinates":[13.7752646,54.0549387]},"properties":{"hgv":"no"}},{"type":"Feature","geometry":{"type":"Point","coordinates":[13.7765766,54.0544635]},"properties":{"hgv":"no"}},{"type":"Feature","geometry":{"type":"Point","coordinates":[13.7349815,54.0221411]},"properties":{"maxweight":"7.5"}},{"type":"Feature","geometry":{"type":"Point","coordinates":[13.3117227,54.3630111]},"properties":{"maxheight":"default"}},{"type":"Feature","geometry":{"type":"Point","coordinates":[13.8891571,54.0314783]},"properties":{"hgv":"delivery"}},{"type":"Feature","geometry":{"type":"Point","coordinates":[13.4626146,54.3291994]},"properties":{"maxweight":"3.5"}},{"type":"Feature","geometry":{"type":"Point","coordinates":[13.7347414,54.0976413]},"properties":{"maxweight":"8"}},{"type":"Feature","geometry":{"type":"Point","coordinates":[13.7801994,54.0534622]},"properties":{"maxweight":"12"}},{"type":"Feature","geometry":{"type":"Point","coordinates":[13.5284339,54.0747181]},"properties":{"maxweight":"7.5"}},{"type":"Feature","geometry":{"type":"Point","coordinates":[13.5277343,54.074846]},"properties":{"maxweight":"7.5"}},{"type":"Feature","geometry":{"type":"Point","coordinates":[13.3883689,54.0976481]},"properties":{"maxwidth":"2.5","maxlength":"5","maxweight":"2.5"}},{"type":"Feature","geometry":{"type":"Point","coordinates":[13.3882546,54.0976435]},"properties":{"maxwidth":"2.5","maxlength":"5","maxweight":"2.5"}},{"type":"Feature","geometry":{"type":"Point","coordinates":[13.3885899,54.0984827]},"properties":{"maxwidth":"2.5","maxlength":"5","maxweight":"2.5"}},{"type":"Feature","geometry":{"type":"Point","coordinates":[13.3883297,54.0984825]},"properties":{"maxwidth":"2.5","maxlength":"5","maxweight":"2.5"}},{"type":"Feature","geometry":{"type":"Point","coordinates":[13.3879989,54.0981031]},"properties":{"maxwidth":"2.5","maxlength":"5","maxweight":"2.5"}},{"type":"Feature","geometry":{"type":"Point","coordinates":[13.3757814,54.0938744]},"properties":{"maxheight":"default"}},{"type":"Feature","geometry":{"type":"Point","coordinates":[13.4453256,54.0966401]},"properties":{"maxweight":"20"}},{"type":"Feature","geometry":{"type":"Point","coordinates":[13.4461582,54.0965221]},"properties":{"maxweight":"20"}},{"type":"Feature","geometry":{"type":"Point","coordinates":[13.4474345,54.0954495]},"properties":{"maxweight":"20"}},{"type":"Feature","geometry":{"type":"Point","coordinates":[13.4454406,54.0867512]},"properties":{"maxweight":"7.5"}},{"type":"Feature","geometry":{"type":"Point","coordinates":[13.101601,54.2576251]},"properties":{"maxheight":"default"}},{"type":"Feature","geometry":{"type":"Point","coordinates":[13.0696417,54.3072985]},"properties":{"maxheight":"2.65"}},{"type":"Feature","geometry":{"type":"Point","coordinates":[13.4066756,54.0517376]},"properties":{"maxweight":"7"}},{"type":"Feature","geometry":{"type":"Point","coordinates":[13.162832,54.5133566]},"properties":{"maxweight":"30"}},{"type":"Feature","geometry":{"type":"Point","coordinates":[13.2297221,54.6290226]},"properties":{"maxheight":"2.95"}},{"type":"Feature","geometry":{"type":"Point","coordinates":[13.3457873,54.3731774]},"properties":{"maxweight":"12"}},{"type":"Feature","geometry":{"type":"Point","coordinates":[13.0257508,54.3758192]},"properties":{"maxweight":"3.5"}},{"type":"Feature","geometry":{"type":"Point","coordinates":[13.0129859,54.4054105]},"properties":{"maxweight":"12"}},{"type":"Feature","geometry":{"type":"Point","coordinates":[13.3612374,54.0816797]},"properties":{"maxweight":"7.5"}},{"type":"Feature","geometry":{"type":"Point","coordinates":[13.3630861,54.0938934]},"properties":{"hgv":"no"}},{"type":"Feature","geometry":{"type":"Point","coordinates":[13.2726896,54.0888623]},"properties":{"maxweight":"7.5"}},{"type":"Feature","geometry":{"type":"Point","coordinates":[13.1847498,54.0769197]},"properties":{"maxheight":"default"}},{"type":"Feature","geometry":{"type":"Point","coordinates":[13.1683623,54.1516712]},"properties":{"maxheight":"default"}},{"type":"Feature","geometry":{"type":"Point","coordinates":[13.1741858,54.1590724]},"properties":{"maxheight":"default"}},{"type":"Feature","geometry":{"type":"Point","coordinates":[13.1678561,54.1512905]},"properties":{"maxheight":"default"}},{"type":"Feature","geometry":{"type":"Point","coordinates":[13.1641185,54.1462038]},"properties":{"maxheight":"default"}},{"type":"Feature","geometry":{"type":"Point","coordinates":[13.158084,54.1995029]},"properties":{"maxheight":"default"}},{"type":"Feature","geometry":{"type":"Point","coordinates":[13.1664609,54.1842331]},"properties":{"maxheight":"default"}},{"type":"Feature","geometry":{"type":"Point","coordinates":[13.2338537,54.1341977]},"properties":{"maxweight":"7.5"}},{"type":"Feature","geometry":{"type":"Point","coordinates":[13.1642355,54.1461537]},"properties":{"maxheight":"default"}},{"type":"Feature","geometry":{"type":"Point","coordinates":[13.1472111,54.109495]},"properties":{"maxheight":"default"}},{"type":"Feature","geometry":{"type":"Point","coordinates":[13.4292514,54.0476957]},"properties":{"maxweight":"7.5"}},{"type":"Feature","geometry":{"type":"Point","coordinates":[13.3398596,54.0569965]},"properties":{"hgv":"delivery","maxweight":"8"}},{"type":"Feature","geometry":{"type":"Point","coordinates":[13.2742608,54.064145]},"properties":{"hgv":"agricultural;forestry","maxweight":"7.5"}},{"type":"Feature","geometry":{"type":"Point","coordinates":[13.4209355,54.0899808]},"properties":{"hgv":"no","goods":"permissive"}},{"type":"Feature","geometry":{"type":"Point","coordinates":[13.6866412,54.3519741]},"properties":{"hgv":"no"}},{"type":"Feature","geometry":{"type":"Point","coordinates":[13.3608051,54.0844007]},"properties":{"maxweight":"7.5"}},{"type":"Feature","geometry":{"type":"Point","coordinates":[13.3653164,54.0883381]},"properties":{"hgv":"no"}},{"type":"Feature","geometry":{"type":"Point","coordinates":[13.6037007,54.0831138]},"properties":{"maxweight":"12"}},{"type":"Feature","geometry":{"type":"Point","coordinates":[13.6005139,54.074933]},"properties":{"maxweight":"12"}},{"type":"Feature","geometry":{"type":"Point","coordinates":[13.4350858,54.4131768]},"properties":{"maxweight":"7.5"}},{"type":"Feature","geometry":{"type":"Point","coordinates":[13.7369549,54.097286]},"properties":{"maxweight":"8"}},{"type":"Feature","geometry":{"type":"Point","coordinates":[13.0453342,54.1151338]},"properties":{"maxweight":"2"}},{"type":"Feature","geometry":{"type":"Point","coordinates":[13.0523496,54.2944953]},"properties":{"maxheight":"default"}},{"type":"Feature","geometry":{"type":"Point","coordinates":[13.3989204,54.106348]},"properties":{"hgv":"no"}},{"type":"Feature","geometry":{"type":"Point","coordinates":[13.6937383,54.2813902]},"properties":{"hgv":"no"}},{"type":"Feature","geometry":{"type":"Point","coordinates":[13.2213288,54.0678475]},"properties":{"maxheight":"default"}},{"type":"Feature","geometry":{"type":"Point","coordinates":[13.6436526,54.5139154]},"properties":{"maxheight":"default"}},{"type":"Feature","geometry":{"type":"Point","coordinates":[13.1049193,54.3052065]},"properties":{"maxheight":"default"}},{"type":"Feature","geometry":{"type":"Point","coordinates":[13.1069698,54.3063447]},"properties":{"maxheight":"default"}},{"type":"Feature","geometry":{"type":"Point","coordinates":[13.6090756,54.4025531]},"properties":{"maxweight":"7.5"}},{"type":"Feature","geometry":{"type":"Point","coordinates":[13.6096752,54.4031119]},"properties":{"maxweight":"7.5"}},{"type":"Feature","geometry":{"type":"Point","coordinates":[13.8245945,54.1061474]},"properties":{"maxweight":"7.5"}},{"type":"Feature","geometry":{"type":"Point","coordinates":[13.4072238,54.0487644]},"properties":{"maxweight":"7.5"}},{"type":"Feature","geometry":{"type":"Point","coordinates":[13.326288,54.1730477]},"properties":{"maxweight":"7.5"}},{"type":"Feature","geometry":{"type":"Point","coordinates":[13.09674,54.3163365]},"properties":{"maxheight":"2.2"}},{"type":"Feature","geometry":{"type":"Point","coordinates":[13.3432137,54.0738155]},"properties":{"maxheight":"default"}},{"type":"Feature","geometry":{"type":"Point","coordinates":[13.3482697,54.0704221]},"properties":{"maxheight":"default"}},{"type":"Feature","geometry":{"type":"Point","coordinates":[13.3454582,54.071663]},"properties":{"maxheight":"default"}},{"type":"Feature","geometry":{"type":"Point","coordinates":[13.3439611,54.0908476]},"properties":{"maxheight":"default"}},{"type":"Feature","geometry":{"type":"Point","coordinates":[13.3438135,54.0894632]},"properties":{"maxheight":"default"}},{"type":"Feature","geometry":{"type":"Point","coordinates":[13.3438628,54.0899865]},"properties":{"maxheight":"default"}},{"type":"Feature","geometry":{"type":"Point","coordinates":[13.0525001,54.2474381]},"properties":{"maxweight":"16"}},{"type":"Feature","geometry":{"type":"Point","coordinates":[13.326275,54.1714185]},"properties":{"maxweight":"5"}},{"type":"Feature","geometry":{"type":"Point","coordinates":[13.3709424,54.0923164]},"properties":{"maxheight":"default"}},{"type":"Feature","geometry":{"type":"Point","coordinates":[13.3463847,54.3799984]},"properties":{"maxheight":"default"}},{"type":"Feature","geometry":{"type":"Point","coordinates":[13.4094849,54.1662088]},"properties":{"maxweight":"30"}},{"type":"Feature","geometry":{"type":"Point","coordinates":[13.7157309,54.2800205]},"properties":{"maxheight":"3"}},{"type":"Feature","geometry":{"type":"Point","coordinates":[13.6014999,54.4096113]},"properties":{"maxheight":"2.55"}},{"type":"Feature","geometry":{"type":"Point","coordinates":[13.6008998,54.4093464]},"properties":{"maxheight":"2"}},{"type":"Feature","geometry":{"type":"Point","coordinates":[13.1338109,54.3287342]},"properties":{"maxweight":"7.5"}},{"type":"Feature","geometry":{"type":"Point","coordinates":[13.3647999,54.0898161]},"properties":{"hgv":"no"}},{"type":"Feature","geometry":{"type":"Point","coordinates":[13.4216187,54.0885151]},"properties":{"hgv":"no","goods":"permissive"}},{"type":"Feature","geometry":{"type":"Point","coordinates":[13.4047406,54.0925082]},"properties":{"maxheight":"below_default"}},{"type":"Feature","geometry":{"type":"Point","coordinates":[13.4056818,54.0924144]},"properties":{"maxheight":"below_default"}},{"type":"Feature","geometry":{"type":"Point","coordinates":[13.3673535,54.0808363]},"properties":{"maxweight":"7.5"}},{"type":"Feature","geometry":{"type":"Point","coordinates":[13.3629418,54.0809425]},"properties":{"maxweight":"7.5"}},{"type":"Feature","geometry":{"type":"Point","coordinates":[13.3632277,54.0936957]},"properties":{"hgv":"no"}},{"type":"Feature","geometry":{"type":"Point","coordinates":[13.3637834,54.0807058]},"properties":{"maxweight":"7.5"}},{"type":"Feature","geometry":{"type":"Point","coordinates":[13.1045967,54.3070844]},"properties":{"maxheight":"default"}},{"type":"Feature","geometry":{"type":"Point","coordinates":[13.1083719,54.3070288]},"properties":{"maxheight":"default"}},{"type":"Feature","geometry":{"type":"Point","coordinates":[13.0996625,54.3131114]},"properties":{"maxheight":"2.1","maxweight":"2.5"}},{"type":"Feature","geometry":{"type":"Point","coordinates":[13.7752736,54.0525]},"properties":{"maxweight":"3.5"}},{"type":"Feature","geometry":{"type":"Point","coordinates":[13.2929753,54.6663559]},"properties":{"hgv":"no"}},{"type":"Feature","geometry":{"type":"Point","coordinates":[13.2936582,54.6661094]},"properties":{"hgv":"no"}},{"type":"Feature","geometry":{"type":"Point","coordinates":[13.2933082,54.6662358]},"properties":{"hgv":"no"}},{"type":"Feature","geometry":{"type":"Point","coordinates":[13.3797732,54.0995249]},"properties":{"maxheight":"3.5"}},{"type":"Feature","geometry":{"type":"Point","coordinates":[13.7239496,54.5114223]},"properties":{"hgv":"yes"}},{"type":"Feature","geometry":{"type":"Point","coordinates":[13.0923559,54.315839]},"properties":{"maxheight":"below_default"}},{"type":"Feature","geometry":{"type":"Point","coordinates":[13.352982,54.2582184]},"properties":{"maxweight":"7.5"}},{"type":"Feature","geometry":{"type":"Point","coordinates":[13.3832233,54.0963402]},"properties":{"maxheight":"default"}},{"type":"Feature","geometry":{"type":"Point","coordinates":[13.2960197,54.6667904]},"properties":{"hgv":"no"}},{"type":"Feature","geometry":{"type":"Point","coordinates":[13.2958854,54.666909]},"properties":{"hgv":"no"}},{"type":"Feature","geometry":{"type":"Point","coordinates":[13.3894368,54.0043983]},"properties":{"maxweight":"7"}},{"type":"Feature","geometry":{"type":"Point","coordinates":[13.3901463,54.0039463]},"properties":{"maxweight":"7"}},{"type":"Feature","geometry":{"type":"Point","coordinates":[13.6316111,54.5232784]},"properties":{"maxweight":"7.5"}},{"type":"Feature","geometry":{"type":"Point","coordinates":[13.3473608,54.6248227]},"properties":{"hgv":"agricultural"}},{"type":"Feature","geometry":{"type":"Point","coordinates":[13.6409483,54.5124277]},"properties":{"maxheight":"default"}},{"type":"Feature","geometry":{"type":"Point","coordinates":[13.3450404,54.3732833]},"properties":{"maxweight":"12"}},{"type":"Feature","geometry":{"type":"Point","coordinates":[13.5019971,54.3434958]},"properties":{"hgv":"no","goods":"no","maxheight":"2.2"}},{"type":"Feature","geometry":{"type":"Point","coordinates":[13.0251074,54.298869]},"properties":{"maxheight":"default"}},{"type":"Feature","geometry":{"type":"Point","coordinates":[13.4215582,54.3430114]},"properties":{"maxweight":"7.5"}},{"type":"Feature","geometry":{"type":"Point","coordinates":[13.4213225,54.3513676]},"properties":{"maxweight":"7.5"}},{"type":"Feature","geometry":{"type":"Point","coordinates":[13.3994265,54.0898493]},"properties":{"maxweight":"7.5"}},{"type":"Feature","geometry":{"type":"Point","coordinates":[13.158912,54.3427966]},"properties":{"maxheight":"default"}},{"type":"Feature","geometry":{"type":"Point","coordinates":[13.1953936,54.3521473]},"properties":{"maxheight":"default"}},{"type":"Feature","geometry":{"type":"Point","coordinates":[13.1008704,54.0908583]},"properties":{"maxheight":"default"}},{"type":"Feature","geometry":{"type":"Point","coordinates":[13.7147574,54.3616295]},"properties":{"hgv":"destination","goods":"destination","maxwidth":"4.0","maxweight":"3.5"}},{"type":"Feature","geometry":{"type":"Point","coordinates":[13.7170731,54.3607708]},"properties":{"hgv":"permissive","goods":"permissive"}},{"type":"Feature","geometry":{"type":"Point","coordinates":[13.5196266,54.3952875]},"properties":{"hgv":"private","goods":"private"}},{"type":"Feature","geometry":{"type":"Point","coordinates":[13.2554783,54.3546495]},"properties":{"maxheight":"default"}},{"type":"Feature","geometry":{"type":"Point","coordinates":[13.2202516,54.354664]},"properties":{"maxheight":"default"}},{"type":"Feature","geometry":{"type":"Point","coordinates":[13.2485158,54.1296397]},"properties":{"maxweight":"7.5"}},{"type":"Feature","geometry":{"type":"Point","coordinates":[13.369883,54.0921552]},"properties":{"maxheight":"default"}},{"type":"Feature","geometry":{"type":"Point","coordinates":[13.6104057,54.4015416]},"properties":{"maxheight":"1.5"}},{"type":"Feature","geometry":{"type":"Point","coordinates":[13.7743421,54.0553901]},"properties":{"hgv":"no"}},{"type":"Feature","geometry":{"type":"Point","coordinates":[13.4486385,54.0873908]},"properties":{"maxweight":"7.5"}},{"type":"Feature","geometry":{"type":"Point","coordinates":[13.1534767,54.0797411]},"properties":{"hgv":"designated"}},{"type":"Feature","geometry":{"type":"Point","coordinates":[13.1542633,54.0788437]},"properties":{"hgv":"designated"}},{"type":"Feature","geometry":{"type":"Point","coordinates":[13.0561046,54.3082089]},"properties":{"maxweight":"2.8"}},{"type":"Feature","geometry":{"type":"Point","coordinates":[13.416122,54.4075092]},"properties":{"maxheight":"default"}},{"type":"Feature","geometry":{"type":"Point","coordinates":[13.4161733,54.4074545]},"properties":{"maxheight":"default"}},{"type":"Feature","geometry":{"type":"Point","coordinates":[13.4162227,54.4074018]},"properties":{"maxheight":"default"}},{"type":"Feature","geometry":{"type":"Point","coordinates":[13.0746421,54.3371857]},"properties":{"maxheight":"default"}},{"type":"Feature","geometry":{"type":"Point","coordinates":[13.7458618,54.3432486]},"properties":{"maxweight":"5.5"}},{"type":"Feature","geometry":{"type":"Point","coordinates":[13.1847444,54.076819]},"properties":{"maxheight":"default"}},{"type":"Feature","geometry":{"type":"Point","coordinates":[13.1279838,54.0861313]},"properties":{"maxheight":"default"}},{"type":"Feature","geometry":{"type":"Point","coordinates":[13.1523118,54.11541]},"properties":{"maxheight":"default"}},{"type":"Feature","geometry":{"type":"Point","coordinates":[13.3788365,54.060713]},"properties":{"maxheight":"default"}},{"type":"Feature","geometry":{"type":"Point","coordinates":[13.0500025,54.3046383]},"properties":{"maxheight":"default"}},{"type":"Feature","geometry":{"type":"Point","coordinates":[13.0506661,54.3047148]},"properties":{"maxheight":"default"}},{"type":"Feature","geometry":{"type":"Point","coordinates":[13.0932368,54.2992535]},"properties":{"maxheight":"default"}},{"type":"Feature","geometry":{"type":"Point","coordinates":[13.1446478,54.3284067]},"properties":{"maxheight":"default"}},{"type":"Feature","geometry":{"type":"Point","coordinates":[13.1740334,54.1590723]},"properties":{"maxheight":"default"}},{"type":"Feature","geometry":{"type":"Point","coordinates":[13.1763209,54.1667218]},"properties":{"maxheight":"default"}},{"type":"Feature","geometry":{"type":"Point","coordinates":[13.1762884,54.1683552]},"properties":{"maxheight":"default"}},{"type":"Feature","geometry":{"type":"Point","coordinates":[13.1714211,54.179352]},"properties":{"maxheight":"default"}},{"type":"Feature","geometry":{"type":"Point","coordinates":[13.1761437,54.1682777]},"properties":{"maxheight":"default"}},{"type":"Feature","geometry":{"type":"Point","coordinates":[13.1035397,54.0905534]},"properties":{"maxheight":"default"}},{"type":"Feature","geometry":{"type":"Point","coordinates":[13.0872997,54.091119]},"properties":{"maxheight":"default"}},{"type":"Feature","geometry":{"type":"Point","coordinates":[13.0874685,54.0910259]},"properties":{"maxheight":"default"}},{"type":"Feature","geometry":{"type":"Point","coordinates":[13.0502303,54.2950592]},"properties":{"maxheight":"default"}},{"type":"Feature","geometry":{"type":"Point","coordinates":[13.055269,54.2934023]},"properties":{"maxheight":"default"}},{"type":"Feature","geometry":{"type":"Point","coordinates":[13.0498462,54.2950718]},"properties":{"maxheight":"default"}},{"type":"Feature","geometry":{"type":"Point","coordinates":[13.0555717,54.2933943]},"properties":{"maxheight":"default"}},{"type":"Feature","geometry":{"type":"Point","coordinates":[13.3410549,54.1798967]},"properties":{"maxweight":"2"}},{"type":"Feature","geometry":{"type":"Point","coordinates":[13.1426015,54.0817371]},"properties":{"maxheight":"default"}},{"type":"Feature","geometry":{"type":"Point","coordinates":[13.1435267,54.0813923]},"properties":{"maxheight":"default"}},{"type":"Feature","geometry":{"type":"Point","coordinates":[13.6479331,54.5151642]},"properties":{"maxweight":"2.8"}},{"type":"Feature","geometry":{"type":"Point","coordinates":[13.6464171,54.514717]},"properties":{"maxheight":"2.1","maxweight":"2.5"}},{"type":"Feature","geometry":{"type":"Point","coordinates":[13.5057056,54.4846799]},"properties":{"hgv":"no","goods":"delivery","maxweight":"3.5"}},{"type":"Feature","geometry":{"type":"Point","coordinates":[13.5157805,54.5100655]},"properties":{"hgv":"no"}},{"type":"Feature","geometry":{"type":"Point","coordinates":[13.0930492,54.2992486]},"properties":{"maxheight":"default"}},{"type":"Feature","geometry":{"type":"Point","coordinates":[13.3548949,54.1666212]},"properties":{"maxweight":"5"}},{"type":"Feature","geometry":{"type":"Point","coordinates":[13.7840085,54.1365901]},"properties":{"hgv":"no","goods":"no"}},{"type":"Feature","geometry":{"type":"Point","coordinates":[13.7493526,54.0961444]},"properties":{"maxweight":"8"}},{"type":"Feature","geometry":{"type":"Point","coordinates":[13.2090003,54.0722698]},"properties":{"maxheight":"default"}},{"type":"Feature","geometry":{"type":"Point","coordinates":[13.2106072,54.0719026]},"properties":{"maxheight":"default"}},{"type":"Feature","geometry":{"type":"Point","coordinates":[13.4234016,54.421384]},"properties":{"maxheight":"default"}},{"type":"Feature","geometry":{"type":"Point","coordinates":[13.4235458,54.4213456]},"properties":{"maxheight":"default"}},{"type":"Feature","geometry":{"type":"Point","coordinates":[13.3503042,54.1617215]},"properties":{"maxweight":"5"}},{"type":"Feature","geometry":{"type":"Point","coordinates":[13.5090396,54.1063386]},"properties":{"maxheight":"2.4"}},{"type":"Feature","geometry":{"type":"Point","coordinates":[13.3607979,54.084603]},"properties":{"maxweight":"7.5"}},{"type":"Feature","geometry":{"type":"Point","coordinates":[13.5483155,54.1207318]},"properties":{"maxweight":"12"}},{"type":"Feature","geometry":{"type":"Point","coordinates":[13.2990844,54.3505913]},"properties":{"maxheight":"default"}},{"type":"Feature","geometry":{"type":"Point","coordinates":[13.2639853,54.3532774]},"properties":{"maxheight":"default"}},{"type":"Feature","geometry":{"type":"Point","coordinates":[13.2149159,54.3541439]},"properties":{"maxheight":"default"}},{"type":"Feature","geometry":{"type":"Point","coordinates":[13.1539306,54.3407867]},"properties":{"maxheight":"default"}},{"type":"Feature","geometry":{"type":"Point","coordinates":[13.1312429,54.0908727]},"properties":{"maxheight":"default"}},{"type":"Feature","geometry":{"type":"Point","coordinates":[13.4208602,54.0894448]},"properties":{"hgv":"no","goods":"permissive"}},{"type":"Feature","geometry":{"type":"Point","coordinates":[13.1320565,54.0913561]},"properties":{"maxheight":"default"}},{"type":"Feature","geometry":{"type":"Point","coordinates":[13.1379383,54.0970736]},"properties":{"maxheight":"default"}},{"type":"Feature","geometry":{"type":"Point","coordinates":[13.1449802,54.1064976]},"properties":{"maxheight":"default"}},{"type":"Feature","geometry":{"type":"Point","coordinates":[13.1449229,54.1064246]},"properties":{"maxheight":"default"}},{"type":"Feature","geometry":{"type":"Point","coordinates":[13.1442142,54.105722]},"properties":{"maxheight":"default"}},{"type":"Feature","geometry":{"type":"Point","coordinates":[13.1374502,54.0964546]},"properties":{"maxheight":"default"}},{"type":"Feature","geometry":{"type":"Point","coordinates":[13.1381012,54.0970807]},"properties":{"maxheight":"default"}},{"type":"Feature","geometry":{"type":"Point","coordinates":[13.144297,54.1058337]},"properties":{"maxheight":"default"}},{"type":"Feature","geometry":{"type":"Point","coordinates":[13.1447668,54.1064341]},"properties":{"maxheight":"default"}},{"type":"Feature","geometry":{"type":"Point","coordinates":[13.1375906,54.0964209]},"properties":{"maxheight":"default"}},{"type":"Feature","geometry":{"type":"Point","coordinates":[13.1444288,54.1057947]},"properties":{"maxheight":"default"}},{"type":"Feature","geometry":{"type":"Point","coordinates":[13.1373865,54.096385]},"properties":{"maxheight":"default"}},{"type":"Feature","geometry":{"type":"Point","coordinates":[13.138054,54.0970198]},"properties":{"maxheight":"default"}},{"type":"Feature","geometry":{"type":"Point","coordinates":[13.1354111,54.0943095]},"properties":{"maxheight":"default"}},{"type":"Feature","geometry":{"type":"Point","coordinates":[13.1418265,54.1022214]},"properties":{"maxheight":"default"}},{"type":"Feature","geometry":{"type":"Point","coordinates":[13.135543,54.0942755]},"properties":{"maxheight":"default"}},{"type":"Feature","geometry":{"type":"Point","coordinates":[13.139918,54.0997423]},"properties":{"maxheight":"default"}},{"type":"Feature","geometry":{"type":"Point","coordinates":[13.1483799,54.1107143]},"properties":{"maxheight":"default"}},{"type":"Feature","geometry":{"type":"Point","coordinates":[13.1478033,54.1100246]},"properties":{"maxheight":"default"}},{"type":"Feature","geometry":{"type":"Point","coordinates":[13.1475644,54.1097388]},"properties":{"maxheight":"default"}},{"type":"Feature","geometry":{"type":"Point","coordinates":[13.1473443,54.1094755]},"properties":{"maxheight":"default"}},{"type":"Feature","geometry":{"type":"Point","coordinates":[13.1498992,54.1126539]},"properties":{"maxheight":"default"}},{"type":"Feature","geometry":{"type":"Point","coordinates":[13.1501193,54.1127105]},"properties":{"maxheight":"default"}},{"type":"Feature","geometry":{"type":"Point","coordinates":[13.1506999,54.1133925]},"properties":{"maxheight":"default"}},{"type":"Feature","geometry":{"type":"Point","coordinates":[13.1506517,54.1133359]},"properties":{"maxheight":"default"}},{"type":"Feature","geometry":{"type":"Point","coordinates":[13.1499639,54.1127293]},"properties":{"maxheight":"default"}},{"type":"Feature","geometry":{"type":"Point","coordinates":[13.1504834,54.1133345]},"properties":{"maxheight":"default"}},{"type":"Feature","geometry":{"type":"Point","coordinates":[13.1497142,54.1122346]},"properties":{"maxheight":"default"}},{"type":"Feature","geometry":{"type":"Point","coordinates":[13.1521952,54.1154458]},"properties":{"maxheight":"default"}},{"type":"Feature","geometry":{"type":"Point","coordinates":[13.1564194,54.1221672]},"properties":{"maxheight":"default"}},{"type":"Feature","geometry":{"type":"Point","coordinates":[13.1562619,54.1221589]},"properties":{"maxheight":"default"}},{"type":"Feature","geometry":{"type":"Point","coordinates":[13.1565864,54.1228537]},"properties":{"maxheight":"default"}},{"type":"Feature","geometry":{"type":"Point","coordinates":[13.1566283,54.12264]},"properties":{"maxheight":"default"}},{"type":"Feature","geometry":{"type":"Point","coordinates":[13.1567628,54.1229383]},"properties":{"maxheight":"default"}},{"type":"Feature","geometry":{"type":"Point","coordinates":[13.1562319,54.1220898]},"properties":{"maxheight":"default"}},{"type":"Feature","geometry":{"type":"Point","coordinates":[13.1563191,54.1219421]},"properties":{"maxheight":"default"}},{"type":"Feature","geometry":{"type":"Point","coordinates":[13.1554255,54.1205206]},"properties":{"maxheight":"default"}},{"type":"Feature","geometry":{"type":"Point","coordinates":[13.1590537,54.1314544]},"properties":{"maxheight":"default"}},{"type":"Feature","geometry":{"type":"Point","coordinates":[13.1593014,54.1322762]},"properties":{"maxheight":"default"}},{"type":"Feature","geometry":{"type":"Point","coordinates":[13.1591557,54.1322402]},"properties":{"maxheight":"default"}},{"type":"Feature","geometry":{"type":"Point","coordinates":[13.1590631,54.1315265]},"properties":{"maxheight":"default"}},{"type":"Feature","geometry":{"type":"Point","coordinates":[13.1593094,54.1323454]},"properties":{"maxheight":"default"}},{"type":"Feature","geometry":{"type":"Point","coordinates":[13.159219,54.1315707]},"properties":{"maxheight":"default"}},{"type":"Feature","geometry":{"type":"Point","coordinates":[13.1579269,54.1259677]},"properties":{"maxheight":"default"}},{"type":"Feature","geometry":{"type":"Point","coordinates":[13.1577866,54.1259678]},"properties":{"maxheight":"default"}},{"type":"Feature","geometry":{"type":"Point","coordinates":[13.161169,54.1399759]},"properties":{"maxheight":"default"}},{"type":"Feature","geometry":{"type":"Point","coordinates":[13.1610577,54.1396961]},"properties":{"maxheight":"default"}},{"type":"Feature","geometry":{"type":"Point","coordinates":[13.1609545,54.1397936]},"properties":{"maxheight":"default"}},{"type":"Feature","geometry":{"type":"Point","coordinates":[13.1612251,54.1404705]},"properties":{"maxheight":"default"}},{"type":"Feature","geometry":{"type":"Point","coordinates":[13.1609195,54.139706]},"properties":{"maxheight":"default"}},{"type":"Feature","geometry":{"type":"Point","coordinates":[13.1613691,54.1404792]},"properties":{"maxheight":"default"}},{"type":"Feature","geometry":{"type":"Point","coordinates":[13.1598768,54.1358488]},"properties":{"maxheight":"default"}},{"type":"Feature","geometry":{"type":"Point","coordinates":[13.1597436,54.1358521]},"properties":{"maxheight":"default"}},{"type":"Feature","geometry":{"type":"Point","coordinates":[13.7050292,54.3638822]},"properties":{"maxheight":"default"}},{"type":"Feature","geometry":{"type":"Point","coordinates":[13.4319611,54.0758947]},"properties":{"hgv":"no"}},{"type":"Feature","geometry":{"type":"Point","coordinates":[13.428982,54.0746014]},"properties":{"hgv":"no"}},{"type":"Feature","geometry":{"type":"Point","coordinates":[13.7097962,54.0996133]},"properties":{"maxweight":"8"}},{"type":"Feature","geometry":{"type":"Point","coordinates":[13.3427571,54.0672141]},"properties":{"hgv":"delivery","maxweight":"8"}},{"type":"Feature","geometry":{"type":"Point","coordinates":[13.3712686,54.0924941]},"properties":{"maxheight":"default"}},{"type":"Feature","geometry":{"type":"Point","coordinates":[13.6404906,54.5144475]},"properties":{"maxheight":"below_default"}},{"type":"Feature","geometry":{"type":"Point","coordinates":[13.5899613,54.4150502]},"properties":{"hgv":"yes"}},{"type":"Feature","geometry":{"type":"Point","coordinates":[13.3782668,54.0607869]},"properties":{"maxheight":"default"}},{"type":"Feature","geometry":{"type":"Point","coordinates":[13.3841569,54.0606084]},"properties":{"maxheight":"default"}},{"type":"Feature","geometry":{"type":"Point","coordinates":[13.3634075,54.0674597]},"properties":{"maxheight":"default"}},{"type":"Feature","geometry":{"type":"Point","coordinates":[13.4455575,54.0847781]},"properties":{"maxweight":"7.5"}},{"type":"Feature","geometry":{"type":"Point","coordinates":[13.4230573,54.089131]},"properties":{"hgv":"no"}},{"type":"Feature","geometry":{"type":"Point","coordinates":[13.3630081,54.0877945]},"properties":{"maxweight":"7.5"}},{"type":"Feature","geometry":{"type":"Point","coordinates":[13.3629418,54.0809425]},"properties":{"maxweight":"7.5"}},{"type":"Feature","geometry":{"type":"Point","coordinates":[13.4533786,54.0962066]},"properties":{"hgv":"no"}},{"type":"Feature","geometry":{"type":"Point","coordinates":[13.6065633,54.1355944]},"properties":{"maxheight":"2.3"}},{"type":"Feature","geometry":{"type":"Point","coordinates":[13.5512992,54.1210498]},"properties":{"maxweight":"12"}},{"type":"Feature","geometry":{"type":"Point","coordinates":[13.6025467,54.4023363]},"properties":{"maxheight":"3"}},{"type":"Feature","geometry":{"type":"Point","coordinates":[13.3850913,54.0606316]},"properties":{"maxheight":"default"}},{"type":"Feature","geometry":{"type":"Point","coordinates":[13.4439496,54.4125043]},"properties":{"maxweight":"5.5"}},{"type":"Feature","geometry":{"type":"Point","coordinates":[13.3994978,54.0747312]},"properties":{"maxheight":"4.2"}},{"type":"Feature","geometry":{"type":"Point","coordinates":[13.3879989,54.0981031]},"properties":{"maxwidth":"2.5","maxlength":"5","maxweight":"2.5"}},{"type":"Feature","geometry":{"type":"Point","coordinates":[13.7799694,54.0539093]},"properties":{"hgv":"delivery"}},{"type":"Feature","geometry":{"type":"Point","coordinates":[13.3919106,54.0906342]},"properties":{"maxheight":"none"}},{"type":"Feature","geometry":{"type":"Point","coordinates":[13.3919257,54.0917659]},"properties":{"maxheight":"none"}},{"type":"Feature","geometry":{"type":"Point","coordinates":[13.0509571,54.3047484]},"properties":{"maxheight":"default"}},{"type":"Feature","geometry":{"type":"Point","coordinates":[13.1754646,54.3471742]},"properties":{"maxheight":"default"}},{"type":"Feature","geometry":{"type":"Point","coordinates":[13.4056388,54.0796708]},"properties":{"hgv":"no","goods":"no"}},{"type":"Feature","geometry":{"type":"Point","coordinates":[13.6082403,54.4017652]},"properties":{"maxweight":"7.5"}},{"type":"Feature","geometry":{"type":"Point","coordinates":[13.3801266,54.0978852]},"properties":{"maxheight":"default"}},{"type":"Feature","geometry":{"type":"Point","coordinates":[13.3715684,54.0960464]},"properties":{"maxheight":"below_default"}},{"type":"Feature","geometry":{"type":"Point","coordinates":[13.2890689,54.3494189]},"properties":{"maxheight":"default"}},{"type":"Feature","geometry":{"type":"Point","coordinates":[13.3894455,54.0926707]},"properties":{"maxheight":"5"}},{"type":"Feature","geometry":{"type":"Point","coordinates":[13.1058812,54.3056526]},"properties":{"maxheight":"default"}},{"type":"Feature","geometry":{"type":"Point","coordinates":[13.0489983,54.3045232]},"properties":{"maxheight":"default"}},{"type":"Feature","geometry":{"type":"Point","coordinates":[13.3974768,54.0609819]},"properties":{"maxheight":"default"}},{"type":"Feature","geometry":{"type":"Point","coordinates":[13.402664,54.0613612]},"properties":{"maxheight":"default"}},{"type":"Feature","geometry":{"type":"Point","coordinates":[13.4626576,54.3292044]},"properties":{"maxweight":"3.5"}},{"type":"Feature","geometry":{"type":"Point","coordinates":[13.887083,54.0320369]},"properties":{"hgv":"delivery"}},{"type":"Feature","geometry":{"type":"Point","coordinates":[13.4239544,54.4240274]},"properties":{"maxheight":"default"}},{"type":"Feature","geometry":{"type":"Point","coordinates":[13.3532078,54.6167607]},"properties":{"hgv":"agricultural"}},{"type":"Feature","geometry":{"type":"Point","coordinates":[13.0986987,54.3146866]},"properties":{"maxweight":"30"}},{"type":"Feature","geometry":{"type":"Point","coordinates":[13.1544116,54.2244947]},"properties":{"maxheight":"default"}},{"type":"Feature","geometry":{"type":"Point","coordinates":[13.7398655,54.3450449]},"properties":{"maxheight":"2.4"}},{"type":"Feature","geometry":{"type":"Point","coordinates":[13.6102657,54.4017889]},"properties":{"maxheight":"1.5"}},{"type":"Feature","geometry":{"type":"Point","coordinates":[13.714885,54.2798561]},"properties":{"maxheight":"3"}},{"type":"Feature","geometry":{"type":"Point","coordinates":[13.390958,54.0953599]},"properties":{"maxheight":"2.6"}},{"type":"Feature","geometry":{"type":"Point","coordinates":[13.899877,54.0818404]},"properties":{"hgv":"no"}},{"type":"Feature","geometry":{"type":"Point","coordinates":[13.7066876,54.2718573]},"properties":{"maxwidth":"0.7"}},{"type":"Feature","geometry":{"type":"Point","coordinates":[13.3470698,54.380147]},"properties":{"maxheight":"default"}},{"type":"Feature","geometry":{"type":"Point","coordinates":[13.6408538,54.5147654]},"properties":{"maxheight":"3.8"}},{"type":"Feature","geometry":{"type":"Point","coordinates":[13.4205968,54.41907]},"properties":{"maxheight":"default"}},{"type":"Feature","geometry":{"type":"Point","coordinates":[13.4205664,54.4189874]},"properties":{"maxheight":"default"}},{"type":"Feature","geometry":{"type":"Point","coordinates":[13.420525,54.4189333]},"properties":{"maxheight":"default"}},{"type":"Feature","geometry":{"type":"Point","coordinates":[13.420451,54.4188949]},"properties":{"maxheight":"default"}},{"type":"Feature","geometry":{"type":"Point","coordinates":[13.4204152,54.4188254]},"properties":{"maxheight":"default"}},{"type":"Feature","geometry":{"type":"Point","coordinates":[13.4203389,54.4187969]},"properties":{"maxheight":"default"}},{"type":"Feature","geometry":{"type":"Point","coordinates":[13.4304815,54.0803151]},"properties":{"maxheight":"2.1"}},{"type":"Feature","geometry":{"type":"Point","coordinates":[13.4303122,54.0803778]},"properties":{"maxheight":"2.8"}},{"type":"Feature","geometry":{"type":"Point","coordinates":[13.4303536,54.0803469]},"properties":{"maxheight":"2.8"}},{"type":"Feature","geometry":{"type":"Point","coordinates":[13.430195,54.0805467]},"properties":{"maxheight":"3.5"}},{"type":"Feature","geometry":{"type":"Point","coordinates":[13.4302954,54.0805923]},"properties":{"maxheight":"3.5"}},{"type":"Feature","geometry":{"type":"Point","coordinates":[13.6405579,54.5125769]},"properties":{"maxheight":"default"}},{"type":"Feature","geometry":{"type":"Point","coordinates":[13.4198989,54.0920152]},"properties":{"maxheight":"2.8"}},{"type":"Feature","geometry":{"type":"Point","coordinates":[13.4198605,54.0919359]},"properties":{"maxheight":"2.8"}},{"type":"Feature","geometry":{"type":"Point","coordinates":[13.4802974,54.3550483]},"properties":{"maxheight":"default"}},{"type":"Feature","geometry":{"type":"Point","coordinates":[13.4803347,54.3556113]},"properties":{"maxheight":"default"}},{"type":"Feature","geometry":{"type":"Point","coordinates":[13.0947538,54.3008744]},"properties":{"maxheight":"default"}},{"type":"Feature","geometry":{"type":"Point","coordinates":[13.7793636,54.0542561]},"properties":{"hgv":"delivery"}},{"type":"Feature","geometry":{"type":"Point","coordinates":[13.0907732,54.3174909]},"properties":{"maxheight":"2.5"}},{"type":"Feature","geometry":{"type":"Point","coordinates":[13.090784,54.3173493]},"properties":{"maxheight":"2.5"}},{"type":"Feature","geometry":{"type":"Point","coordinates":[13.3424725,54.0766092]},"properties":{"maxheight":"default"}},{"type":"Feature","geometry":{"type":"Point","coordinates":[13.3493762,54.0701077]},"properties":{"maxheight":"default"}},{"type":"Feature","geometry":{"type":"Point","coordinates":[13.3459404,54.0713928]},"properties":{"maxheight":"default"}},{"type":"Feature","geometry":{"type":"Point","coordinates":[13.0528588,54.2950675]},"properties":{"maxheight":"default"}},{"type":"Feature","geometry":{"type":"Point","coordinates":[13.4146285,54.4248148]},"properties":{"hgv":"destination"}},{"type":"Feature","geometry":{"type":"Point","coordinates":[13.5879951,54.4854986]},"properties":{"maxheight":"default"}},{"type":"Feature","geometry":{"type":"Point","coordinates":[13.3642474,54.3879381]},"properties":{"maxheight":"default"}},{"type":"Feature","geometry":{"type":"Point","coordinates":[13.0755436,54.2878313]},"properties":{"maxheight":"default"}},{"type":"Feature","geometry":{"type":"Point","coordinates":[13.1566723,54.2015428]},"properties":{"maxheight":"default"}},{"type":"Feature","geometry":{"type":"Point","coordinates":[13.0668201,54.3395788]},"properties":{"maxheight":"2"}},{"type":"Feature","geometry":{"type":"Point","coordinates":[13.7796854,54.0528861]},"properties":{"maxweight":"12"}},{"type":"Feature","geometry":{"type":"Point","coordinates":[13.6672738,54.1381712]},"properties":{"maxheight":"4.3"}},{"type":"Feature","geometry":{"type":"Point","coordinates":[13.0781329,54.3097699]},"properties":{"maxheight":"2"}},{"type":"Feature","geometry":{"type":"Point","coordinates":[13.3687205,54.0925806]},"properties":{"maxheight":"2.3"}},{"type":"Feature","geometry":{"type":"Point","coordinates":[13.2143021,54.0705795]},"properties":{"maxheight":"default"}},{"type":"Feature","geometry":{"type":"Point","coordinates":[13.10253,54.3098436]},"properties":{"maxheight":"default"}},{"type":"Feature","geometry":{"type":"Point","coordinates":[13.4484016,54.0936864]},"properties":{"maxweight":"2.5"}},{"type":"Feature","geometry":{"type":"Point","coordinates":[13.5900511,54.4150849]},"properties":{"hgv":"yes"}},{"type":"Feature","geometry":{"type":"Point","coordinates":[13.5895484,54.4149098]},"properties":{"hgv":"yes"}},{"type":"Feature","geometry":{"type":"Point","coordinates":[13.858265,54.0873966]},"properties":{"hgv":"no"}},{"type":"Feature","geometry":{"type":"Point","coordinates":[13.6560306,54.1518602]},"properties":{"maxheight":"4"}},{"type":"Feature","geometry":{"type":"Point","coordinates":[13.5882726,54.4845661]},"properties":{"maxheight":"default"}},{"type":"Feature","geometry":{"type":"Point","coordinates":[13.1089951,54.273716]},"properties":{"maxweight":"7.5 t"}},{"type":"Feature","geometry":{"type":"Point","coordinates":[13.0906612,54.3177307]},"properties":{"maxheight":"2.5"}},{"type":"Feature","geometry":{"type":"Point","coordinates":[13.526767,54.0746264]},"properties":{"hgv":"no"}},{"type":"Feature","geometry":{"type":"Point","coordinates":[13.5723153,54.4435667]},"properties":{"maxweight":"2.8"}},{"type":"Feature","geometry":{"type":"Point","coordinates":[13.3899761,54.0947292]},"properties":{"maxheight":"2.5"}},{"type":"Feature","geometry":{"type":"Point","coordinates":[13.3900278,54.0948217]},"properties":{"maxheight":"2.5"}},{"type":"Feature","geometry":{"type":"Point","coordinates":[13.4486353,54.0934567]},"properties":{"maxweight":"2.5"}},{"type":"Feature","geometry":{"type":"Point","coordinates":[13.4485847,54.0935066]},"properties":{"maxweight":"2.5"}},{"type":"Feature","geometry":{"type":"Point","coordinates":[13.4782916,54.1174177]},"properties":{"goods":"yes"}},{"type":"Feature","geometry":{"type":"Point","coordinates":[13.2241286,54.3546664]},"properties":{"maxheight":"default"}},{"type":"Feature","geometry":{"type":"Point","coordinates":[13.2167551,54.3546666]},"properties":{"maxheight":"default"}},{"type":"Feature","geometry":{"type":"Point","coordinates":[13.7460286,54.3434089]},"properties":{"maxweight":"5.5"}},{"type":"Feature","geometry":{"type":"Point","coordinates":[13.0465196,54.1151563]},"properties":{"maxweight":"2"}},{"type":"Feature","geometry":{"type":"Point","coordinates":[13.0463991,54.1149893]},"properties":{"maxweight":"2"}},{"type":"Feature","geometry":{"type":"Point","coordinates":[13.3631509,54.093934]},"properties":{"hgv":"no"}},{"type":"Feature","geometry":{"type":"Point","coordinates":[13.3934932,54.1036545]},"properties":{"hgv":"no"}},{"type":"Feature","geometry":{"type":"Point","coordinates":[13.6167606,54.3990239]},"properties":{"maxheight":"2.05"}},{"type":"Feature","geometry":{"type":"Point","coordinates":[13.0912805,54.8143273]},"properties":{"hgv":"yes"}},{"type":"Feature","geometry":{"type":"Point","coordinates":[13.4444483,54.0968614]},"properties":{"maxweight":"20"}},{"type":"Feature","geometry":{"type":"Point","coordinates":[13.5703594,54.4476567]},"properties":{"maxweight":"3.5"}},{"type":"Feature","geometry":{"type":"Point","coordinates":[13.4116833,54.0549391]},"properties":{"maxweight":"7"}},{"type":"Feature","geometry":{"type":"Point","coordinates":[13.4299084,54.0749864]},"properties":{"hgv":"no"}},{"type":"Feature","geometry":{"type":"Point","coordinates":[13.3088453,54.0447899]},"properties":{"maxweight":"7"}},{"type":"Feature","geometry":{"type":"Point","coordinates":[13.567464,54.4431486]},"properties":{"maxheight":"4","maxwidth":"4"}},{"type":"Feature","geometry":{"type":"Point","coordinates":[13.3883242,54.0975806]},"properties":{"maxwidth":"2.5","maxlength":"5","maxweight":"2.5"}},{"type":"Feature","geometry":{"type":"Point","coordinates":[13.0721533,54.3082824]},"properties":{"maxweight":"7.5"}},{"type":"Feature","geometry":{"type":"Point","coordinates":[13.0720729,54.3084145]},"properties":{"maxweight":"7.5"}},{"type":"Feature","geometry":{"type":"Point","coordinates":[13.2739681,54.0902613]},"properties":{"maxweight":"7.5"}},{"type":"Feature","geometry":{"type":"Point","coordinates":[13.0247426,54.2307135]},"properties":{"maxweight":"16"}},{"type":"Feature","geometry":{"type":"Point","coordinates":[13.3264948,54.1766562]},"properties":{"maxweight":"2"}},{"type":"Feature","geometry":{"type":"Point","coordinates":[13.7770941,54.0556527]},"properties":{"hgv":"delivery"}},{"type":"Feature","geometry":{"type":"Point","coordinates":[13.4185652,54.4225621]},"properties":{"hgv":"no"}},{"type":"Feature","geometry":{"type":"Point","coordinates":[13.3680004,54.3894865]},"properties":{"maxheight":"default"}},{"type":"Feature","geometry":{"type":"Point","coordinates":[13.3709673,54.3908248]},"properties":{"maxheight":"default"}},{"type":"Feature","geometry":{"type":"Point","coordinates":[13.7750093,54.0516565]},"properties":{"maxweight":"1.5"}},{"type":"Feature","geometry":{"type":"Point","coordinates":[13.7798389,54.0530655]},"properties":{"maxweight":"12"}},{"type":"Feature","geometry":{"type":"Point","coordinates":[13.1055729,54.3069957]},"properties":{"maxheight":"default"}},{"type":"Feature","geometry":{"type":"Point","coordinates":[13.1062163,54.3071087]},"properties":{"maxheight":"default"}},{"type":"Feature","geometry":{"type":"Point","coordinates":[13.1063681,54.3071233]},"properties":{"maxheight":"default"}},{"type":"Feature","geometry":{"type":"Point","coordinates":[13.106651,54.307033]},"properties":{"maxheight":"default"}},{"type":"Feature","geometry":{"type":"Point","coordinates":[13.6104274,54.4047334]},"properties":{"maxweight":"120"}},{"type":"Feature","geometry":{"type":"Point","coordinates":[13.6085955,54.4007043]},"properties":{"maxheight":"1.9"}},{"type":"Feature","geometry":{"type":"Point","coordinates":[13.6005119,54.4119761]},"properties":{"maxweight":"120"}},{"type":"Feature","geometry":{"type":"Point","coordinates":[13.6063465,54.132492]},"properties":{"hgv":"no"}},{"type":"Feature","geometry":{"type":"Point","coordinates":[13.77412,54.0555061]},"properties":{"hgv":"no"}},{"type":"Feature","geometry":{"type":"Point","coordinates":[13.6478024,54.1476203]},"properties":{"hgv":"designated"}},{"type":"Feature","geometry":{"type":"Point","coordinates":[13.4302694,54.0804098]},"properties":{"maxheight":"2.8"}}]}