{"type":"FeatureCollection","features":[{"type":"Feature","geometry":{"type":"Point","coordinates":[13.2451981,53.5311908]},"properties":{"maxwidth":"1.5"}},{"type":"Feature","geometry":{"type":"Point","coordinates":[13.687363,53.8547354]},"properties":{"goods":"permissive"}},{"type":"Feature","geometry":{"type":"Point","coordinates":[13.5422572,53.1394021]},"properties":{"maxwidth":"0.9"}},{"type":"Feature","geometry":{"type":"Point","coordinates":[13.5420548,53.1394709]},"properties":{"maxwidth":"0.9"}},{"type":"Feature","geometry":{"type":"Point","coordinates":[13.0612304,53.8986279]},"properties":{"maxheight":"default"}},{"type":"Feature","geometry":{"type":"Point","coordinates":[13.2001304,53.2870287]},"properties":{"maxwidth":"0.8"}},{"type":"Feature","geometry":{"type":"Point","coordinates":[13.0285054,53.9072148]},"properties":{"maxheight":"12.6"}},{"type":"Feature","geometry":{"type":"Point","coordinates":[13.4436835,53.3268089]},"properties":{"maxwidth":"1"}},{"type":"Feature","geometry":{"type":"Point","coordinates":[13.2681864,53.555703]},"properties":{"maxheight":"2"}},{"type":"Feature","geometry":{"type":"Point","coordinates":[13.5129017,53.1274609]},"properties":{"maxwidth":"1"}},{"type":"Feature","geometry":{"type":"Point","coordinates":[13.0228024,53.3463095]},"properties":{"maxheight":"4.2"}},{"type":"Feature","geometry":{"type":"Point","coordinates":[13.4714631,53.9008046]},"properties":{"maxheight":"10 m"}},{"type":"Feature","geometry":{"type":"Point","coordinates":[13.4696392,53.9043996]},"properties":{"maxheight":"10 m"}},{"type":"Feature","geometry":{"type":"Point","coordinates":[13.0492744,53.9146261]},"properties":{"maxheight":"5.40 m"}},{"type":"Feature","geometry":{"type":"Point","coordinates":[13.0420969,53.8994374]},"properties":{"maxheight":"1.4 m"}},{"type":"Feature","geometry":{"type":"Point","coordinates":[13.1163849,53.960038]},"properties":{"maxheight":"12 m"}},{"type":"Feature","geometry":{"type":"Point","coordinates":[13.1153304,53.9589113]},"properties":{"maxheight":"12 m"}},{"type":"Feature","geometry":{"type":"Point","coordinates":[13.0492115,53.9146294]},"properties":{"maxheight":"5.40"}},{"type":"Feature","geometry":{"type":"Point","coordinates":[13.2684843,53.5562018]},"properties":{"maxheight":"2"}},{"type":"Feature","geometry":{"type":"Point","coordinates":[13.9873177,53.5085142]},"properties":{"maxheight":"2.7"}},{"type":"Feature","geometry":{"type":"Point","coordinates":[13.2401004,53.1360889]},"properties":{"maxheight":"4.80"}},{"type":"Feature","geometry":{"type":"Point","coordinates":[13.8736493,53.1867504]},"properties":{"maxwidth":"1"}},{"type":"Feature","geometry":{"type":"Point","coordinates":[13.8717395,53.1813838]},"properties":{"maxwidth":"1"}},{"type":"Feature","geometry":{"type":"Point","coordinates":[13.8269749,53.8657406]},"properties":{"maxwidth":"18.3"}},{"type":"Feature","geometry":{"type":"Point","coordinates":[13.2293783,53.1769317]},"properties":{"maxheight":"3.70"}},{"type":"Feature","geometry":{"type":"Point","coordinates":[13.0244265,53.3137801]},"properties":{"maxheight":"4.45"}},{"type":"Feature","geometry":{"type":"Point","coordinates":[13.0326589,53.321411]},"properties":{"maxheight":"4.2"}},{"type":"Feature","geometry":{"type":"Point","coordinates":[13.0348126,53.3304896]},"properties":{"maxheight":"3.4"}},{"type":"Feature","geometry":{"type":"Point","coordinates":[13.0335103,53.2194051]},"properties":{"maxheight":"4.2"}},{"type":"Feature","geometry":{"type":"Point","coordinates":[13.028815,53.2480812]},"properties":{"maxheight":"4.1"}},{"type":"Feature","geometry":{"type":"Point","coordinates":[13.0269616,53.2546038]},"properties":{"maxheight":"4.2"}},{"type":"Feature","geometry":{"type":"Point","coordinates":[13.0037039,53.3117323]},"properties":{"maxheight":"3.9"}},{"type":"Feature","geometry":{"type":"Point","coordinates":[13.0018426,53.3135476]},"properties":{"maxheight":"3.4"}},{"type":"Feature","geometry":{"type":"Point","coordinates":[13.252967,53.5231279]},"properties":{"maxwidth":"1"}},{"type":"Feature","geometry":{"type":"Point","coordinates":[13.2509254,53.5242124]},"properties":{"maxwidth":"6"}},{"type":"Feature","geometry":{"type":"Point","coordinates":[13.0685,53.2445]},"properties":{"maxheight":"5.5 m"}},{"type":"Feature","geometry":{"type":"Point","coordinates":[13.0661,53.245]},"properties":{"maxheight":"5.5 m"}},{"type":"Feature","geometry":{"type":"Point","coordinates":[13.0682772,53.2436336]},"properties":{"maxheight":"5.5 m"}},{"type":"Feature","geometry":{"type":"Point","coordinates":[13.074891,53.2401339]},"properties":{"maxheight":"4.0 m"}},{"type":"Feature","geometry":{"type":"Point","coordinates":[13.067754,53.2449079]},"properties":{"maxheight":"5.8 m"}},{"type":"Feature","geometry":{"type":"Point","coordinates":[13.0832998,53.9352896]},"properties":{"maxheight":"1.5"}},{"type":"Feature","geometry":{"type":"Point","coordinates":[13.8281185,53.4748668]},"properties":{"hgv":"no"}},{"type":"Feature","geometry":{"type":"Point","coordinates":[13.4967642,53.119354]},"properties":{"maxheight":"2.1"}},{"type":"Feature","geometry":{"type":"Point","coordinates":[13.7291042,53.2408337]},"properties":{"maxheight":"3.8"}},{"type":"Feature","geometry":{"type":"Point","coordinates":[13.5041978,53.1204783]},"properties":{"maxwidth":"2.5"}},{"type":"Feature","geometry":{"type":"Point","coordinates":[13.2842662,53.2255616]},"properties":{"maxwidth":"1.2"}},{"type":"Feature","geometry":{"type":"Point","coordinates":[13.4985793,53.1182658]},"properties":{"maxwidth":"2.2"}},{"type":"Feature","geometry":{"type":"Point","coordinates":[13.0604117,53.1490508]},"properties":{"hgv":"no"}},{"type":"Feature","geometry":{"type":"Point","coordinates":[13.1426075,53.1716902]},"properties":{"maxwidth":"0.4"}},{"type":"Feature","geometry":{"type":"Point","coordinates":[13.1426429,53.1718937]},"properties":{"maxwidth":"0.4"}},{"type":"Feature","geometry":{"type":"Point","coordinates":[13.2924531,53.5816936]},"properties":{"hgv":"no"}},{"type":"Feature","geometry":{"type":"Point","coordinates":[13.3043104,53.2018774]},"properties":{"maxwidth":"3"}},{"type":"Feature","geometry":{"type":"Point","coordinates":[13.2177011,53.5870605]},"properties":{"maxheight":"2"}},{"type":"Feature","geometry":{"type":"Point","coordinates":[13.0501015,53.3604071]},"properties":{"maxheight":"below_default"}},{"type":"Feature","geometry":{"type":"Point","coordinates":[13.2619924,53.5610189]},"properties":{"hgv":"no"}},{"type":"Feature","geometry":{"type":"Point","coordinates":[13.2552872,53.5487847]},"properties":{"hgv":"no"}},{"type":"Feature","geometry":{"type":"Point","coordinates":[13.2689847,53.5595195]},"properties":{"maxheight":"2.1","maxweight":"3"}},{"type":"Feature","geometry":{"type":"Point","coordinates":[13.3126074,53.2058323]},"properties":{"maxwidth":"0.5"}},{"type":"Feature","geometry":{"type":"Point","coordinates":[13.5304908,53.11264]},"properties":{"maxwidth":"1"}},{"type":"Feature","geometry":{"type":"Point","coordinates":[13.5306257,53.1140047]},"properties":{"maxwidth":"4"}},{"type":"Feature","geometry":{"type":"Point","coordinates":[13.5494737,53.1311131]},"properties":{"maxwidth":"1"}},{"type":"Feature","geometry":{"type":"Point","coordinates":[13.5124068,53.1276001]},"properties":{"maxwidth":"1"}},{"type":"Feature","geometry":{"type":"Point","coordinates":[13.8887318,53.8433034]},"properties":{"maxheight":"2","maxwidth":"4"}},{"type":"Feature","geometry":{"type":"Point","coordinates":[13.311921,53.5566037]},"properties":{"hgv":"designated"}},{"type":"Feature","geometry":{"type":"Point","coordinates":[13.2778347,53.2249181]},"properties":{"maxheight":"2","maxwidth":"1"}},{"type":"Feature","geometry":{"type":"Point","coordinates":[13.0896617,53.3654672]},"properties":{"goods":"yes"}},{"type":"Feature","geometry":{"type":"Point","coordinates":[13.2661083,53.551447]},"properties":{"hgv":"no"}},{"type":"Feature","geometry":{"type":"Point","coordinates":[13.2945934,53.5556819]},"properties":{"hgv":"no"}},{"type":"Feature","geometry":{"type":"Point","coordinates":[13.2600069,53.5654813]},"properties":{"hgv":"no"}},{"type":"Feature","geometry":{"type":"Point","coordinates":[13.2605107,53.5711852]},"properties":{"hgv":"no"}},{"type":"Feature","geometry":{"type":"Point","coordinates":[13.2598648,53.5326271]},"properties":{"hgv":"no"}},{"type":"Feature","geometry":{"type":"Point","coordinates":[13.2831415,53.5637783]},"properties":{"hgv":"no"}},{"type":"Feature","geometry":{"type":"Point","coordinates":[13.296833,53.5532007]},"properties":{"hgv":"no"}},{"type":"Feature","geometry":{"type":"Point","coordinates":[13.2473231,53.5541546]},"properties":{"hgv":"no"}},{"type":"Feature","geometry":{"type":"Point","coordinates":[13.9950794,53.0153864]},"properties":{"hgv":"no"}},{"type":"Feature","geometry":{"type":"Point","coordinates":[13.2497362,53.5324845]},"properties":{"maxheight":"2.1"}},{"type":"Feature","geometry":{"type":"Point","coordinates":[13.2619717,53.5700699]},"properties":{"hgv":"no"}},{"type":"Feature","geometry":{"type":"Point","coordinates":[13.2625584,53.5375018]},"properties":{"hgv":"no"}},{"type":"Feature","geometry":{"type":"Point","coordinates":[13.051989,53.9080509]},"properties":{"hgv":"no"}},{"type":"Feature","geometry":{"type":"Point","coordinates":[13.2451824,53.5311989]},"properties":{"maxwidth":"1.5"}},{"type":"Feature","geometry":{"type":"Point","coordinates":[13.3125791,53.205585]},"properties":{"maxwidth":"0.5"}},{"type":"Feature","geometry":{"type":"Point","coordinates":[13.2575642,53.5210615]},"properties":{"maxheight":"1.9"}},{"type":"Feature","geometry":{"type":"Point","coordinates":[13.283142,53.2238937]},"properties":{"maxwidth":"1.2"}},{"type":"Feature","geometry":{"type":"Point","coordinates":[13.2826524,53.5640956]},"properties":{"hgv":"no"}},{"type":"Feature","geometry":{"type":"Point","coordinates":[13.8583102,53.1088498]},"properties":{"maxheight":"default"}},{"type":"Feature","geometry":{"type":"Point","coordinates":[13.3308183,53.8462123]},"properties":{"maxheight":"default"}},{"type":"Feature","geometry":{"type":"Point","coordinates":[13.3325765,53.7603949]},"properties":{"maxheight":"default"}},{"type":"Feature","geometry":{"type":"Point","coordinates":[13.8084185,53.5178941]},"properties":{"maxheight":"default"}},{"type":"Feature","geometry":{"type":"Point","coordinates":[13.9227838,53.4892476]},"properties":{"maxheight":"default"}},{"type":"Feature","geometry":{"type":"Point","coordinates":[13.5311228,53.5551831]},"properties":{"maxheight":"default"}},{"type":"Feature","geometry":{"type":"Point","coordinates":[13.7287843,53.5349706]},"properties":{"maxheight":"default"}},{"type":"Feature","geometry":{"type":"Point","coordinates":[13.3257044,53.6978215]},"properties":{"maxheight":"default"}},{"type":"Feature","geometry":{"type":"Point","coordinates":[13.4793247,53.5653547]},"properties":{"maxheight":"default"}},{"type":"Feature","geometry":{"type":"Point","coordinates":[13.3475256,53.8756542]},"properties":{"maxheight":"default"}},{"type":"Feature","geometry":{"type":"Point","coordinates":[13.6173797,53.5532472]},"properties":{"maxheight":"default"}},{"type":"Feature","geometry":{"type":"Point","coordinates":[13.3328721,53.7574792]},"properties":{"maxheight":"default"}},{"type":"Feature","geometry":{"type":"Point","coordinates":[13.8525656,53.5149948]},"properties":{"maxheight":"default"}},{"type":"Feature","geometry":{"type":"Point","coordinates":[13.6521329,53.5530782]},"properties":{"maxheight":"default"}},{"type":"Feature","geometry":{"type":"Point","coordinates":[13.3693965,53.6374931]},"properties":{"maxheight":"default"}},{"type":"Feature","geometry":{"type":"Point","coordinates":[13.8359987,53.5190339]},"properties":{"maxheight":"default"}},{"type":"Feature","geometry":{"type":"Point","coordinates":[13.3625521,53.9423969]},"properties":{"maxheight":"default"}},{"type":"Feature","geometry":{"type":"Point","coordinates":[13.3218844,53.8095844]},"properties":{"maxheight":"default"}},{"type":"Feature","geometry":{"type":"Point","coordinates":[13.6833001,53.5478612]},"properties":{"maxheight":"default"}},{"type":"Feature","geometry":{"type":"Point","coordinates":[13.6205373,53.5534306]},"properties":{"maxheight":"default"}},{"type":"Feature","geometry":{"type":"Point","coordinates":[13.5385063,53.5540958]},"properties":{"maxheight":"default"}},{"type":"Feature","geometry":{"type":"Point","coordinates":[13.7615645,53.5281805]},"properties":{"maxheight":"default"}},{"type":"Feature","geometry":{"type":"Point","coordinates":[13.9759505,53.362135]},"properties":{"maxheight":"default"}},{"type":"Feature","geometry":{"type":"Point","coordinates":[13.9558148,53.4718616]},"properties":{"maxheight":"default"}},{"type":"Feature","geometry":{"type":"Point","coordinates":[13.2607463,53.5656183]},"properties":{"hgv":"no"}},{"type":"Feature","geometry":{"type":"Point","coordinates":[13.2528079,53.5639736]},"properties":{"maxheight":"4.5"}},{"type":"Feature","geometry":{"type":"Point","coordinates":[13.2528186,53.5628136]},"properties":{"maxheight":"4.5"}},{"type":"Feature","geometry":{"type":"Point","coordinates":[13.2528281,53.5631934]},"properties":{"maxheight":"4.5"}},{"type":"Feature","geometry":{"type":"Point","coordinates":[13.2771012,53.5690214]},"properties":{"maxweight":"7.5 t"}},{"type":"Feature","geometry":{"type":"Point","coordinates":[13.1426439,53.1844697]},"properties":{"maxlength":"10"}},{"type":"Feature","geometry":{"type":"Point","coordinates":[13.6837543,53.8546406]},"properties":{"maxweight":"7.5"}},{"type":"Feature","geometry":{"type":"Point","coordinates":[13.6871263,53.8504192]},"properties":{"hgv":"no"}},{"type":"Feature","geometry":{"type":"Point","coordinates":[13.2475185,53.5669043]},"properties":{"maxweight":"5"}},{"type":"Feature","geometry":{"type":"Point","coordinates":[13.2514798,53.5676512]},"properties":{"maxweight":"2.5"}},{"type":"Feature","geometry":{"type":"Point","coordinates":[13.1704603,53.0057855]},"properties":{"hgv":"delivery"}},{"type":"Feature","geometry":{"type":"Point","coordinates":[13.1701931,53.0032005]},"properties":{"hgv":"no"}},{"type":"Feature","geometry":{"type":"Point","coordinates":[13.1693959,53.0041529]},"properties":{"hgv":"delivery"}},{"type":"Feature","geometry":{"type":"Point","coordinates":[13.0503396,53.0377937]},"properties":{"hgv":"agricultural;destination"}},{"type":"Feature","geometry":{"type":"Point","coordinates":[13.0504638,53.0390875]},"properties":{"hgv":"agricultural;destination"}},{"type":"Feature","geometry":{"type":"Point","coordinates":[13.0513805,53.0383285]},"properties":{"hgv":"agricultural;destination"}},{"type":"Feature","geometry":{"type":"Point","coordinates":[13.2557849,53.6926926]},"properties":{"maxweight":"7.5"}},{"type":"Feature","geometry":{"type":"Point","coordinates":[13.687363,53.8547354]},"properties":{"goods":"permissive"}},{"type":"Feature","geometry":{"type":"Point","coordinates":[13.2414451,53.2563294]},"properties":{"maxwidth":"3","maxweight":"6"}},{"type":"Feature","geometry":{"type":"Point","coordinates":[13.0871175,53.3319602]},"properties":{"maxlength":"12"}},{"type":"Feature","geometry":{"type":"Point","coordinates":[13.7435297,53.1618061]},"properties":{"hgv":"no"}},{"type":"Feature","geometry":{"type":"Point","coordinates":[13.7064078,53.847316]},"properties":{"hgv":"no","goods":"yes"}},{"type":"Feature","geometry":{"type":"Point","coordinates":[13.6948671,53.8560692]},"properties":{"hgv":"no"}},{"type":"Feature","geometry":{"type":"Point","coordinates":[13.6863438,53.8521591]},"properties":{"maxweight":"7.5"}},{"type":"Feature","geometry":{"type":"Point","coordinates":[13.2775815,53.5680783]},"properties":{"maxweight":"3"}},{"type":"Feature","geometry":{"type":"Point","coordinates":[13.6054016,53.0501342]},"properties":{"maxweight":"7.5"}},{"type":"Feature","geometry":{"type":"Point","coordinates":[13.6122421,53.0527187]},"properties":{"maxweight":"5.5"}},{"type":"Feature","geometry":{"type":"Point","coordinates":[13.0422609,53.8996375]},"properties":{"maxweight":"44"}},{"type":"Feature","geometry":{"type":"Point","coordinates":[13.0653542,53.3598594]},"properties":{"hgv":"no"}},{"type":"Feature","geometry":{"type":"Point","coordinates":[13.0246437,53.4508897]},"properties":{"maxweight":"7.5"}},{"type":"Feature","geometry":{"type":"Point","coordinates":[13.6961976,53.8558197]},"properties":{"maxweight":"7.5"}},{"type":"Feature","geometry":{"type":"Point","coordinates":[13.0510622,53.3749691]},"properties":{"hgv":"delivery"}},{"type":"Feature","geometry":{"type":"Point","coordinates":[13.1448868,53.1843591]},"properties":{"maxlength":"10"}},{"type":"Feature","geometry":{"type":"Point","coordinates":[13.8162785,53.8368969]},"properties":{"maxweight":"30"}},{"type":"Feature","geometry":{"type":"Point","coordinates":[13.4420776,53.3246206]},"properties":{"hgv":"no"}},{"type":"Feature","geometry":{"type":"Point","coordinates":[13.2559857,53.5512186]},"properties":{"hgv":"no","maxweight":"3.5"}},{"type":"Feature","geometry":{"type":"Point","coordinates":[13.2408013,53.2574566]},"properties":{"goods":"yes"}},{"type":"Feature","geometry":{"type":"Point","coordinates":[13.5011545,53.1225342]},"properties":{"maxweight":"7.5"}},{"type":"Feature","geometry":{"type":"Point","coordinates":[13.4955546,53.1205834]},"properties":{"maxweight":"7.5"}},{"type":"Feature","geometry":{"type":"Point","coordinates":[13.0939554,53.3557117]},"properties":{"hgv":"no"}},{"type":"Feature","geometry":{"type":"Point","coordinates":[13.9920267,53.5647073]},"properties":{"maxweight":"7.5"}},{"type":"Feature","geometry":{"type":"Point","coordinates":[13.1955702,53.5757108]},"properties":{"maxweight":"9"}},{"type":"Feature","geometry":{"type":"Point","coordinates":[13.3528958,53.2936623]},"properties":{"hgv":"no"}},{"type":"Feature","geometry":{"type":"Point","coordinates":[13.8184695,53.8369156]},"properties":{"maxweight":"30"}},{"type":"Feature","geometry":{"type":"Point","coordinates":[13.8183735,53.8369267]},"properties":{"maxweight":"30"}},{"type":"Feature","geometry":{"type":"Point","coordinates":[13.9006598,53.1517741]},"properties":{"maxheight":"default"}},{"type":"Feature","geometry":{"type":"Point","coordinates":[13.1860018,53.0798927]},"properties":{"goods":"no"}},{"type":"Feature","geometry":{"type":"Point","coordinates":[13.3339291,53.8542625]},"properties":{"hgv":"designated"}},{"type":"Feature","geometry":{"type":"Point","coordinates":[13.0105383,53.9050649]},"properties":{"hgv":"no"}},{"type":"Feature","geometry":{"type":"Point","coordinates":[13.1413773,53.1906123]},"properties":{"maxheight":"4"}},{"type":"Feature","geometry":{"type":"Point","coordinates":[13.6033488,53.9687012]},"properties":{"hgv":"destination"}},{"type":"Feature","geometry":{"type":"Point","coordinates":[13.5895202,53.9707048]},"properties":{"hgv":"destination"}},{"type":"Feature","geometry":{"type":"Point","coordinates":[13.5851311,53.9711251]},"properties":{"hgv":"destination"}},{"type":"Feature","geometry":{"type":"Point","coordinates":[13.5801369,53.9715698]},"properties":{"hgv":"destination"}},{"type":"Feature","geometry":{"type":"Point","coordinates":[13.492747,53.9516155]},"properties":{"maxweight":"5"}},{"type":"Feature","geometry":{"type":"Point","coordinates":[13.4885711,53.9463541]},"properties":{"maxweight":"7.5"}},{"type":"Feature","geometry":{"type":"Point","coordinates":[13.4174545,53.9357426]},"properties":{"hgv":"no"}},{"type":"Feature","geometry":{"type":"Point","coordinates":[13.4920615,53.9153292]},"properties":{"maxweight":"7.5"}},{"type":"Feature","geometry":{"type":"Point","coordinates":[13.6725524,53.8867691]},"properties":{"maxweight":"7.5"}},{"type":"Feature","geometry":{"type":"Point","coordinates":[13.7085982,53.8476344]},"properties":{"hgv":"no","goods":"yes"}},{"type":"Feature","geometry":{"type":"Point","coordinates":[13.7563316,53.7945105]},"properties":{"maxweight":"15"}},{"type":"Feature","geometry":{"type":"Point","coordinates":[13.8104041,53.8065616]},"properties":{"maxweight":"18"}},{"type":"Feature","geometry":{"type":"Point","coordinates":[13.8149747,53.8089053]},"properties":{"maxweight":"18"}},{"type":"Feature","geometry":{"type":"Point","coordinates":[13.6598144,53.8492923]},"properties":{"maxheight":"default"}},{"type":"Feature","geometry":{"type":"Point","coordinates":[13.6654208,53.8526111]},"properties":{"hgv":"no"}},{"type":"Feature","geometry":{"type":"Point","coordinates":[13.6727817,53.851662]},"properties":{"hgv":"no"}},{"type":"Feature","geometry":{"type":"Point","coordinates":[13.7927816,53.9856855]},"properties":{"maxweight":"7.5"}},{"type":"Feature","geometry":{"type":"Point","coordinates":[13.825374,53.9714302]},"properties":{"maxweight":"1.5"}},{"type":"Feature","geometry":{"type":"Point","coordinates":[13.8262458,53.9700382]},"properties":{"maxweight":"7.5"}},{"type":"Feature","geometry":{"type":"Point","coordinates":[13.8530028,53.9507089]},"properties":{"maxweight":"7.5"}},{"type":"Feature","geometry":{"type":"Point","coordinates":[13.9745521,53.3565365]},"properties":{"maxweight":"none"}},{"type":"Feature","geometry":{"type":"Point","coordinates":[13.9745807,53.3559663]},"properties":{"maxheight":"default"}},{"type":"Feature","geometry":{"type":"Point","coordinates":[13.9855265,53.293743]},"properties":{"maxheight":"default"}},{"type":"Feature","geometry":{"type":"Point","coordinates":[13.9933157,53.2334036]},"properties":{"maxheight":"default"}},{"type":"Feature","geometry":{"type":"Point","coordinates":[13.083051,53.0673119]},"properties":{"hgv":"destination"}},{"type":"Feature","geometry":{"type":"Point","coordinates":[13.2822346,53.4571644]},"properties":{"maxweight":"16 t"}},{"type":"Feature","geometry":{"type":"Point","coordinates":[13.080911,53.0544679]},"properties":{"hgv":"agricultural;destination"}},{"type":"Feature","geometry":{"type":"Point","coordinates":[13.2604906,53.5188778]},"properties":{"maxheight":"2.80"}},{"type":"Feature","geometry":{"type":"Point","coordinates":[13.2862118,53.0892989]},"properties":{"maxweight":"7.5"}},{"type":"Feature","geometry":{"type":"Point","coordinates":[13.8694547,53.320466]},"properties":{"maxweight":"2.8"}},{"type":"Feature","geometry":{"type":"Point","coordinates":[13.8467171,53.3106195]},"properties":{"maxweight":"7.5"}},{"type":"Feature","geometry":{"type":"Point","coordinates":[13.8569872,53.321258]},"properties":{"maxweight":"2.8"}},{"type":"Feature","geometry":{"type":"Point","coordinates":[13.8547675,53.3214291]},"properties":{"maxweight":"2.8"}},{"type":"Feature","geometry":{"type":"Point","coordinates":[13.0584112,53.3635708]},"properties":{"maxlength":"10 m"}},{"type":"Feature","geometry":{"type":"Point","coordinates":[13.5780408,53.4633468]},"properties":{"hgv":"no"}},{"type":"Feature","geometry":{"type":"Point","coordinates":[13.5839516,53.459084]},"properties":{"hgv":"no","goods":"no"}},{"type":"Feature","geometry":{"type":"Point","coordinates":[13.3785018,53.3546936]},"properties":{"hgv":"agricultural"}},{"type":"Feature","geometry":{"type":"Point","coordinates":[13.6812158,53.8508476]},"properties":{"hgv":"no"}},{"type":"Feature","geometry":{"type":"Point","coordinates":[13.0250829,53.0680392]},"properties":{"hgv":"no","maxweight":"3.5"}},{"type":"Feature","geometry":{"type":"Point","coordinates":[13.19395,53.2467396]},"properties":{"hgv":"no"}},{"type":"Feature","geometry":{"type":"Point","coordinates":[13.1974838,53.247891]},"properties":{"maxweight":"5.5"}},{"type":"Feature","geometry":{"type":"Point","coordinates":[13.6408275,53.1116075]},"properties":{"maxweight":"7.5"}},{"type":"Feature","geometry":{"type":"Point","coordinates":[13.0287593,53.8996448]},"properties":{"maxweight":"1.5"}},{"type":"Feature","geometry":{"type":"Point","coordinates":[13.2634877,53.556801]},"properties":{"maxheight":"2.6"}},{"type":"Feature","geometry":{"type":"Point","coordinates":[13.7117462,53.854028]},"properties":{"hgv":"delivery"}},{"type":"Feature","geometry":{"type":"Point","coordinates":[13.2707293,53.8291496]},"properties":{"maxweight":"5.5"}},{"type":"Feature","geometry":{"type":"Point","coordinates":[13.283503,53.7975985]},"properties":{"maxweight":"5.5"}},{"type":"Feature","geometry":{"type":"Point","coordinates":[13.2636298,53.8143288]},"properties":{"maxweight":"5.5"}},{"type":"Feature","geometry":{"type":"Point","coordinates":[13.50647,53.9900887]},"properties":{"maxweight":"5.5"}},{"type":"Feature","geometry":{"type":"Point","coordinates":[13.0252066,53.9543274]},"properties":{"maxweight":"6"}},{"type":"Feature","geometry":{"type":"Point","coordinates":[13.6928402,53.8821244]},"properties":{"maxheight":"default"}},{"type":"Feature","geometry":{"type":"Point","coordinates":[13.0776306,53.3474215]},"properties":{"goods":"yes"}},{"type":"Feature","geometry":{"type":"Point","coordinates":[13.4285487,53.3424011]},"properties":{"maxweight":"2.8"}},{"type":"Feature","geometry":{"type":"Point","coordinates":[13.4435398,53.3265514]},"properties":{"goods":"yes"}},{"type":"Feature","geometry":{"type":"Point","coordinates":[13.0726232,53.3683473]},"properties":{"hgv":"no"}},{"type":"Feature","geometry":{"type":"Point","coordinates":[13.6237932,53.6144235]},"properties":{"hgv":"no"}},{"type":"Feature","geometry":{"type":"Point","coordinates":[13.645773,53.6195164]},"properties":{"hgv":"no"}},{"type":"Feature","geometry":{"type":"Point","coordinates":[13.3923597,53.0741722]},"properties":{"maxweight":"16"}},{"type":"Feature","geometry":{"type":"Point","coordinates":[13.6614966,53.8530602]},"properties":{"maxheight":"default"}},{"type":"Feature","geometry":{"type":"Point","coordinates":[13.6827362,53.8402434]},"properties":{"hgv":"no"}},{"type":"Feature","geometry":{"type":"Point","coordinates":[13.685523,53.8452729]},"properties":{"hgv":"delivery"}},{"type":"Feature","geometry":{"type":"Point","coordinates":[13.9474024,53.3163346]},"properties":{"maxweight":"7.5"}},{"type":"Feature","geometry":{"type":"Point","coordinates":[13.6866559,53.8480544]},"properties":{"hgv":"no"}},{"type":"Feature","geometry":{"type":"Point","coordinates":[13.4962904,53.1214307]},"properties":{"maxweight":"7.5"}},{"type":"Feature","geometry":{"type":"Point","coordinates":[13.7113099,53.8431527]},"properties":{"hgv":"no"}},{"type":"Feature","geometry":{"type":"Point","coordinates":[13.6677531,53.850947]},"properties":{"hgv":"no"}},{"type":"Feature","geometry":{"type":"Point","coordinates":[13.6678438,53.8491813]},"properties":{"hgv":"no"}},{"type":"Feature","geometry":{"type":"Point","coordinates":[13.6675916,53.8499305]},"properties":{"hgv":"no"}},{"type":"Feature","geometry":{"type":"Point","coordinates":[13.6699338,53.8498226]},"properties":{"hgv":"no"}},{"type":"Feature","geometry":{"type":"Point","coordinates":[13.5232007,53.4870886]},"properties":{"hgv":"agricultural"}},{"type":"Feature","geometry":{"type":"Point","coordinates":[13.9936629,53.6297255]},"properties":{"maxlength":"6"}},{"type":"Feature","geometry":{"type":"Point","coordinates":[13.6430733,53.5187359]},"properties":{"hgv":"yes"}},{"type":"Feature","geometry":{"type":"Point","coordinates":[13.0318185,53.3206842]},"properties":{"maxwidth":"5.34","maxlength":"43,15"}},{"type":"Feature","geometry":{"type":"Point","coordinates":[13.315009,53.2089187]},"properties":{"hgv":"no","goods":"no"}},{"type":"Feature","geometry":{"type":"Point","coordinates":[13.3198171,53.2031399]},"properties":{"hgv":"no"}},{"type":"Feature","geometry":{"type":"Point","coordinates":[13.0586691,53.8498747]},"properties":{"maxweight":"5.5"}},{"type":"Feature","geometry":{"type":"Point","coordinates":[13.7501823,53.1640865]},"properties":{"hgv":"no"}},{"type":"Feature","geometry":{"type":"Point","coordinates":[13.7486811,53.1702129]},"properties":{"hgv":"no"}},{"type":"Feature","geometry":{"type":"Point","coordinates":[13.2582052,53.6957275]},"properties":{"maxheight":"1.80"}},{"type":"Feature","geometry":{"type":"Point","coordinates":[13.1248687,53.8920775]},"properties":{"maxweight":"5.5"}},{"type":"Feature","geometry":{"type":"Point","coordinates":[13.9492289,53.2044648]},"properties":{"maxheight":"default"}},{"type":"Feature","geometry":{"type":"Point","coordinates":[13.3139742,53.4467809]},"properties":{"maxweight":"16 t"}},{"type":"Feature","geometry":{"type":"Point","coordinates":[13.9976011,53.2359185]},"properties":{"maxheight":"default"}},{"type":"Feature","geometry":{"type":"Point","coordinates":[13.7194642,53.0522894]},"properties":{"hgv":"no"}},{"type":"Feature","geometry":{"type":"Point","coordinates":[13.7488678,53.0544336]},"properties":{"hgv":"no"}},{"type":"Feature","geometry":{"type":"Point","coordinates":[13.706268,53.0583244]},"properties":{"hgv":"no"}},{"type":"Feature","geometry":{"type":"Point","coordinates":[13.3896228,53.2685672]},"properties":{"hgv":"no"}},{"type":"Feature","geometry":{"type":"Point","coordinates":[13.6255155,53.0508693]},"properties":{"maxweight":"5.5"}},{"type":"Feature","geometry":{"type":"Point","coordinates":[13.2018111,53.2847515]},"properties":{"hgv":"no"}},{"type":"Feature","geometry":{"type":"Point","coordinates":[13.3855512,53.2678517]},"properties":{"hgv":"no"}},{"type":"Feature","geometry":{"type":"Point","coordinates":[13.990561,53.3058832]},"properties":{"maxheight":"default"}},{"type":"Feature","geometry":{"type":"Point","coordinates":[13.1400169,53.9767247]},"properties":{"hgv":"no"}},{"type":"Feature","geometry":{"type":"Point","coordinates":[13.4966649,53.1128207]},"properties":{"hgv":"no"}},{"type":"Feature","geometry":{"type":"Point","coordinates":[13.3534252,53.9130436]},"properties":{"maxheight":"default"}},{"type":"Feature","geometry":{"type":"Point","coordinates":[13.2927514,53.2556952]},"properties":{"maxweight":"12"}},{"type":"Feature","geometry":{"type":"Point","coordinates":[13.9800311,53.0707631]},"properties":{"maxweight":"15.5"}},{"type":"Feature","geometry":{"type":"Point","coordinates":[13.1449459,53.1837096]},"properties":{"maxlength":"10"}},{"type":"Feature","geometry":{"type":"Point","coordinates":[13.1437321,53.184695]},"properties":{"maxlength":"10"}},{"type":"Feature","geometry":{"type":"Point","coordinates":[13.1448231,53.1838119]},"properties":{"maxlength":"10"}},{"type":"Feature","geometry":{"type":"Point","coordinates":[13.4331532,53.3293533]},"properties":{"maxweight":"12"}},{"type":"Feature","geometry":{"type":"Point","coordinates":[13.7119463,53.8491007]},"properties":{"hgv":"no","goods":"yes"}},{"type":"Feature","geometry":{"type":"Point","coordinates":[13.7140959,53.8454264]},"properties":{"hgv":"no"}},{"type":"Feature","geometry":{"type":"Point","coordinates":[13.7075049,53.8469401]},"properties":{"hgv":"no"}},{"type":"Feature","geometry":{"type":"Point","coordinates":[13.706755,53.8465965]},"properties":{"hgv":"no"}},{"type":"Feature","geometry":{"type":"Point","coordinates":[13.8631629,53.4833276]},"properties":{"maxweight":"7.5"}},{"type":"Feature","geometry":{"type":"Point","coordinates":[13.5778829,53.4595833]},"properties":{"hgv":"no"}},{"type":"Feature","geometry":{"type":"Point","coordinates":[13.5808162,53.456827]},"properties":{"hgv":"no"}},{"type":"Feature","geometry":{"type":"Point","coordinates":[13.667329,53.8519648]},"properties":{"hgv":"no"}},{"type":"Feature","geometry":{"type":"Point","coordinates":[13.0874052,53.5469672]},"properties":{"maxweight":"7.5"}},{"type":"Feature","geometry":{"type":"Point","coordinates":[13.7400622,53.769834]},"properties":{"maxweight":"7.5"}},{"type":"Feature","geometry":{"type":"Point","coordinates":[13.8358682,53.5189544]},"properties":{"maxheight":"default"}},{"type":"Feature","geometry":{"type":"Point","coordinates":[13.8082557,53.5179716]},"properties":{"maxheight":"default"}},{"type":"Feature","geometry":{"type":"Point","coordinates":[13.7404178,53.2862198]},"properties":{"hgv":"no"}},{"type":"Feature","geometry":{"type":"Point","coordinates":[13.6518295,53.0127861]},"properties":{"maxweight":"2.8"}},{"type":"Feature","geometry":{"type":"Point","coordinates":[13.7173323,53.1916557]},"properties":{"maxweight":"7.5"}},{"type":"Feature","geometry":{"type":"Point","coordinates":[13.2974649,53.8367511]},"properties":{"maxweight":"5.5"}},{"type":"Feature","geometry":{"type":"Point","coordinates":[13.362486,53.5524046]},"properties":{"maxweight":"16"}},{"type":"Feature","geometry":{"type":"Point","coordinates":[13.1413935,53.724158]},"properties":{"hgv":"delivery"}},{"type":"Feature","geometry":{"type":"Point","coordinates":[13.8521929,53.683416]},"properties":{"maxweight":"7.5"}},{"type":"Feature","geometry":{"type":"Point","coordinates":[13.3173538,53.7905302]},"properties":{"maxweight":"16"}},{"type":"Feature","geometry":{"type":"Point","coordinates":[13.9848876,53.5098984]},"properties":{"maxweight":"12"}},{"type":"Feature","geometry":{"type":"Point","coordinates":[13.8359399,53.7776903]},"properties":{"maxweight":"12.5"}},{"type":"Feature","geometry":{"type":"Point","coordinates":[13.7168835,53.8346805]},"properties":{"maxheight":"default"}},{"type":"Feature","geometry":{"type":"Point","coordinates":[13.3395511,53.4431149]},"properties":{"maxweight":"5.5"}},{"type":"Feature","geometry":{"type":"Point","coordinates":[13.3655989,53.4024657]},"properties":{"hgv":"no"}},{"type":"Feature","geometry":{"type":"Point","coordinates":[13.689746,53.8513903]},"properties":{"goods":"destination"}},{"type":"Feature","geometry":{"type":"Point","coordinates":[13.0288397,53.5301056]},"properties":{"maxweight":"12"}},{"type":"Feature","geometry":{"type":"Point","coordinates":[13.6927616,53.855185]},"properties":{"maxweight":"7.5"}},{"type":"Feature","geometry":{"type":"Point","coordinates":[13.7419133,53.9059549]},"properties":{"maxweight":"7.5"}},{"type":"Feature","geometry":{"type":"Point","coordinates":[13.0267824,53.254477]},"properties":{"maxweight":"12"}},{"type":"Feature","geometry":{"type":"Point","coordinates":[13.9849423,53.3341255]},"properties":{"maxheight":"default"}},{"type":"Feature","geometry":{"type":"Point","coordinates":[13.9394341,53.0319512]},"properties":{"maxweight":"5.5"}},{"type":"Feature","geometry":{"type":"Point","coordinates":[13.5309855,53.2569436]},"properties":{"hgv":"no"}},{"type":"Feature","geometry":{"type":"Point","coordinates":[13.6035896,53.2292835]},"properties":{"maxweight":"20 t"}},{"type":"Feature","geometry":{"type":"Point","coordinates":[13.5454176,53.1477932]},"properties":{"hgv":"no"}},{"type":"Feature","geometry":{"type":"Point","coordinates":[13.5441578,53.1353742]},"properties":{"hgv":"no"}},{"type":"Feature","geometry":{"type":"Point","coordinates":[13.5675918,53.1306096]},"properties":{"hgv":"no"}},{"type":"Feature","geometry":{"type":"Point","coordinates":[13.6929799,53.8553251]},"properties":{"maxweight":"7.5"}},{"type":"Feature","geometry":{"type":"Point","coordinates":[13.7214076,53.19016]},"properties":{"maxweight":"7.5"}},{"type":"Feature","geometry":{"type":"Point","coordinates":[13.265427,53.5652447]},"properties":{"maxheight":"below_default"}},{"type":"Feature","geometry":{"type":"Point","coordinates":[13.2299766,53.1772216]},"properties":{"maxwidth":"5.4","maxlength":"41.50"}},{"type":"Feature","geometry":{"type":"Point","coordinates":[13.4322036,53.3464165]},"properties":{"hgv":"no"}},{"type":"Feature","geometry":{"type":"Point","coordinates":[13.6897716,53.189926]},"properties":{"maxweight":"7.5"}},{"type":"Feature","geometry":{"type":"Point","coordinates":[13.8462203,53.079305]},"properties":{"maxheight":"default"}},{"type":"Feature","geometry":{"type":"Point","coordinates":[13.9700179,53.2187188]},"properties":{"maxheight":"default"}},{"type":"Feature","geometry":{"type":"Point","coordinates":[13.16043,53.8899789]},"properties":{"maxweight":"5.5"}},{"type":"Feature","geometry":{"type":"Point","coordinates":[13.2647079,53.5517262]},"properties":{"hgv":"designated"}},{"type":"Feature","geometry":{"type":"Point","coordinates":[13.848877,53.3125546]},"properties":{"maxweight":"7.5"}},{"type":"Feature","geometry":{"type":"Point","coordinates":[13.7121661,53.840146]},"properties":{"hgv":"delivery"}},{"type":"Feature","geometry":{"type":"Point","coordinates":[13.7128576,53.841019]},"properties":{"hgv":"delivery"}},{"type":"Feature","geometry":{"type":"Point","coordinates":[13.6787538,53.8355489]},"properties":{"maxweight":"7.5"}},{"type":"Feature","geometry":{"type":"Point","coordinates":[13.7121343,53.1685407]},"properties":{"maxweight":"3.8"}},{"type":"Feature","geometry":{"type":"Point","coordinates":[13.9754762,53.3477883]},"properties":{"maxheight":"default"}},{"type":"Feature","geometry":{"type":"Point","coordinates":[13.2835557,53.5722664]},"properties":{"hgv":"designated"}},{"type":"Feature","geometry":{"type":"Point","coordinates":[13.2507477,53.6953956]},"properties":{"maxheight":"3.2"}},{"type":"Feature","geometry":{"type":"Point","coordinates":[13.0944476,53.3554097]},"properties":{"hgv":"no"}},{"type":"Feature","geometry":{"type":"Point","coordinates":[13.1020238,53.3287214]},"properties":{"maxweight":"1.5"}},{"type":"Feature","geometry":{"type":"Point","coordinates":[13.2540656,53.5585157]},"properties":{"maxweight":"16"}},{"type":"Feature","geometry":{"type":"Point","coordinates":[13.0927918,53.3376569]},"properties":{"maxlength":"10"}},{"type":"Feature","geometry":{"type":"Point","coordinates":[13.3964861,53.9885453]},"properties":{"maxweight":"5.5"}},{"type":"Feature","geometry":{"type":"Point","coordinates":[13.3665169,53.0823213]},"properties":{"maxwidth":"5.45","maxlength":"51.5"}},{"type":"Feature","geometry":{"type":"Point","coordinates":[13.2955702,53.1321943]},"properties":{"maxwidth":"5.5","maxlength":"43.6"}},{"type":"Feature","geometry":{"type":"Point","coordinates":[13.3388494,53.0973884]},"properties":{"maxwidth":"5.6","maxlength":"44.3"}},{"type":"Feature","geometry":{"type":"Point","coordinates":[13.293477,53.0512356]},"properties":{"maxwidth":"5.3","maxlength":"44"}},{"type":"Feature","geometry":{"type":"Point","coordinates":[13.2400963,53.1361702]},"properties":{"maxwidth":"6.5","maxlength":"53.5"}},{"type":"Feature","geometry":{"type":"Point","coordinates":[13.145832,53.1813075]},"properties":{"maxwidth":"5.30","maxlength":"42.90"}},{"type":"Feature","geometry":{"type":"Point","coordinates":[13.1075093,53.1918989]},"properties":{"maxwidth":"5.64","maxlength":"41.50"}},{"type":"Feature","geometry":{"type":"Point","coordinates":[13.3913054,53.0744899]},"properties":{"maxwidth":"5.3","maxlength":"41.5"}},{"type":"Feature","geometry":{"type":"Point","coordinates":[13.8405439,53.0626873]},"properties":{"maxheight":"default"}},{"type":"Feature","geometry":{"type":"Point","coordinates":[13.8402236,53.0622503]},"properties":{"maxheight":"default"}},{"type":"Feature","geometry":{"type":"Point","coordinates":[13.8337183,53.0419253]},"properties":{"maxheight":"default"}},{"type":"Feature","geometry":{"type":"Point","coordinates":[13.7785897,53.5197128]},"properties":{"hgv":"designated"}},{"type":"Feature","geometry":{"type":"Point","coordinates":[13.7793015,53.5204222]},"properties":{"hgv":"designated"}},{"type":"Feature","geometry":{"type":"Point","coordinates":[13.0341043,53.1391892]},"properties":{"hgv":"forestry"}},{"type":"Feature","geometry":{"type":"Point","coordinates":[13.7621097,53.9855121]},"properties":{"maxweight":"7.5"}},{"type":"Feature","geometry":{"type":"Point","coordinates":[13.9385636,53.0322062]},"properties":{"maxweight":"5.5"}},{"type":"Feature","geometry":{"type":"Point","coordinates":[13.1444931,53.1840546]},"properties":{"maxlength":"10"}},{"type":"Feature","geometry":{"type":"Point","coordinates":[13.819492,53.83688]},"properties":{"maxweight":"30"}},{"type":"Feature","geometry":{"type":"Point","coordinates":[13.3190375,53.9974379]},"properties":{"hgv":"designated"}},{"type":"Feature","geometry":{"type":"Point","coordinates":[13.3193179,53.9974617]},"properties":{"hgv":"designated"}},{"type":"Feature","geometry":{"type":"Point","coordinates":[13.3155437,53.9980171]},"properties":{"hgv":"designated"}},{"type":"Feature","geometry":{"type":"Point","coordinates":[13.3153404,53.998243]},"properties":{"hgv":"designated"}},{"type":"Feature","geometry":{"type":"Point","coordinates":[13.5342448,53.7865813]},"properties":{"hgv":"no"}},{"type":"Feature","geometry":{"type":"Point","coordinates":[13.6885764,53.8508315]},"properties":{"maxheight":"1.9"}},{"type":"Feature","geometry":{"type":"Point","coordinates":[13.9849466,53.4896578]},"properties":{"maxheight":"3.5"}},{"type":"Feature","geometry":{"type":"Point","coordinates":[13.0283855,53.8300472]},"properties":{"maxweight":"5.5"}},{"type":"Feature","geometry":{"type":"Point","coordinates":[13.6859107,53.8446665]},"properties":{"hgv":"no"}},{"type":"Feature","geometry":{"type":"Point","coordinates":[13.5093848,53.4138727]},"properties":{"maxweight":"7.5"}},{"type":"Feature","geometry":{"type":"Point","coordinates":[13.505706,53.426035]},"properties":{"maxweight":"7.5"}},{"type":"Feature","geometry":{"type":"Point","coordinates":[13.5427813,53.0884292]},"properties":{"maxweight":"9"}},{"type":"Feature","geometry":{"type":"Point","coordinates":[13.0891193,53.3314086]},"properties":{"maxlength":"12"}},{"type":"Feature","geometry":{"type":"Point","coordinates":[13.7564449,53.9845389]},"properties":{"hgv":"delivery"}},{"type":"Feature","geometry":{"type":"Point","coordinates":[13.0895578,53.3377689]},"properties":{"hgv":"no"}},{"type":"Feature","geometry":{"type":"Point","coordinates":[13.1952376,53.5764106]},"properties":{"maxweight":"9"}},{"type":"Feature","geometry":{"type":"Point","coordinates":[13.8519413,53.5152586]},"properties":{"maxheight":"default"}},{"type":"Feature","geometry":{"type":"Point","coordinates":[13.6769156,53.5487057]},"properties":{"maxheight":"default"}},{"type":"Feature","geometry":{"type":"Point","coordinates":[13.88487,53.5077641]},"properties":{"maxheight":"default"}},{"type":"Feature","geometry":{"type":"Point","coordinates":[13.6478788,53.5535707]},"properties":{"maxheight":"default"}},{"type":"Feature","geometry":{"type":"Point","coordinates":[13.863226,53.4869306]},"properties":{"maxweight":"7.5"}},{"type":"Feature","geometry":{"type":"Point","coordinates":[13.7102387,53.8862473]},"properties":{"hgv":"no"}},{"type":"Feature","geometry":{"type":"Point","coordinates":[13.9901429,53.5049841]},"properties":{"maxheight":"3.5"}},{"type":"Feature","geometry":{"type":"Point","coordinates":[13.9871724,53.5015327]},"properties":{"maxheight":"below_default"}},{"type":"Feature","geometry":{"type":"Point","coordinates":[13.1724584,53.5457994]},"properties":{"maxweight":"7.5"}},{"type":"Feature","geometry":{"type":"Point","coordinates":[13.3924746,53.074023]},"properties":{"maxweight":"16"}},{"type":"Feature","geometry":{"type":"Point","coordinates":[13.392573,53.0739147]},"properties":{"maxweight":"16"}},{"type":"Feature","geometry":{"type":"Point","coordinates":[13.3016964,53.2129365]},"properties":{"hgv":"delivery"}},{"type":"Feature","geometry":{"type":"Point","coordinates":[13.3019428,53.2134088]},"properties":{"hgv":"delivery"}},{"type":"Feature","geometry":{"type":"Point","coordinates":[13.9874154,53.5084908]},"properties":{"maxheight":"3.9"}},{"type":"Feature","geometry":{"type":"Point","coordinates":[13.7921965,53.7612033]},"properties":{"maxweight":"15"}},{"type":"Feature","geometry":{"type":"Point","coordinates":[13.5378884,53.2584937]},"properties":{"hgv":"no"}},{"type":"Feature","geometry":{"type":"Point","coordinates":[13.4994751,53.117289]},"properties":{"maxweight":"7.5"}},{"type":"Feature","geometry":{"type":"Point","coordinates":[13.2292635,53.1770179]},"properties":{"maxweight":"18"}},{"type":"Feature","geometry":{"type":"Point","coordinates":[13.0214563,53.2214042]},"properties":{"maxweight":"12.8"}},{"type":"Feature","geometry":{"type":"Point","coordinates":[13.5036349,53.1194326]},"properties":{"maxweight":"7.5"}},{"type":"Feature","geometry":{"type":"Point","coordinates":[13.3847587,53.5964211]},"properties":{"maxheight":"default"}},{"type":"Feature","geometry":{"type":"Point","coordinates":[13.4069333,53.9404186]},"properties":{"maxweight":"30"}},{"type":"Feature","geometry":{"type":"Point","coordinates":[13.5019079,53.1215761]},"properties":{"maxheight":"2"}},{"type":"Feature","geometry":{"type":"Point","coordinates":[13.144387,53.1814856]},"properties":{"maxweight":"16"}},{"type":"Feature","geometry":{"type":"Point","coordinates":[13.1203508,53.889603]},"properties":{"maxweight":"5.5"}},{"type":"Feature","geometry":{"type":"Point","coordinates":[13.8500011,53.0918281]},"properties":{"hgv":"designated"}},{"type":"Feature","geometry":{"type":"Point","coordinates":[13.8499286,53.0916025]},"properties":{"hgv":"designated"}},{"type":"Feature","geometry":{"type":"Point","coordinates":[13.9567804,53.2113188]},"properties":{"hgv":"no"}},{"type":"Feature","geometry":{"type":"Point","coordinates":[13.9567323,53.211094]},"properties":{"hgv":"no"}},{"type":"Feature","geometry":{"type":"Point","coordinates":[13.9572159,53.2110434]},"properties":{"hgv":"designated"}},{"type":"Feature","geometry":{"type":"Point","coordinates":[13.9574245,53.2117282]},"properties":{"hgv":"no"}},{"type":"Feature","geometry":{"type":"Point","coordinates":[13.9574813,53.2112102]},"properties":{"hgv":"designated"}},{"type":"Feature","geometry":{"type":"Point","coordinates":[13.9577449,53.211371]},"properties":{"hgv":"designated"}},{"type":"Feature","geometry":{"type":"Point","coordinates":[13.9565042,53.2111416]},"properties":{"hgv":"no"}},{"type":"Feature","geometry":{"type":"Point","coordinates":[13.9575913,53.2116287]},"properties":{"hgv":"no"}},{"type":"Feature","geometry":{"type":"Point","coordinates":[13.9567308,53.2107354]},"properties":{"hgv":"designated"}},{"type":"Feature","geometry":{"type":"Point","coordinates":[13.5869179,53.4603863]},"properties":{"hgv":"no","goods":"no"}},{"type":"Feature","geometry":{"type":"Point","coordinates":[13.0595426,53.0456872]},"properties":{"hgv":"agricultural;destination"}},{"type":"Feature","geometry":{"type":"Point","coordinates":[13.0572756,53.0433558]},"properties":{"hgv":"agricultural;destination"}},{"type":"Feature","geometry":{"type":"Point","coordinates":[13.9680951,53.0362106]},"properties":{"maxheight":"3.9"}},{"type":"Feature","geometry":{"type":"Point","coordinates":[13.1195701,53.0122081]},"properties":{"hgv":"agricultural;forestry"}},{"type":"Feature","geometry":{"type":"Point","coordinates":[13.0931933,53.3328312]},"properties":{"hgv":"no"}},{"type":"Feature","geometry":{"type":"Point","coordinates":[13.4771714,53.5659206]},"properties":{"maxheight":"default"}},{"type":"Feature","geometry":{"type":"Point","coordinates":[13.496428,53.5629068]},"properties":{"maxheight":"default"}},{"type":"Feature","geometry":{"type":"Point","coordinates":[13.4971934,53.5627315]},"properties":{"maxheight":"default"}},{"type":"Feature","geometry":{"type":"Point","coordinates":[13.9750994,53.3482661]},"properties":{"maxheight":"default"}},{"type":"Feature","geometry":{"type":"Point","coordinates":[13.9741457,53.3564822]},"properties":{"maxheight":"default"}},{"type":"Feature","geometry":{"type":"Point","coordinates":[13.9743277,53.3565954]},"properties":{"maxheight":"default"}},{"type":"Feature","geometry":{"type":"Point","coordinates":[13.9758163,53.3615081]},"properties":{"maxheight":"default"}},{"type":"Feature","geometry":{"type":"Point","coordinates":[13.992395,53.3916692]},"properties":{"maxheight":"default"}},{"type":"Feature","geometry":{"type":"Point","coordinates":[13.9919553,53.3909423]},"properties":{"maxheight":"default"}},{"type":"Feature","geometry":{"type":"Point","coordinates":[13.9943048,53.4364143]},"properties":{"maxheight":"default"}},{"type":"Feature","geometry":{"type":"Point","coordinates":[13.9636316,53.4643033]},"properties":{"maxheight":"default"}},{"type":"Feature","geometry":{"type":"Point","coordinates":[13.964306,53.4637288]},"properties":{"maxheight":"default"}},{"type":"Feature","geometry":{"type":"Point","coordinates":[13.9632513,53.464423]},"properties":{"maxheight":"default"}},{"type":"Feature","geometry":{"type":"Point","coordinates":[13.9647943,53.4634205]},"properties":{"maxheight":"default"}},{"type":"Feature","geometry":{"type":"Point","coordinates":[13.9252299,53.4876881]},"properties":{"maxheight":"default"}},{"type":"Feature","geometry":{"type":"Point","coordinates":[13.9158309,53.4936743]},"properties":{"maxheight":"default"}},{"type":"Feature","geometry":{"type":"Point","coordinates":[13.8829562,53.5084157]},"properties":{"maxheight":"default"}},{"type":"Feature","geometry":{"type":"Point","coordinates":[13.9106678,53.4970559]},"properties":{"maxheight":"default"}},{"type":"Feature","geometry":{"type":"Point","coordinates":[13.9917714,53.3071655]},"properties":{"maxheight":"default"}},{"type":"Feature","geometry":{"type":"Point","coordinates":[13.9872893,53.2884138]},"properties":{"maxheight":"default"}},{"type":"Feature","geometry":{"type":"Point","coordinates":[13.2736728,53.567384]},"properties":{"maxweight":"2.5 t"}},{"type":"Feature","geometry":{"type":"Point","coordinates":[13.9286444,53.4772613]},"properties":{"maxheight":"default"}},{"type":"Feature","geometry":{"type":"Point","coordinates":[13.2748397,53.5557571]},"properties":{"maxheight":"3.9"}},{"type":"Feature","geometry":{"type":"Point","coordinates":[13.2631972,53.5553727]},"properties":{"maxheight":"3"}},{"type":"Feature","geometry":{"type":"Point","coordinates":[13.2631109,53.5577796]},"properties":{"maxheight":"3.0"}},{"type":"Feature","geometry":{"type":"Point","coordinates":[13.2608249,53.5664527]},"properties":{"hgv":"no"}},{"type":"Feature","geometry":{"type":"Point","coordinates":[13.2607808,53.5677005]},"properties":{"hgv":"no"}},{"type":"Feature","geometry":{"type":"Point","coordinates":[13.2571205,53.5553666]},"properties":{"maxheight":"3"}},{"type":"Feature","geometry":{"type":"Point","coordinates":[13.2576573,53.5567258]},"properties":{"maxheight":"default"}},{"type":"Feature","geometry":{"type":"Point","coordinates":[13.2602345,53.5549642]},"properties":{"maxheight":"below_default"}},{"type":"Feature","geometry":{"type":"Point","coordinates":[13.2560944,53.5553481]},"properties":{"maxheight":"below_default"}},{"type":"Feature","geometry":{"type":"Point","coordinates":[13.2684496,53.5561918]},"properties":{"maxheight":"2"}},{"type":"Feature","geometry":{"type":"Point","coordinates":[13.258149,53.5553938]},"properties":{"maxheight":"3.2"}},{"type":"Feature","geometry":{"type":"Point","coordinates":[13.2631034,53.5568463]},"properties":{"maxheight":"3"}},{"type":"Feature","geometry":{"type":"Point","coordinates":[13.8456438,53.0780919]},"properties":{"maxheight":"default"}},{"type":"Feature","geometry":{"type":"Point","coordinates":[13.8508518,53.0933481]},"properties":{"maxheight":"default"}},{"type":"Feature","geometry":{"type":"Point","coordinates":[13.8515969,53.0950115]},"properties":{"maxheight":"default"}},{"type":"Feature","geometry":{"type":"Point","coordinates":[13.2569868,53.557165]},"properties":{"maxheight":"below_default"}},{"type":"Feature","geometry":{"type":"Point","coordinates":[13.6336935,53.6170694]},"properties":{"hgv":"no"}},{"type":"Feature","geometry":{"type":"Point","coordinates":[13.3846334,53.5963524]},"properties":{"maxheight":"default"}},{"type":"Feature","geometry":{"type":"Point","coordinates":[13.3494562,53.9043792]},"properties":{"maxheight":"default"}},{"type":"Feature","geometry":{"type":"Point","coordinates":[13.439169,53.3356779]},"properties":{"maxheight":"default"}},{"type":"Feature","geometry":{"type":"Point","coordinates":[13.949026,53.2044609]},"properties":{"maxheight":"default"}},{"type":"Feature","geometry":{"type":"Point","coordinates":[13.2866415,53.0968191]},"properties":{"maxweight":"7.5"}},{"type":"Feature","geometry":{"type":"Point","coordinates":[13.432571,53.5779124]},"properties":{"maxheight":"default"}},{"type":"Feature","geometry":{"type":"Point","coordinates":[13.1546582,53.257201]},"properties":{"hgv":"yes"}},{"type":"Feature","geometry":{"type":"Point","coordinates":[13.0200494,53.4484333]},"properties":{"maxweight":"7.5"}},{"type":"Feature","geometry":{"type":"Point","coordinates":[13.0260479,53.5200177]},"properties":{"maxwidth":"2.4"}},{"type":"Feature","geometry":{"type":"Point","coordinates":[13.7068683,53.5442701]},"properties":{"maxheight":"default"}},{"type":"Feature","geometry":{"type":"Point","coordinates":[13.760459,53.5286838]},"properties":{"maxheight":"default"}},{"type":"Feature","geometry":{"type":"Point","coordinates":[13.8311877,53.8372493]},"properties":{"maxweight":"30"}},{"type":"Feature","geometry":{"type":"Point","coordinates":[13.3495564,53.9305383]},"properties":{"maxheight":"default"}},{"type":"Feature","geometry":{"type":"Point","coordinates":[13.6934237,53.8554626]},"properties":{"maxweight":"7.5"}},{"type":"Feature","geometry":{"type":"Point","coordinates":[13.6935833,53.8574339]},"properties":{"hgv":"no"}},{"type":"Feature","geometry":{"type":"Point","coordinates":[13.9017008,53.1535288]},"properties":{"maxheight":"default"}},{"type":"Feature","geometry":{"type":"Point","coordinates":[13.329271,53.7095303]},"properties":{"maxheight":"default"}},{"type":"Feature","geometry":{"type":"Point","coordinates":[13.3302801,53.7112691]},"properties":{"maxheight":"default"}},{"type":"Feature","geometry":{"type":"Point","coordinates":[13.5670343,53.548311]},"properties":{"maxheight":"default"}},{"type":"Feature","geometry":{"type":"Point","coordinates":[13.5679501,53.5482772]},"properties":{"maxheight":"default"}},{"type":"Feature","geometry":{"type":"Point","coordinates":[13.3543823,53.6625566]},"properties":{"maxheight":"default"}},{"type":"Feature","geometry":{"type":"Point","coordinates":[13.325536,53.697798]},"properties":{"maxheight":"default"}},{"type":"Feature","geometry":{"type":"Point","coordinates":[13.4350586,53.577331]},"properties":{"maxheight":"default"}},{"type":"Feature","geometry":{"type":"Point","coordinates":[13.3493475,53.9044548]},"properties":{"maxheight":"default"}},{"type":"Feature","geometry":{"type":"Point","coordinates":[13.3532589,53.9130239]},"properties":{"maxheight":"default"}},{"type":"Feature","geometry":{"type":"Point","coordinates":[13.0729802,53.3566801]},"properties":{"maxheight":"default"}},{"type":"Feature","geometry":{"type":"Point","coordinates":[13.0853222,53.3718707]},"properties":{"maxheight":"2.5 m"}},{"type":"Feature","geometry":{"type":"Point","coordinates":[13.0134669,53.3715023]},"properties":{"hgv":"agricultural"}},{"type":"Feature","geometry":{"type":"Point","coordinates":[13.020937,53.372557]},"properties":{"hgv":"agricultural"}},{"type":"Feature","geometry":{"type":"Point","coordinates":[13.0082294,53.3617646]},"properties":{"hgv":"agricultural"}},{"type":"Feature","geometry":{"type":"Point","coordinates":[13.0100744,53.3693403]},"properties":{"hgv":"agricultural"}},{"type":"Feature","geometry":{"type":"Point","coordinates":[13.0100729,53.3655189]},"properties":{"hgv":"agricultural"}},{"type":"Feature","geometry":{"type":"Point","coordinates":[13.0102185,53.369429]},"properties":{"hgv":"agricultural"}},{"type":"Feature","geometry":{"type":"Point","coordinates":[13.0080015,53.3615843]},"properties":{"hgv":"agricultural"}},{"type":"Feature","geometry":{"type":"Point","coordinates":[13.020936,53.373462]},"properties":{"hgv":"agricultural"}},{"type":"Feature","geometry":{"type":"Point","coordinates":[13.0207349,53.3715603]},"properties":{"hgv":"agricultural"}},{"type":"Feature","geometry":{"type":"Point","coordinates":[13.4939608,53.1232221]},"properties":{"maxweight":"15"}},{"type":"Feature","geometry":{"type":"Point","coordinates":[13.6842331,53.8362832]},"properties":{"maxheight":"default"}},{"type":"Feature","geometry":{"type":"Point","coordinates":[13.7008725,53.8340075]},"properties":{"maxheight":"default"}},{"type":"Feature","geometry":{"type":"Point","coordinates":[13.0936075,53.3328372]},"properties":{"hgv":"no"}},{"type":"Feature","geometry":{"type":"Point","coordinates":[13.6428067,53.0101599]},"properties":{"maxweight":"2.8"}},{"type":"Feature","geometry":{"type":"Point","coordinates":[13.6512748,53.0127576]},"properties":{"maxweight":"2.8"}},{"type":"Feature","geometry":{"type":"Point","coordinates":[13.0327103,53.3213906]},"properties":{"maxweight":"16"}},{"type":"Feature","geometry":{"type":"Point","coordinates":[13.8111837,53.8073888]},"properties":{"maxweight":"18"}},{"type":"Feature","geometry":{"type":"Point","coordinates":[13.6326042,53.6170703]},"properties":{"hgv":"no"}},{"type":"Feature","geometry":{"type":"Point","coordinates":[13.8509501,53.0922231]},"properties":{"hgv":"designated"}},{"type":"Feature","geometry":{"type":"Point","coordinates":[13.9677497,53.2163573]},"properties":{"hgv":"no"}},{"type":"Feature","geometry":{"type":"Point","coordinates":[13.9667567,53.2161375]},"properties":{"hgv":"designated"}},{"type":"Feature","geometry":{"type":"Point","coordinates":[13.3477395,53.9218881]},"properties":{"maxheight":"3.1"}},{"type":"Feature","geometry":{"type":"Point","coordinates":[13.9943807,53.4359015]},"properties":{"maxheight":"default"}},{"type":"Feature","geometry":{"type":"Point","coordinates":[13.3324164,53.8502242]},"properties":{"maxheight":"default"}},{"type":"Feature","geometry":{"type":"Point","coordinates":[13.347562,53.8744197]},"properties":{"maxheight":"default"}},{"type":"Feature","geometry":{"type":"Point","coordinates":[13.3218203,53.807002]},"properties":{"maxheight":"default"}},{"type":"Feature","geometry":{"type":"Point","coordinates":[13.3695644,53.6374748]},"properties":{"maxheight":"default"}},{"type":"Feature","geometry":{"type":"Point","coordinates":[13.5849496,53.4595228]},"properties":{"hgv":"no","goods":"no"}},{"type":"Feature","geometry":{"type":"Point","coordinates":[13.1525665,53.0072511]},"properties":{"hgv":"delivery","maxheight":"3.6"}},{"type":"Feature","geometry":{"type":"Point","coordinates":[13.635167,53.0069857]},"properties":{"maxweight":"2.8"}},{"type":"Feature","geometry":{"type":"Point","coordinates":[13.0214613,53.197888]},"properties":{"maxweight":"8"}},{"type":"Feature","geometry":{"type":"Point","coordinates":[13.830617,53.3068097]},"properties":{"maxheight":"default"}},{"type":"Feature","geometry":{"type":"Point","coordinates":[13.8306793,53.3067769]},"properties":{"maxheight":"default"}},{"type":"Feature","geometry":{"type":"Point","coordinates":[13.8305392,53.3068469]},"properties":{"maxheight":"default"}},{"type":"Feature","geometry":{"type":"Point","coordinates":[13.4958531,53.1216289]},"properties":{"maxweight":"7.5"}},{"type":"Feature","geometry":{"type":"Point","coordinates":[13.4949475,53.1223945]},"properties":{"maxwidth":"5.4","maxlength":"27"}},{"type":"Feature","geometry":{"type":"Point","coordinates":[13.6792877,53.8556349]},"properties":{"maxlength":"10"}},{"type":"Feature","geometry":{"type":"Point","coordinates":[13.6001665,53.5504777]},"properties":{"maxheight":"default"}},{"type":"Feature","geometry":{"type":"Point","coordinates":[13.5921489,53.5488391]},"properties":{"maxheight":"default"}},{"type":"Feature","geometry":{"type":"Point","coordinates":[13.9785976,53.2239894]},"properties":{"maxheight":"default"}},{"type":"Feature","geometry":{"type":"Point","coordinates":[13.2568622,53.2325494]},"properties":{"maxweight":"12"}},{"type":"Feature","geometry":{"type":"Point","coordinates":[13.6860792,53.0615617]},"properties":{"hgv":"no"}},{"type":"Feature","geometry":{"type":"Point","coordinates":[13.3143132,53.4988631]},"properties":{"hgv":"no"}},{"type":"Feature","geometry":{"type":"Point","coordinates":[13.3065311,53.4402422]},"properties":{"maxweight":"16 t"}},{"type":"Feature","geometry":{"type":"Point","coordinates":[13.6112719,53.2620132]},"properties":{"hgv":"delivery"}},{"type":"Feature","geometry":{"type":"Point","coordinates":[13.5033223,53.1191207]},"properties":{"maxweight":"7.5"}},{"type":"Feature","geometry":{"type":"Point","coordinates":[13.3150777,53.2092169]},"properties":{"hgv":"no"}},{"type":"Feature","geometry":{"type":"Point","coordinates":[13.6453794,53.5037931]},"properties":{"maxweight":"2"}},{"type":"Feature","geometry":{"type":"Point","coordinates":[13.2497837,53.2351388]},"properties":{"maxweight":"12"}},{"type":"Feature","geometry":{"type":"Point","coordinates":[13.2466007,53.2363168]},"properties":{"maxweight":"12"}},{"type":"Feature","geometry":{"type":"Point","coordinates":[13.2429799,53.2372225]},"properties":{"maxweight":"12"}},{"type":"Feature","geometry":{"type":"Point","coordinates":[13.2433429,53.2372183]},"properties":{"maxweight":"12"}},{"type":"Feature","geometry":{"type":"Point","coordinates":[13.2445099,53.2370553]},"properties":{"maxweight":"12"}},{"type":"Feature","geometry":{"type":"Point","coordinates":[13.8625559,53.4815931]},"properties":{"maxweight":"7.5"}},{"type":"Feature","geometry":{"type":"Point","coordinates":[13.6967275,53.0609527]},"properties":{"hgv":"no"}},{"type":"Feature","geometry":{"type":"Point","coordinates":[13.7046541,53.886823]},"properties":{"hgv":"no"}},{"type":"Feature","geometry":{"type":"Point","coordinates":[13.7198614,53.0548746]},"properties":{"hgv":"no"}},{"type":"Feature","geometry":{"type":"Point","coordinates":[13.6655787,53.8432993]},"properties":{"maxheight":"default"}},{"type":"Feature","geometry":{"type":"Point","coordinates":[13.6601916,53.8519457]},"properties":{"maxheight":"default"}},{"type":"Feature","geometry":{"type":"Point","coordinates":[13.6604935,53.8522754]},"properties":{"maxheight":"default"}},{"type":"Feature","geometry":{"type":"Point","coordinates":[13.692097,53.8831219]},"properties":{"maxheight":"default"}},{"type":"Feature","geometry":{"type":"Point","coordinates":[13.881018,53.128642]},"properties":{"maxheight":"default"}},{"type":"Feature","geometry":{"type":"Point","coordinates":[13.4990176,53.1136669]},"properties":{"hgv":"no"}},{"type":"Feature","geometry":{"type":"Point","coordinates":[13.5018798,53.1230859]},"properties":{"maxweight":"7.5"}},{"type":"Feature","geometry":{"type":"Point","coordinates":[13.6114965,53.2631097]},"properties":{"hgv":"delivery"}},{"type":"Feature","geometry":{"type":"Point","coordinates":[13.6114026,53.2634044]},"properties":{"hgv":"delivery"}},{"type":"Feature","geometry":{"type":"Point","coordinates":[13.8336464,53.4747588]},"properties":{"maxweight":"7.5"}},{"type":"Feature","geometry":{"type":"Point","coordinates":[13.137726,53.1848581]},"properties":{"maxheight":"3.3"}},{"type":"Feature","geometry":{"type":"Point","coordinates":[13.3082901,53.2621398]},"properties":{"maxweight":"12"}},{"type":"Feature","geometry":{"type":"Point","coordinates":[13.3493918,53.9315528]},"properties":{"maxheight":"4"}},{"type":"Feature","geometry":{"type":"Point","coordinates":[13.5912912,53.3480701]},"properties":{"maxweight":"12.5"}},{"type":"Feature","geometry":{"type":"Point","coordinates":[13.8199602,53.5953832]},"properties":{"hgv":"no"}},{"type":"Feature","geometry":{"type":"Point","coordinates":[13.4961508,53.12149]},"properties":{"maxweight":"7.5"}},{"type":"Feature","geometry":{"type":"Point","coordinates":[13.0784247,53.0620309]},"properties":{"hgv":"destination"}},{"type":"Feature","geometry":{"type":"Point","coordinates":[13.0491313,53.3753271]},"properties":{"hgv":"delivery"}},{"type":"Feature","geometry":{"type":"Point","coordinates":[13.0726379,53.3568781]},"properties":{"maxheight":"default"}},{"type":"Feature","geometry":{"type":"Point","coordinates":[13.1333526,53.4551788]},"properties":{"maxweight":"9"}},{"type":"Feature","geometry":{"type":"Point","coordinates":[13.6359725,53.1106249]},"properties":{"maxweight":"7.5"}},{"type":"Feature","geometry":{"type":"Point","coordinates":[13.2556099,53.5485068]},"properties":{"hgv":"designated"}},{"type":"Feature","geometry":{"type":"Point","coordinates":[13.9906248,53.2315407]},"properties":{"maxheight":"default"}},{"type":"Feature","geometry":{"type":"Point","coordinates":[13.8750394,53.3332317]},"properties":{"maxweight":"7.5"}},{"type":"Feature","geometry":{"type":"Point","coordinates":[13.3019123,53.2455549]},"properties":{"maxweight":"12"}},{"type":"Feature","geometry":{"type":"Point","coordinates":[13.284472,53.5833546]},"properties":{"maxheight":"default"}},{"type":"Feature","geometry":{"type":"Point","coordinates":[13.3216369,53.2018984]},"properties":{"hgv":"no"}},{"type":"Feature","geometry":{"type":"Point","coordinates":[13.2008585,53.5700258]},"properties":{"hgv":"yes"}},{"type":"Feature","geometry":{"type":"Point","coordinates":[13.2021469,53.5700462]},"properties":{"hgv":"yes"}},{"type":"Feature","geometry":{"type":"Point","coordinates":[13.583797,53.9712414]},"properties":{"hgv":"destination"}},{"type":"Feature","geometry":{"type":"Point","coordinates":[13.0523362,53.0398028]},"properties":{"hgv":"agricultural;destination"}},{"type":"Feature","geometry":{"type":"Point","coordinates":[13.8632649,53.314437]},"properties":{"maxheight":"none"}},{"type":"Feature","geometry":{"type":"Point","coordinates":[13.8637825,53.3092223]},"properties":{"maxheight":"4.1"}},{"type":"Feature","geometry":{"type":"Point","coordinates":[13.7798022,53.5201254]},"properties":{"hgv":"designated"}},{"type":"Feature","geometry":{"type":"Point","coordinates":[13.7785895,53.5199654]},"properties":{"hgv":"designated"}},{"type":"Feature","geometry":{"type":"Point","coordinates":[13.869784,53.3219494]},"properties":{"goods":"destination","maxweight":"3.5"}},{"type":"Feature","geometry":{"type":"Point","coordinates":[13.7735321,53.9833297]},"properties":{"maxweight":"7.5"}},{"type":"Feature","geometry":{"type":"Point","coordinates":[13.8785924,53.3329481]},"properties":{"maxweight":"7.5"}},{"type":"Feature","geometry":{"type":"Point","coordinates":[13.8789184,53.332821]},"properties":{"maxweight":"7.5"}},{"type":"Feature","geometry":{"type":"Point","coordinates":[13.8801259,53.332136]},"properties":{"maxweight":"7.5"}},{"type":"Feature","geometry":{"type":"Point","coordinates":[13.2328488,53.3901387]},"properties":{"maxweight":"5"}},{"type":"Feature","geometry":{"type":"Point","coordinates":[13.2447632,53.2369836]},"properties":{"maxweight":"12"}},{"type":"Feature","geometry":{"type":"Point","coordinates":[13.244049,53.2371598]},"properties":{"maxweight":"12"}},{"type":"Feature","geometry":{"type":"Point","coordinates":[13.2438145,53.237198]},"properties":{"maxweight":"12"}},{"type":"Feature","geometry":{"type":"Point","coordinates":[13.0683959,53.3594191]},"properties":{"maxheight":"below_default"}},{"type":"Feature","geometry":{"type":"Point","coordinates":[13.8817293,53.3052604]},"properties":{"maxheight":"2"}},{"type":"Feature","geometry":{"type":"Point","coordinates":[13.0345344,53.4829843]},"properties":{"maxweight":"12"}},{"type":"Feature","geometry":{"type":"Point","coordinates":[13.0349081,53.4826184]},"properties":{"maxweight":"12"}},{"type":"Feature","geometry":{"type":"Point","coordinates":[13.234517,53.5881113]},"properties":{"maxweight":"0.1"}},{"type":"Feature","geometry":{"type":"Point","coordinates":[13.8344505,53.0440688]},"properties":{"maxheight":"default"}},{"type":"Feature","geometry":{"type":"Point","coordinates":[13.9256557,53.1778803]},"properties":{"maxheight":"default"}},{"type":"Feature","geometry":{"type":"Point","coordinates":[13.9261874,53.1783558]},"properties":{"maxheight":"default"}},{"type":"Feature","geometry":{"type":"Point","coordinates":[13.0033443,53.6098399]},"properties":{"maxweight":"5.5"}},{"type":"Feature","geometry":{"type":"Point","coordinates":[13.3623938,53.9424395]},"properties":{"maxheight":"default"}},{"type":"Feature","geometry":{"type":"Point","coordinates":[13.0422492,53.1397852]},"properties":{"hgv":"forestry"}},{"type":"Feature","geometry":{"type":"Point","coordinates":[13.6818629,53.8565168]},"properties":{"maxheight":"default"}},{"type":"Feature","geometry":{"type":"Point","coordinates":[13.7129987,53.8351002]},"properties":{"maxheight":"default"}},{"type":"Feature","geometry":{"type":"Point","coordinates":[13.9873895,53.3287724]},"properties":{"maxheight":"default"}},{"type":"Feature","geometry":{"type":"Point","coordinates":[13.998765,53.2616069]},"properties":{"maxheight":"default"}},{"type":"Feature","geometry":{"type":"Point","coordinates":[13.2508565,53.6953589]},"properties":{"maxheight":"3.2"}},{"type":"Feature","geometry":{"type":"Point","coordinates":[13.2509119,53.6953407]},"properties":{"maxheight":"3.2"}},{"type":"Feature","geometry":{"type":"Point","coordinates":[13.2113952,53.249339]},"properties":{"maxweight":"2.5"}},{"type":"Feature","geometry":{"type":"Point","coordinates":[13.2081054,53.5666818]},"properties":{"maxheight":"2.1","maxwidth":"2.2"}},{"type":"Feature","geometry":{"type":"Point","coordinates":[13.1709077,53.0039032]},"properties":{"hgv":"no"}},{"type":"Feature","geometry":{"type":"Point","coordinates":[13.2472683,53.5593948]},"properties":{"hgv":"no"}},{"type":"Feature","geometry":{"type":"Point","coordinates":[13.4368321,53.3274749]},"properties":{"maxweight":"12"}},{"type":"Feature","geometry":{"type":"Point","coordinates":[13.0016993,53.080291]},"properties":{"maxweight":"7.5"}},{"type":"Feature","geometry":{"type":"Point","coordinates":[13.8617967,53.4805868]},"properties":{"maxweight":"7.5"}},{"type":"Feature","geometry":{"type":"Point","coordinates":[13.8580648,53.4801775]},"properties":{"maxweight":"7.5"}},{"type":"Feature","geometry":{"type":"Point","coordinates":[13.0809004,53.3471167]},"properties":{"hgv":"designated"}},{"type":"Feature","geometry":{"type":"Point","coordinates":[13.5186998,53.1249193]},"properties":{"hgv":"no"}},{"type":"Feature","geometry":{"type":"Point","coordinates":[13.3319488,53.4455574]},"properties":{"maxweight":"5.5"}},{"type":"Feature","geometry":{"type":"Point","coordinates":[13.8230311,53.2204779]},"properties":{"maxweight":"7.5"}},{"type":"Feature","geometry":{"type":"Point","coordinates":[13.6217076,53.2220109]},"properties":{"maxweight":"20 t"}},{"type":"Feature","geometry":{"type":"Point","coordinates":[13.8755545,53.3078024]},"properties":{"maxheight":"4"}},{"type":"Feature","geometry":{"type":"Point","coordinates":[13.8634708,53.1141429]},"properties":{"maxheight":"default"}},{"type":"Feature","geometry":{"type":"Point","coordinates":[13.9738021,53.3567976]},"properties":{"maxheight":"default"}},{"type":"Feature","geometry":{"type":"Point","coordinates":[13.5163726,53.5590887]},"properties":{"maxheight":"default"}},{"type":"Feature","geometry":{"type":"Point","coordinates":[13.5867265,53.4602967]},"properties":{"hgv":"no","goods":"no"}},{"type":"Feature","geometry":{"type":"Point","coordinates":[13.82126,53.8111277]},"properties":{"maxweight":"18"}},{"type":"Feature","geometry":{"type":"Point","coordinates":[13.5709262,53.9724177]},"properties":{"hgv":"destination"}},{"type":"Feature","geometry":{"type":"Point","coordinates":[13.2712075,53.5852501]},"properties":{"maxheight":"2.65"}},{"type":"Feature","geometry":{"type":"Point","coordinates":[13.2712433,53.5854406]},"properties":{"maxheight":"default"}},{"type":"Feature","geometry":{"type":"Point","coordinates":[13.2710219,53.5854707]},"properties":{"maxheight":"default"}},{"type":"Feature","geometry":{"type":"Point","coordinates":[13.2712808,53.585577]},"properties":{"maxheight":"default"}},{"type":"Feature","geometry":{"type":"Point","coordinates":[13.8513192,53.315043]},"properties":{"maxweight":"1.5"}},{"type":"Feature","geometry":{"type":"Point","coordinates":[13.261833,53.5579675]},"properties":{"maxheight":"3.8"}},{"type":"Feature","geometry":{"type":"Point","coordinates":[13.0228369,53.4495777]},"properties":{"maxweight":"7.5"}},{"type":"Feature","geometry":{"type":"Point","coordinates":[13.1716857,53.5444782]},"properties":{"maxweight":"7.5"}},{"type":"Feature","geometry":{"type":"Point","coordinates":[13.15117,53.7252434]},"properties":{"hgv":"agricultural;forestry"}},{"type":"Feature","geometry":{"type":"Point","coordinates":[13.742806,53.0523294]},"properties":{"hgv":"no"}},{"type":"Feature","geometry":{"type":"Point","coordinates":[13.2694027,53.5621277]},"properties":{"hgv":"no"}},{"type":"Feature","geometry":{"type":"Point","coordinates":[13.269646,53.5617706]},"properties":{"hgv":"no"}},{"type":"Feature","geometry":{"type":"Point","coordinates":[13.2681864,53.555703]},"properties":{"maxheight":"2"}},{"type":"Feature","geometry":{"type":"Point","coordinates":[13.2683709,53.5560675]},"properties":{"maxheight":"2"}},{"type":"Feature","geometry":{"type":"Point","coordinates":[13.9976922,53.0140727]},"properties":{"maxheight":"3.8"}},{"type":"Feature","geometry":{"type":"Point","coordinates":[13.3053427,53.4982707]},"properties":{"maxheight":"default"}},{"type":"Feature","geometry":{"type":"Point","coordinates":[13.431413,53.3315096]},"properties":{"maxheight":"3.1"}},{"type":"Feature","geometry":{"type":"Point","coordinates":[13.9325951,53.1865793]},"properties":{"maxheight":"4"}},{"type":"Feature","geometry":{"type":"Point","coordinates":[13.2545179,53.5676982]},"properties":{"maxheight":"4.6","maxweight":"2.5"}},{"type":"Feature","geometry":{"type":"Point","coordinates":[13.2549269,53.5676768]},"properties":{"maxweight":"2.5"}},{"type":"Feature","geometry":{"type":"Point","coordinates":[13.100982,53.3427545]},"properties":{"hgv":"delivery"}},{"type":"Feature","geometry":{"type":"Point","coordinates":[13.2483445,53.5619465]},"properties":{"maxheight":"3.5"}},{"type":"Feature","geometry":{"type":"Point","coordinates":[13.8230156,53.0005388]},"properties":{"maxheight":"default"}},{"type":"Feature","geometry":{"type":"Point","coordinates":[13.0011703,53.0803965]},"properties":{"maxweight":"7.5"}},{"type":"Feature","geometry":{"type":"Point","coordinates":[13.8778199,53.3330277]},"properties":{"maxweight":"7.5"}},{"type":"Feature","geometry":{"type":"Point","coordinates":[13.4984865,53.1133798]},"properties":{"hgv":"no"}},{"type":"Feature","geometry":{"type":"Point","coordinates":[13.2408558,53.2573706]},"properties":{"goods":"yes"}},{"type":"Feature","geometry":{"type":"Point","coordinates":[13.269651,53.5618043]},"properties":{"hgv":"no"}},{"type":"Feature","geometry":{"type":"Point","coordinates":[13.0925288,53.336438]},"properties":{"maxlength":"10"}},{"type":"Feature","geometry":{"type":"Point","coordinates":[13.2617167,53.5553215]},"properties":{"maxheight":"3"}},{"type":"Feature","geometry":{"type":"Point","coordinates":[13.7443411,53.5101223]},"properties":{"hgv":"delivery"}},{"type":"Feature","geometry":{"type":"Point","coordinates":[13.2706676,53.5615966]},"properties":{"hgv":"no"}},{"type":"Feature","geometry":{"type":"Point","coordinates":[13.2594831,53.5296767]},"properties":{"maxheight":"3.1"}},{"type":"Feature","geometry":{"type":"Point","coordinates":[13.080158,53.3576419]},"properties":{"hgv":"no"}},{"type":"Feature","geometry":{"type":"Point","coordinates":[13.36752,53.6199047]},"properties":{"hgv":"designated"}},{"type":"Feature","geometry":{"type":"Point","coordinates":[13.3672411,53.6202638]},"properties":{"hgv":"designated"}},{"type":"Feature","geometry":{"type":"Point","coordinates":[13.3683391,53.6196199]},"properties":{"hgv":"designated"}},{"type":"Feature","geometry":{"type":"Point","coordinates":[13.3681364,53.6208655]},"properties":{"hgv":"designated"}},{"type":"Feature","geometry":{"type":"Point","coordinates":[13.2008947,53.5705069]},"properties":{"hgv":"no"}},{"type":"Feature","geometry":{"type":"Point","coordinates":[13.200273,53.57106]},"properties":{"hgv":"no"}},{"type":"Feature","geometry":{"type":"Point","coordinates":[13.9932051,53.3933709]},"properties":{"hgv":"designated"}},{"type":"Feature","geometry":{"type":"Point","coordinates":[13.9924863,53.3935116]},"properties":{"hgv":"designated"}},{"type":"Feature","geometry":{"type":"Point","coordinates":[13.993763,53.3945241]},"properties":{"hgv":"designated"}},{"type":"Feature","geometry":{"type":"Point","coordinates":[13.3006842,53.5752236]},"properties":{"hgv":"yes"}},{"type":"Feature","geometry":{"type":"Point","coordinates":[13.2928807,53.5817953]},"properties":{"hgv":"no"}},{"type":"Feature","geometry":{"type":"Point","coordinates":[13.2530804,53.5642536]},"properties":{"maxheight":"4.5"}},{"type":"Feature","geometry":{"type":"Point","coordinates":[13.6940318,53.8555986]},"properties":{"maxweight":"7.5"}},{"type":"Feature","geometry":{"type":"Point","coordinates":[13.9149812,53.4942395]},"properties":{"maxheight":"default"}},{"type":"Feature","geometry":{"type":"Point","coordinates":[13.2689847,53.5595195]},"properties":{"maxheight":"2.1","maxweight":"3"}},{"type":"Feature","geometry":{"type":"Point","coordinates":[13.0940669,53.3325845]},"properties":{"hgv":"yes"}},{"type":"Feature","geometry":{"type":"Point","coordinates":[13.2689847,53.5595195]},"properties":{"maxheight":"2.1","maxweight":"3"}},{"type":"Feature","geometry":{"type":"Point","coordinates":[13.5845304,53.4559498]},"properties":{"hgv":"no"}},{"type":"Feature","geometry":{"type":"Point","coordinates":[13.2528299,53.5632821]},"properties":{"maxheight":"4.5"}},{"type":"Feature","geometry":{"type":"Point","coordinates":[13.2528365,53.5633408]},"properties":{"maxheight":"4.5"}},{"type":"Feature","geometry":{"type":"Point","coordinates":[13.2528174,53.5629253]},"properties":{"maxheight":"4.5"}},{"type":"Feature","geometry":{"type":"Point","coordinates":[13.260824,53.567186]},"properties":{"hgv":"no"}},{"type":"Feature","geometry":{"type":"Point","coordinates":[13.7057913,53.1929459]},"properties":{"maxweight":"7.5"}},{"type":"Feature","geometry":{"type":"Point","coordinates":[13.7038571,53.1933222]},"properties":{"maxweight":"7.5"}},{"type":"Feature","geometry":{"type":"Point","coordinates":[13.3092127,53.2617994]},"properties":{"maxweight":"12"}},{"type":"Feature","geometry":{"type":"Point","coordinates":[13.324365,53.7888757]},"properties":{"maxheight":"default"}},{"type":"Feature","geometry":{"type":"Point","coordinates":[13.3348254,53.8563884]},"properties":{"hgv":"designated"}},{"type":"Feature","geometry":{"type":"Point","coordinates":[13.0411701,53.9255059]},"properties":{"hgv":"private"}},{"type":"Feature","geometry":{"type":"Point","coordinates":[13.0420765,53.9255724]},"properties":{"hgv":"yes"}},{"type":"Feature","geometry":{"type":"Point","coordinates":[13.0398336,53.3407986]},"properties":{"hgv":"yes"}},{"type":"Feature","geometry":{"type":"Point","coordinates":[13.3323554,53.4453433]},"properties":{"maxweight":"5.5"}},{"type":"Feature","geometry":{"type":"Point","coordinates":[13.6820719,53.8374628]},"properties":{"hgv":"no"}},{"type":"Feature","geometry":{"type":"Point","coordinates":[13.6852899,53.8593609]},"properties":{"maxheight":"2.50"}},{"type":"Feature","geometry":{"type":"Point","coordinates":[13.6826126,53.8558578]},"properties":{"maxheight":"default"}},{"type":"Feature","geometry":{"type":"Point","coordinates":[13.3120047,53.5564861]},"properties":{"maxheight":"2.6"}},{"type":"Feature","geometry":{"type":"Point","coordinates":[13.3331701,53.8551768]},"properties":{"hgv":"designated"}},{"type":"Feature","geometry":{"type":"Point","coordinates":[13.3336888,53.8559273]},"properties":{"hgv":"designated"}},{"type":"Feature","geometry":{"type":"Point","coordinates":[13.3334295,53.8553495]},"properties":{"hgv":"designated"}},{"type":"Feature","geometry":{"type":"Point","coordinates":[13.5925072,53.5500953]},"properties":{"hgv":"designated"}},{"type":"Feature","geometry":{"type":"Point","coordinates":[13.5914336,53.5498003]},"properties":{"hgv":"designated"}},{"type":"Feature","geometry":{"type":"Point","coordinates":[13.5921787,53.5492093]},"properties":{"hgv":"designated"}},{"type":"Feature","geometry":{"type":"Point","coordinates":[13.5925569,53.5493503]},"properties":{"hgv":"designated"}},{"type":"Feature","geometry":{"type":"Point","coordinates":[13.5929699,53.5498081]},"properties":{"hgv":"designated"}},{"type":"Feature","geometry":{"type":"Point","coordinates":[13.7003641,53.8869942]},"properties":{"hgv":"no"}},{"type":"Feature","geometry":{"type":"Point","coordinates":[13.0396386,53.8937073]},"properties":{"maxheight":"2.3"}},{"type":"Feature","geometry":{"type":"Point","coordinates":[13.0365232,53.1388036]},"properties":{"hgv":"forestry"}},{"type":"Feature","geometry":{"type":"Point","coordinates":[13.8266381,53.0154807]},"properties":{"maxheight":"default"}},{"type":"Feature","geometry":{"type":"Point","coordinates":[13.8282005,53.0214112]},"properties":{"maxheight":"default"}},{"type":"Feature","geometry":{"type":"Point","coordinates":[13.842964,53.0702701]},"properties":{"maxheight":"default"}},{"type":"Feature","geometry":{"type":"Point","coordinates":[13.8434078,53.0715749]},"properties":{"maxheight":"default"}},{"type":"Feature","geometry":{"type":"Point","coordinates":[13.699789,53.8550642]},"properties":{"maxweight":"7.5"}},{"type":"Feature","geometry":{"type":"Point","coordinates":[13.0905373,53.3655595]},"properties":{"goods":"yes"}},{"type":"Feature","geometry":{"type":"Point","coordinates":[13.0896479,53.3654659]},"properties":{"goods":"yes"}},{"type":"Feature","geometry":{"type":"Point","coordinates":[13.764591,53.9846125]},"properties":{"maxweight":"7.5"}},{"type":"Feature","geometry":{"type":"Point","coordinates":[13.8291718,53.969892]},"properties":{"maxweight":"7.5"}},{"type":"Feature","geometry":{"type":"Point","coordinates":[13.7442892,53.5101689]},"properties":{"hgv":"delivery"}},{"type":"Feature","geometry":{"type":"Point","coordinates":[13.3591588,53.5509686]},"properties":{"maxweight":"16"}},{"type":"Feature","geometry":{"type":"Point","coordinates":[13.3613938,53.5519069]},"properties":{"maxweight":"16"}},{"type":"Feature","geometry":{"type":"Point","coordinates":[13.1393332,53.537614]},"properties":{"hgv":"no","maxheight":"below_default","maxwidth":"below_default"}},{"type":"Feature","geometry":{"type":"Point","coordinates":[13.6927462,53.8553666]},"properties":{"maxweight":"7.5"}},{"type":"Feature","geometry":{"type":"Point","coordinates":[13.6929954,53.8552512]},"properties":{"maxweight":"7.5"}},{"type":"Feature","geometry":{"type":"Point","coordinates":[13.8529217,53.318199]},"properties":{"maxweight":"7.5"}},{"type":"Feature","geometry":{"type":"Point","coordinates":[13.2878627,53.0668176]},"properties":{"maxweight":"7.5"}},{"type":"Feature","geometry":{"type":"Point","coordinates":[13.6863169,53.8451816]},"properties":{"hgv":"no"}},{"type":"Feature","geometry":{"type":"Point","coordinates":[13.0177184,53.6197998]},"properties":{"hgv":"yes"}},{"type":"Feature","geometry":{"type":"Point","coordinates":[13.0685038,53.3594835]},"properties":{"maxheight":"below_default"}},{"type":"Feature","geometry":{"type":"Point","coordinates":[13.8637175,53.309266]},"properties":{"maxheight":"4.1"}},{"type":"Feature","geometry":{"type":"Point","coordinates":[13.3421478,53.4421384]},"properties":{"maxweight":"5.5"}},{"type":"Feature","geometry":{"type":"Point","coordinates":[13.1522088,53.007089]},"properties":{"hgv":"delivery"}},{"type":"Feature","geometry":{"type":"Point","coordinates":[13.1521369,53.0070594]},"properties":{"hgv":"delivery"}},{"type":"Feature","geometry":{"type":"Point","coordinates":[13.2400252,53.1366957]},"properties":{"maxheight":"4.34"}},{"type":"Feature","geometry":{"type":"Point","coordinates":[13.1929567,53.2477093]},"properties":{"hgv":"no"}},{"type":"Feature","geometry":{"type":"Point","coordinates":[13.7150943,53.8476031]},"properties":{"hgv":"no"}},{"type":"Feature","geometry":{"type":"Point","coordinates":[13.7123802,53.8487059]},"properties":{"hgv":"no","goods":"yes"}},{"type":"Feature","geometry":{"type":"Point","coordinates":[13.7122918,53.8486813]},"properties":{"hgv":"no","goods":"yes"}},{"type":"Feature","geometry":{"type":"Point","coordinates":[13.7108499,53.8482609]},"properties":{"hgv":"no","goods":"yes"}},{"type":"Feature","geometry":{"type":"Point","coordinates":[13.810889,53.8070013]},"properties":{"maxweight":"18"}},{"type":"Feature","geometry":{"type":"Point","coordinates":[13.3332064,53.595444]},"properties":{"maxheight":"4.3"}},{"type":"Feature","geometry":{"type":"Point","coordinates":[13.3195738,53.4532706]},"properties":{"maxheight":"3","maxwidth":"2.5"}},{"type":"Feature","geometry":{"type":"Point","coordinates":[13.2697921,53.5670016]},"properties":{"maxweight":"2.5 t"}},{"type":"Feature","geometry":{"type":"Point","coordinates":[13.2822635,53.5688075]},"properties":{"maxweight":"7.5 t"}},{"type":"Feature","geometry":{"type":"Point","coordinates":[13.9577258,53.2108403]},"properties":{"maxheight":"default"}},{"type":"Feature","geometry":{"type":"Point","coordinates":[13.6375003,53.1110158]},"properties":{"maxweight":"7.5"}},{"type":"Feature","geometry":{"type":"Point","coordinates":[13.5883933,53.3494581]},"properties":{"maxweight":"12.5"}},{"type":"Feature","geometry":{"type":"Point","coordinates":[13.1626331,53.2402048]},"properties":{"maxweight":"3"}},{"type":"Feature","geometry":{"type":"Point","coordinates":[13.3655687,53.3984203]},"properties":{"maxweight":"5.5"}},{"type":"Feature","geometry":{"type":"Point","coordinates":[13.5872065,53.3923293]},"properties":{"hgv":"no"}},{"type":"Feature","geometry":{"type":"Point","coordinates":[13.0514012,53.0391264]},"properties":{"hgv":"agricultural;destination"}},{"type":"Feature","geometry":{"type":"Point","coordinates":[13.6791717,53.8367435]},"properties":{"hgv":"no"}},{"type":"Feature","geometry":{"type":"Point","coordinates":[13.2735651,53.4633151]},"properties":{"maxweight":"16 t"}},{"type":"Feature","geometry":{"type":"Point","coordinates":[13.7437195,53.5100348]},"properties":{"hgv":"delivery"}},{"type":"Feature","geometry":{"type":"Point","coordinates":[13.8200762,53.5954254]},"properties":{"hgv":"no"}},{"type":"Feature","geometry":{"type":"Point","coordinates":[13.8198491,53.5956277]},"properties":{"hgv":"no"}},{"type":"Feature","geometry":{"type":"Point","coordinates":[13.7840284,53.6103059]},"properties":{"hgv":"no"}},{"type":"Feature","geometry":{"type":"Point","coordinates":[13.7386259,53.8386853]},"properties":{"maxweight":"7.5"}},{"type":"Feature","geometry":{"type":"Point","coordinates":[13.6905507,53.8586111]},"properties":{"hgv":"no"}},{"type":"Feature","geometry":{"type":"Point","coordinates":[13.6911075,53.8579893]},"properties":{"hgv":"no"}},{"type":"Feature","geometry":{"type":"Point","coordinates":[13.6931068,53.8553483]},"properties":{"maxweight":"7.5"}},{"type":"Feature","geometry":{"type":"Point","coordinates":[13.5758507,53.4607472]},"properties":{"hgv":"no"}},{"type":"Feature","geometry":{"type":"Point","coordinates":[13.5802203,53.459395]},"properties":{"hgv":"no"}},{"type":"Feature","geometry":{"type":"Point","coordinates":[13.6340311,53.1100472]},"properties":{"maxweight":"7.5"}},{"type":"Feature","geometry":{"type":"Point","coordinates":[13.9852176,53.4895106]},"properties":{"maxheight":"3.5"}},{"type":"Feature","geometry":{"type":"Point","coordinates":[13.6514866,53.4995751]},"properties":{"hgv":"no"}},{"type":"Feature","geometry":{"type":"Point","coordinates":[13.6658331,53.8524759]},"properties":{"hgv":"no"}},{"type":"Feature","geometry":{"type":"Point","coordinates":[13.5157595,53.4826083]},"properties":{"hgv":"agricultural"}},{"type":"Feature","geometry":{"type":"Point","coordinates":[13.0504056,53.038405]},"properties":{"hgv":"agricultural;destination"}},{"type":"Feature","geometry":{"type":"Point","coordinates":[13.0582798,53.0441001]},"properties":{"hgv":"agricultural;destination"}},{"type":"Feature","geometry":{"type":"Point","coordinates":[13.0636752,53.0475524]},"properties":{"hgv":"agricultural;destination"}},{"type":"Feature","geometry":{"type":"Point","coordinates":[13.067988,53.049313]},"properties":{"hgv":"agricultural;destination"}},{"type":"Feature","geometry":{"type":"Point","coordinates":[13.0257342,53.072563]},"properties":{"hgv":"no","maxweight":"3.5"}},{"type":"Feature","geometry":{"type":"Point","coordinates":[13.0938558,53.3326038]},"properties":{"hgv":"yes"}},{"type":"Feature","geometry":{"type":"Point","coordinates":[13.0926691,53.3331981]},"properties":{"hgv":"no"}},{"type":"Feature","geometry":{"type":"Point","coordinates":[13.093942,53.3326614]},"properties":{"hgv":"no"}},{"type":"Feature","geometry":{"type":"Point","coordinates":[13.285288,53.0947353]},"properties":{"maxweight":"7.5"}},{"type":"Feature","geometry":{"type":"Point","coordinates":[13.1487894,53.7243895]},"properties":{"hgv":"agricultural;forestry"}},{"type":"Feature","geometry":{"type":"Point","coordinates":[13.35209,53.1068297]},"properties":{"maxweight":"60"}},{"type":"Feature","geometry":{"type":"Point","coordinates":[13.5178575,53.9845887]},"properties":{"maxweight":"5.5"}},{"type":"Feature","geometry":{"type":"Point","coordinates":[13.482243,53.9929255]},"properties":{"maxweight":"5.5"}},{"type":"Feature","geometry":{"type":"Point","coordinates":[13.2560128,53.6926799]},"properties":{"maxweight":"7.5"}},{"type":"Feature","geometry":{"type":"Point","coordinates":[13.2556838,53.6926983]},"properties":{"maxweight":"7.5"}},{"type":"Feature","geometry":{"type":"Point","coordinates":[13.3018822,53.2127723]},"properties":{"hgv":"delivery"}},{"type":"Feature","geometry":{"type":"Point","coordinates":[13.0523576,53.3747512]},"properties":{"hgv":"delivery"}},{"type":"Feature","geometry":{"type":"Point","coordinates":[13.5414387,53.1387653]},"properties":{"hgv":"no"}},{"type":"Feature","geometry":{"type":"Point","coordinates":[13.5421857,53.1406887]},"properties":{"hgv":"no"}},{"type":"Feature","geometry":{"type":"Point","coordinates":[13.5446551,53.1361374]},"properties":{"hgv":"no"}},{"type":"Feature","geometry":{"type":"Point","coordinates":[13.6131451,53.0523566]},"properties":{"maxweight":"5.5"}},{"type":"Feature","geometry":{"type":"Point","coordinates":[13.5863412,53.4601349]},"properties":{"hgv":"no","goods":"no"}},{"type":"Feature","geometry":{"type":"Point","coordinates":[13.3154023,53.211642]},"properties":{"maxweight":"11t"}},{"type":"Feature","geometry":{"type":"Point","coordinates":[13.2566634,53.538924]},"properties":{"hgv":"designated"}}]}