{"type":"FeatureCollection","features":[{"type":"Feature","geometry":{"type":"Point","coordinates":[14.1096085,52.949784]},"properties":{"maxheight":"5.22"}},{"type":"Feature","geometry":{"type":"Point","coordinates":[14.2799911,52.3467415]},"properties":{"maxheight":"default"}},{"type":"Feature","geometry":{"type":"Point","coordinates":[14.2746609,52.3478806]},"properties":{"maxheight":"default"}},{"type":"Feature","geometry":{"type":"Point","coordinates":[14.3843714,52.5287632]},"properties":{"maxheight":"2.7"}},{"type":"Feature","geometry":{"type":"Point","coordinates":[14.0452398,52.8645191]},"properties":{"maxheight":"5.27"}},{"type":"Feature","geometry":{"type":"Point","coordinates":[14.0171015,52.2032545]},"properties":{"maxheight":"1.5"}},{"type":"Feature","geometry":{"type":"Point","coordinates":[14.0162573,52.2011849]},"properties":{"maxheight":"1.5"}},{"type":"Feature","geometry":{"type":"Point","coordinates":[14.2612968,52.2565084]},"properties":{"maxheight":"3"}},{"type":"Feature","geometry":{"type":"Point","coordinates":[14.6403973,52.1493449]},"properties":{"maxwidth":"3.5","maxlength":"12"}},{"type":"Feature","geometry":{"type":"Point","coordinates":[14.0647098,52.3590462]},"properties":{"maxheight":"2.1"}},{"type":"Feature","geometry":{"type":"Point","coordinates":[14.1919105,52.0325592]},"properties":{"maxheight":"1.8"}},{"type":"Feature","geometry":{"type":"Point","coordinates":[14.2800317,52.3467776]},"properties":{"maxheight":"default"}},{"type":"Feature","geometry":{"type":"Point","coordinates":[14.2746764,52.3479165]},"properties":{"maxheight":"default"}},{"type":"Feature","geometry":{"type":"Point","coordinates":[14.5535406,52.3424903]},"properties":{"maxheight":"3.4"}},{"type":"Feature","geometry":{"type":"Point","coordinates":[14.10136,52.3495348]},"properties":{"maxheight":"5.58"}},{"type":"Feature","geometry":{"type":"Point","coordinates":[14.098888,52.3502896]},"properties":{"maxheight":"5.80"}},{"type":"Feature","geometry":{"type":"Point","coordinates":[14.0624813,52.3545844]},"properties":{"maxheight":"5.98"}},{"type":"Feature","geometry":{"type":"Point","coordinates":[14.0626117,52.3550882]},"properties":{"maxheight":"5.98"}},{"type":"Feature","geometry":{"type":"Point","coordinates":[14.0546962,52.3592634]},"properties":{"maxheight":"7.41"}},{"type":"Feature","geometry":{"type":"Point","coordinates":[14.1608735,52.3396785]},"properties":{"maxheight":"5.99"}},{"type":"Feature","geometry":{"type":"Point","coordinates":[14.0617274,52.8647022]},"properties":{"maxheight":"6.37"}},{"type":"Feature","geometry":{"type":"Point","coordinates":[14.0047288,52.2141373]},"properties":{"maxheight":"3.8"}},{"type":"Feature","geometry":{"type":"Point","coordinates":[14.1261542,52.9232894]},"properties":{"maxheight":"4.64"}},{"type":"Feature","geometry":{"type":"Point","coordinates":[14.1144967,52.9772725]},"properties":{"maxheight":"5"}},{"type":"Feature","geometry":{"type":"Point","coordinates":[14.1494287,52.9885375]},"properties":{"maxheight":"4.79"}},{"type":"Feature","geometry":{"type":"Point","coordinates":[14.1758241,52.992368]},"properties":{"maxheight":"5.52"}},{"type":"Feature","geometry":{"type":"Point","coordinates":[14.1487252,52.8724638]},"properties":{"maxheight":"5"}},{"type":"Feature","geometry":{"type":"Point","coordinates":[14.1457214,52.7256129]},"properties":{"maxwidth":"1"}},{"type":"Feature","geometry":{"type":"Point","coordinates":[14.1637667,52.7453911]},"properties":{"maxwidth":"1"}},{"type":"Feature","geometry":{"type":"Point","coordinates":[14.163881,52.7455018]},"properties":{"maxwidth":"1"}},{"type":"Feature","geometry":{"type":"Point","coordinates":[14.1817388,52.7649042]},"properties":{"maxwidth":"1"}},{"type":"Feature","geometry":{"type":"Point","coordinates":[14.1819091,52.7650709]},"properties":{"maxwidth":"1"}},{"type":"Feature","geometry":{"type":"Point","coordinates":[14.5512001,52.3425863]},"properties":{"maxheight":"2"}},{"type":"Feature","geometry":{"type":"Point","coordinates":[14.313059,52.7595789]},"properties":{"hgv":"no","goods":"no"}},{"type":"Feature","geometry":{"type":"Point","coordinates":[14.5535587,52.3423511]},"properties":{"maxheight":"3.4"}},{"type":"Feature","geometry":{"type":"Point","coordinates":[14.5530688,52.3427698]},"properties":{"maxheight":"2"}},{"type":"Feature","geometry":{"type":"Point","coordinates":[14.1339283,52.4438057]},"properties":{"maxwidth":"6"}},{"type":"Feature","geometry":{"type":"Point","coordinates":[14.0612522,52.2927176]},"properties":{"maxheight":"below_default"}},{"type":"Feature","geometry":{"type":"Point","coordinates":[14.0056227,52.6296921]},"properties":{"maxwidth":"1"}},{"type":"Feature","geometry":{"type":"Point","coordinates":[14.1717919,52.4431011]},"properties":{"maxwidth":"3"}},{"type":"Feature","geometry":{"type":"Point","coordinates":[14.1128978,52.8446928]},"properties":{"maxwidth":"1.2"}},{"type":"Feature","geometry":{"type":"Point","coordinates":[14.3131994,52.3781027]},"properties":{"hgv":"no"}},{"type":"Feature","geometry":{"type":"Point","coordinates":[14.5482725,52.3366309]},"properties":{"maxheight":"1.95"}},{"type":"Feature","geometry":{"type":"Point","coordinates":[14.4687553,52.328641]},"properties":{"hgv":"delivery"}},{"type":"Feature","geometry":{"type":"Point","coordinates":[14.0225944,52.7875584]},"properties":{"hgv":"delivery"}},{"type":"Feature","geometry":{"type":"Point","coordinates":[14.1214854,52.8434027]},"properties":{"maxweight":"7.5"}},{"type":"Feature","geometry":{"type":"Point","coordinates":[14.0673297,52.3339275]},"properties":{"maxheight":"default"}},{"type":"Feature","geometry":{"type":"Point","coordinates":[14.2049613,52.0166335]},"properties":{"maxweight":"7.5"}},{"type":"Feature","geometry":{"type":"Point","coordinates":[14.0374861,52.0354043]},"properties":{"maxweight":"3.5"}},{"type":"Feature","geometry":{"type":"Point","coordinates":[14.1468636,52.8693385]},"properties":{"maxweight":"3.5"}},{"type":"Feature","geometry":{"type":"Point","coordinates":[14.6110093,52.1530136]},"properties":{"hgv":"destination"}},{"type":"Feature","geometry":{"type":"Point","coordinates":[14.2903754,52.2663036]},"properties":{"maxwidth":"5.28","maxlength":"39.1"}},{"type":"Feature","geometry":{"type":"Point","coordinates":[14.236058,52.1659029]},"properties":{"hgv":"no"}},{"type":"Feature","geometry":{"type":"Point","coordinates":[14.2759391,52.3480119]},"properties":{"maxweight":"12"}},{"type":"Feature","geometry":{"type":"Point","coordinates":[14.2770531,52.3477326]},"properties":{"maxweight":"12"}},{"type":"Feature","geometry":{"type":"Point","coordinates":[14.2793899,52.3470114]},"properties":{"maxweight":"12"}},{"type":"Feature","geometry":{"type":"Point","coordinates":[14.1229083,52.8465714]},"properties":{"maxweight":"7.5"}},{"type":"Feature","geometry":{"type":"Point","coordinates":[14.1295782,52.856286]},"properties":{"maxweight":"7.5"}},{"type":"Feature","geometry":{"type":"Point","coordinates":[14.1486262,52.8725487]},"properties":{"maxwidth":"4.5"}},{"type":"Feature","geometry":{"type":"Point","coordinates":[14.2311388,52.2909571]},"properties":{"maxweight":"18"}},{"type":"Feature","geometry":{"type":"Point","coordinates":[14.0570267,52.2786066]},"properties":{"hgv":"no","goods":"no"}},{"type":"Feature","geometry":{"type":"Point","coordinates":[14.5214896,52.229023]},"properties":{"maxweight":"12"}},{"type":"Feature","geometry":{"type":"Point","coordinates":[14.1061426,52.3275144]},"properties":{"goods":"no"}},{"type":"Feature","geometry":{"type":"Point","coordinates":[14.016625,52.2151632]},"properties":{"hgv":"no"}},{"type":"Feature","geometry":{"type":"Point","coordinates":[14.3961941,52.5098387]},"properties":{"hgv":"private","goods":"private"}},{"type":"Feature","geometry":{"type":"Point","coordinates":[14.0773847,52.7682291]},"properties":{"maxheight":"3.5"}},{"type":"Feature","geometry":{"type":"Point","coordinates":[14.5570544,52.3447872]},"properties":{"maxweight":"5.5"}},{"type":"Feature","geometry":{"type":"Point","coordinates":[14.5244538,52.3284564]},"properties":{"maxweight":"3.5"}},{"type":"Feature","geometry":{"type":"Point","coordinates":[14.5412248,52.3146831]},"properties":{"maxweight":"12"}},{"type":"Feature","geometry":{"type":"Point","coordinates":[14.5549949,52.3405126]},"properties":{"maxweight":"18"}},{"type":"Feature","geometry":{"type":"Point","coordinates":[14.1423617,52.8696587]},"properties":{"maxweight":"7.5"}},{"type":"Feature","geometry":{"type":"Point","coordinates":[14.6412888,52.1438716]},"properties":{"maxweight":"30"}},{"type":"Feature","geometry":{"type":"Point","coordinates":[14.0544578,52.0761823]},"properties":{"maxweight":"3.5"}},{"type":"Feature","geometry":{"type":"Point","coordinates":[14.6443565,52.1494661]},"properties":{"maxweight":"30"}},{"type":"Feature","geometry":{"type":"Point","coordinates":[14.3162733,52.3778401]},"properties":{"hgv":"no"}},{"type":"Feature","geometry":{"type":"Point","coordinates":[14.0311188,52.7879566]},"properties":{"hgv":"delivery"}},{"type":"Feature","geometry":{"type":"Point","coordinates":[14.4327769,52.1837849]},"properties":{"hgv":"no"}},{"type":"Feature","geometry":{"type":"Point","coordinates":[14.4590751,52.3260329]},"properties":{"maxweight":"7.5"}},{"type":"Feature","geometry":{"type":"Point","coordinates":[14.2279177,52.1694954]},"properties":{"maxweight":"7.5"}},{"type":"Feature","geometry":{"type":"Point","coordinates":[14.6297119,52.5800287]},"properties":{"maxlength":"8","maxweight":"3.5"}},{"type":"Feature","geometry":{"type":"Point","coordinates":[14.3908244,52.3208635]},"properties":{"maxheight":"default"}},{"type":"Feature","geometry":{"type":"Point","coordinates":[14.6318694,52.5812053]},"properties":{"maxweight":"7.5"}},{"type":"Feature","geometry":{"type":"Point","coordinates":[14.6303984,52.5806806]},"properties":{"maxweight":"7.5"}},{"type":"Feature","geometry":{"type":"Point","coordinates":[14.4873273,52.3703699]},"properties":{"maxweight":"20"}},{"type":"Feature","geometry":{"type":"Point","coordinates":[14.0163846,52.2011411]},"properties":{"maxweight":"7.5"}},{"type":"Feature","geometry":{"type":"Point","coordinates":[14.316898,52.7611049]},"properties":{"hgv":"no","maxweight":"3.5"}},{"type":"Feature","geometry":{"type":"Point","coordinates":[14.3181508,52.7632189]},"properties":{"hgv":"no","maxweight":"2.25"}},{"type":"Feature","geometry":{"type":"Point","coordinates":[14.122913,52.8432299]},"properties":{"maxheight":"default"}},{"type":"Feature","geometry":{"type":"Point","coordinates":[14.3220725,52.5030684]},"properties":{"hgv":"destination"}},{"type":"Feature","geometry":{"type":"Point","coordinates":[14.4857403,52.5743246]},"properties":{"maxweight":"3.5"}},{"type":"Feature","geometry":{"type":"Point","coordinates":[14.2737035,52.2722821]},"properties":{"maxweight":"16"}},{"type":"Feature","geometry":{"type":"Point","coordinates":[14.6413336,52.1440855]},"properties":{"maxheight":"4"}},{"type":"Feature","geometry":{"type":"Point","coordinates":[14.1759626,52.9921786]},"properties":{"maxweight":"3"}},{"type":"Feature","geometry":{"type":"Point","coordinates":[14.1760346,52.9920845]},"properties":{"maxweight":"3"}},{"type":"Feature","geometry":{"type":"Point","coordinates":[14.1752879,52.9930519]},"properties":{"maxweight":"3"}},{"type":"Feature","geometry":{"type":"Point","coordinates":[14.1228136,52.8455731]},"properties":{"maxweight":"7.5"}},{"type":"Feature","geometry":{"type":"Point","coordinates":[14.1091676,52.9497773]},"properties":{"maxweight":"12"}},{"type":"Feature","geometry":{"type":"Point","coordinates":[14.0125864,52.0505239]},"properties":{"hgv":"no"}},{"type":"Feature","geometry":{"type":"Point","coordinates":[14.1773655,52.0814116]},"properties":{"maxweight":"6"}},{"type":"Feature","geometry":{"type":"Point","coordinates":[14.4046161,52.0185958]},"properties":{"maxweight":"7.5"}},{"type":"Feature","geometry":{"type":"Point","coordinates":[14.048234,52.8639302]},"properties":{"hgv":"no"}},{"type":"Feature","geometry":{"type":"Point","coordinates":[14.0290156,52.0227361]},"properties":{"maxweight":"3.5"}},{"type":"Feature","geometry":{"type":"Point","coordinates":[14.4765273,52.2477194]},"properties":{"hgv":"no"}},{"type":"Feature","geometry":{"type":"Point","coordinates":[14.5708653,52.2445838]},"properties":{"maxheight":"4"}},{"type":"Feature","geometry":{"type":"Point","coordinates":[14.6233679,52.2066639]},"properties":{"hgv":"destination"}},{"type":"Feature","geometry":{"type":"Point","coordinates":[14.545348,52.2393836]},"properties":{"hgv":"no"}},{"type":"Feature","geometry":{"type":"Point","coordinates":[14.6224006,52.2025576]},"properties":{"hgv":"no"}},{"type":"Feature","geometry":{"type":"Point","coordinates":[14.64701,52.1443401]},"properties":{"hgv":"no"}},{"type":"Feature","geometry":{"type":"Point","coordinates":[14.6479864,52.1446331]},"properties":{"hgv":"no"}},{"type":"Feature","geometry":{"type":"Point","coordinates":[14.1493666,52.988727]},"properties":{"hgv":"no","goods":"no"}},{"type":"Feature","geometry":{"type":"Point","coordinates":[14.149475,52.988359]},"properties":{"hgv":"no","goods":"no"}},{"type":"Feature","geometry":{"type":"Point","coordinates":[14.1495648,52.9880546]},"properties":{"hgv":"no","goods":"no"}},{"type":"Feature","geometry":{"type":"Point","coordinates":[14.6479864,52.1446331]},"properties":{"hgv":"no"}},{"type":"Feature","geometry":{"type":"Point","coordinates":[14.669141,52.1493603]},"properties":{"maxweight":"1.5"}},{"type":"Feature","geometry":{"type":"Point","coordinates":[14.5428938,52.1368521]},"properties":{"maxweight":"3.5"}},{"type":"Feature","geometry":{"type":"Point","coordinates":[14.5506897,52.3327041]},"properties":{"maxheight":"3.1"}},{"type":"Feature","geometry":{"type":"Point","coordinates":[14.5509886,52.3151456]},"properties":{"maxheight":"4"}},{"type":"Feature","geometry":{"type":"Point","coordinates":[14.5539639,52.3175316]},"properties":{"maxheight":"4"}},{"type":"Feature","geometry":{"type":"Point","coordinates":[14.5577296,52.3487782]},"properties":{"hgv":"no"}},{"type":"Feature","geometry":{"type":"Point","coordinates":[14.5570672,52.2158245]},"properties":{"maxweight":"12"}},{"type":"Feature","geometry":{"type":"Point","coordinates":[14.4869476,52.3506037]},"properties":{"maxweight":"7.5"}},{"type":"Feature","geometry":{"type":"Point","coordinates":[14.6479476,52.1445371]},"properties":{"hgv":"no"}},{"type":"Feature","geometry":{"type":"Point","coordinates":[14.6471977,52.1447579]},"properties":{"hgv":"no"}},{"type":"Feature","geometry":{"type":"Point","coordinates":[14.6461152,52.1447794]},"properties":{"hgv":"no"}},{"type":"Feature","geometry":{"type":"Point","coordinates":[14.647884,52.1443925]},"properties":{"hgv":"no"}},{"type":"Feature","geometry":{"type":"Point","coordinates":[14.6475984,52.1442961]},"properties":{"hgv":"no"}},{"type":"Feature","geometry":{"type":"Point","coordinates":[14.6460107,52.1445044]},"properties":{"hgv":"no"}},{"type":"Feature","geometry":{"type":"Point","coordinates":[14.6470727,52.1444812]},"properties":{"hgv":"no"}},{"type":"Feature","geometry":{"type":"Point","coordinates":[14.5762366,52.1320446]},"properties":{"maxweight":"3.5"}},{"type":"Feature","geometry":{"type":"Point","coordinates":[14.6056872,52.1595505]},"properties":{"hgv":"destination"}},{"type":"Feature","geometry":{"type":"Point","coordinates":[14.6742021,52.1028141]},"properties":{"maxweight":"12"}},{"type":"Feature","geometry":{"type":"Point","coordinates":[14.681896,52.0924823]},"properties":{"maxweight":"12"}},{"type":"Feature","geometry":{"type":"Point","coordinates":[14.5203381,52.3192568]},"properties":{"maxheight":"default"}},{"type":"Feature","geometry":{"type":"Point","coordinates":[14.6725782,52.1787666]},"properties":{"hgv":"no"}},{"type":"Feature","geometry":{"type":"Point","coordinates":[14.2467101,52.1701414]},"properties":{"hgv":"no"}},{"type":"Feature","geometry":{"type":"Point","coordinates":[14.2337454,52.1667318]},"properties":{"hgv":"no"}},{"type":"Feature","geometry":{"type":"Point","coordinates":[14.2310296,52.1695372]},"properties":{"hgv":"no"}},{"type":"Feature","geometry":{"type":"Point","coordinates":[14.0047458,52.2142671]},"properties":{"maxweight":"30"}},{"type":"Feature","geometry":{"type":"Point","coordinates":[14.5569028,52.3404008]},"properties":{"maxweight":"18"}},{"type":"Feature","geometry":{"type":"Point","coordinates":[14.3839482,52.3213551]},"properties":{"hgv":"official"}},{"type":"Feature","geometry":{"type":"Point","coordinates":[14.3864698,52.3202529]},"properties":{"hgv":"official"}},{"type":"Feature","geometry":{"type":"Point","coordinates":[14.6282866,52.1526803]},"properties":{"hgv":"no"}},{"type":"Feature","geometry":{"type":"Point","coordinates":[14.5877461,52.2269684]},"properties":{"maxheight":"4.5"}},{"type":"Feature","geometry":{"type":"Point","coordinates":[14.4735952,52.3347838]},"properties":{"goods":"yes","maxweight":"2.8"}},{"type":"Feature","geometry":{"type":"Point","coordinates":[14.5509021,52.328782]},"properties":{"maxheight":"default"}},{"type":"Feature","geometry":{"type":"Point","coordinates":[14.5137768,52.3470882]},"properties":{"maxweight":"3.5"}},{"type":"Feature","geometry":{"type":"Point","coordinates":[14.5188716,52.3449845]},"properties":{"maxweight":"7.5"}},{"type":"Feature","geometry":{"type":"Point","coordinates":[14.1240483,52.691049]},"properties":{"maxweight":"7.5"}},{"type":"Feature","geometry":{"type":"Point","coordinates":[14.3342094,52.6569595]},"properties":{"hgv":"no"}},{"type":"Feature","geometry":{"type":"Point","coordinates":[14.276753,52.7237384]},"properties":{"maxweight":"7.5"}},{"type":"Feature","geometry":{"type":"Point","coordinates":[14.3798918,52.6722411]},"properties":{"hgv":"agricultural"}},{"type":"Feature","geometry":{"type":"Point","coordinates":[14.6641941,52.1738301]},"properties":{"hgv":"destination"}},{"type":"Feature","geometry":{"type":"Point","coordinates":[14.6284222,52.5786481]},"properties":{"maxlength":"8","maxweight":"3.5"}},{"type":"Feature","geometry":{"type":"Point","coordinates":[14.5219134,52.3148693]},"properties":{"maxheight":"4"}},{"type":"Feature","geometry":{"type":"Point","coordinates":[14.0162071,52.8182302]},"properties":{"maxweight":"7.5"}},{"type":"Feature","geometry":{"type":"Point","coordinates":[14.0188096,52.7951808]},"properties":{"maxweight":"20"}},{"type":"Feature","geometry":{"type":"Point","coordinates":[14.2396842,52.3055763]},"properties":{"maxweight":"16 t"}},{"type":"Feature","geometry":{"type":"Point","coordinates":[14.6557833,52.1421435]},"properties":{"hgv":"yes"}},{"type":"Feature","geometry":{"type":"Point","coordinates":[14.0290198,52.7870777]},"properties":{"hgv":"delivery"}},{"type":"Feature","geometry":{"type":"Point","coordinates":[14.0254996,52.7879483]},"properties":{"hgv":"delivery"}},{"type":"Feature","geometry":{"type":"Point","coordinates":[14.035749,52.7882127]},"properties":{"hgv":"delivery"}},{"type":"Feature","geometry":{"type":"Point","coordinates":[14.0373549,52.7860776]},"properties":{"maxwidth":"2"}},{"type":"Feature","geometry":{"type":"Point","coordinates":[14.0399303,52.786591]},"properties":{"hgv":"no"}},{"type":"Feature","geometry":{"type":"Point","coordinates":[14.6181505,52.2061251]},"properties":{"hgv":"destination"}},{"type":"Feature","geometry":{"type":"Point","coordinates":[14.0348823,52.9238202]},"properties":{"hgv":"agricultural;forestry;delivery"}},{"type":"Feature","geometry":{"type":"Point","coordinates":[14.013352,52.910451]},"properties":{"hgv":"agricultural;forestry"}},{"type":"Feature","geometry":{"type":"Point","coordinates":[14.5453452,52.2389289]},"properties":{"hgv":"no","maxwidth":"2"}},{"type":"Feature","geometry":{"type":"Point","coordinates":[14.1351969,52.9875579]},"properties":{"hgv":"no","goods":"no"}},{"type":"Feature","geometry":{"type":"Point","coordinates":[14.3260404,52.1701882]},"properties":{"hgv":"destination"}},{"type":"Feature","geometry":{"type":"Point","coordinates":[14.3176194,52.1730203]},"properties":{"hgv":"no"}},{"type":"Feature","geometry":{"type":"Point","coordinates":[14.3291708,52.1674698]},"properties":{"hgv":"destination"}},{"type":"Feature","geometry":{"type":"Point","coordinates":[14.0332419,52.3385176]},"properties":{"maxweight":"1.5"}},{"type":"Feature","geometry":{"type":"Point","coordinates":[14.038661,52.428902]},"properties":{"maxweight":"7.5"}},{"type":"Feature","geometry":{"type":"Point","coordinates":[14.2717259,52.722491]},"properties":{"maxweight":"7.5"}},{"type":"Feature","geometry":{"type":"Point","coordinates":[14.3427532,52.4702718]},"properties":{"hgv":"no"}},{"type":"Feature","geometry":{"type":"Point","coordinates":[14.4279259,52.4770958]},"properties":{"maxweight":"3.5"}},{"type":"Feature","geometry":{"type":"Point","coordinates":[14.4389998,52.4771331]},"properties":{"maxweight":"3.5"}},{"type":"Feature","geometry":{"type":"Point","coordinates":[14.4779541,52.5198342]},"properties":{"hgv":"agricultural"}},{"type":"Feature","geometry":{"type":"Point","coordinates":[14.4168797,52.4646868]},"properties":{"hgv":"delivery"}},{"type":"Feature","geometry":{"type":"Point","coordinates":[14.4877773,52.5310922]},"properties":{"hgv":"no"}},{"type":"Feature","geometry":{"type":"Point","coordinates":[14.0316657,52.7843604]},"properties":{"goods":"no"}},{"type":"Feature","geometry":{"type":"Point","coordinates":[14.2446639,52.3359437]},"properties":{"maxheight":"default"}},{"type":"Feature","geometry":{"type":"Point","coordinates":[14.0231584,52.3241683]},"properties":{"maxheight":"default"}},{"type":"Feature","geometry":{"type":"Point","coordinates":[14.2623384,52.1029094]},"properties":{"hgv":"no"}},{"type":"Feature","geometry":{"type":"Point","coordinates":[14.2629737,52.1043821]},"properties":{"hgv":"no"}},{"type":"Feature","geometry":{"type":"Point","coordinates":[14.1264849,52.9232933]},"properties":{"maxweight":"0"}},{"type":"Feature","geometry":{"type":"Point","coordinates":[14.4707406,52.5740341]},"properties":{"maxweight":"7.5"}},{"type":"Feature","geometry":{"type":"Point","coordinates":[14.0631334,52.3590581]},"properties":{"maxheight":"2"}},{"type":"Feature","geometry":{"type":"Point","coordinates":[14.419148,52.4647472]},"properties":{"hgv":"delivery"}},{"type":"Feature","geometry":{"type":"Point","coordinates":[14.6654672,52.1451004]},"properties":{"hgv":"destination"}},{"type":"Feature","geometry":{"type":"Point","coordinates":[14.6662388,52.1448654]},"properties":{"hgv":"destination"}},{"type":"Feature","geometry":{"type":"Point","coordinates":[14.6671945,52.144588]},"properties":{"hgv":"destination"}},{"type":"Feature","geometry":{"type":"Point","coordinates":[14.6682819,52.1442659]},"properties":{"hgv":"destination"}},{"type":"Feature","geometry":{"type":"Point","coordinates":[14.6667571,52.1458403]},"properties":{"hgv":"destination"}},{"type":"Feature","geometry":{"type":"Point","coordinates":[14.4513526,52.5884129]},"properties":{"maxweight":"7.5"}},{"type":"Feature","geometry":{"type":"Point","coordinates":[14.6295583,52.1417003]},"properties":{"maxheight":"3.2"}},{"type":"Feature","geometry":{"type":"Point","coordinates":[14.6328764,52.1457664]},"properties":{"maxheight":"3.3"}},{"type":"Feature","geometry":{"type":"Point","coordinates":[14.6352929,52.1460485]},"properties":{"maxheight":"3.2"}},{"type":"Feature","geometry":{"type":"Point","coordinates":[14.6322256,52.1436823]},"properties":{"maxheight":"2.4"}},{"type":"Feature","geometry":{"type":"Point","coordinates":[14.6326022,52.1452367]},"properties":{"maxheight":"3.3"}},{"type":"Feature","geometry":{"type":"Point","coordinates":[14.6341894,52.1441367]},"properties":{"maxheight":"3.5"}},{"type":"Feature","geometry":{"type":"Point","coordinates":[14.6227138,52.1472127]},"properties":{"maxheight":"3.2"}},{"type":"Feature","geometry":{"type":"Point","coordinates":[14.623916,52.1486441]},"properties":{"maxheight":"3.5"}},{"type":"Feature","geometry":{"type":"Point","coordinates":[14.6475201,52.1441631]},"properties":{"hgv":"no"}},{"type":"Feature","geometry":{"type":"Point","coordinates":[14.6062805,52.1585595]},"properties":{"hgv":"destination"}},{"type":"Feature","geometry":{"type":"Point","coordinates":[14.0643467,52.1176159]},"properties":{"maxwidth":"1.9","maxlength":"9.5"}},{"type":"Feature","geometry":{"type":"Point","coordinates":[14.157192,52.7929369]},"properties":{"maxweight":"7.5"}},{"type":"Feature","geometry":{"type":"Point","coordinates":[14.1568093,52.7950834]},"properties":{"maxweight":"7.5"}},{"type":"Feature","geometry":{"type":"Point","coordinates":[14.157192,52.7929369]},"properties":{"maxweight":"7.5"}},{"type":"Feature","geometry":{"type":"Point","coordinates":[14.4611729,52.5633635]},"properties":{"maxweight":"3.5"}},{"type":"Feature","geometry":{"type":"Point","coordinates":[14.5420132,52.3207368]},"properties":{"maxheight":"3.5"}},{"type":"Feature","geometry":{"type":"Point","coordinates":[14.5463538,52.2359851]},"properties":{"hgv":"agricultural;forestry"}},{"type":"Feature","geometry":{"type":"Point","coordinates":[14.6250942,52.1676926]},"properties":{"maxheight":"4.75"}},{"type":"Feature","geometry":{"type":"Point","coordinates":[14.6251881,52.1677282]},"properties":{"maxheight":"4.75"}},{"type":"Feature","geometry":{"type":"Point","coordinates":[14.5041666,52.3563786]},"properties":{"maxheight":"4"}},{"type":"Feature","geometry":{"type":"Point","coordinates":[14.5212915,52.3524754]},"properties":{"maxheight":"3.9"}},{"type":"Feature","geometry":{"type":"Point","coordinates":[14.5355579,52.1410945]},"properties":{"maxweight":"3.5"}},{"type":"Feature","geometry":{"type":"Point","coordinates":[14.4815576,52.3493047]},"properties":{"maxheight":"3.4"}},{"type":"Feature","geometry":{"type":"Point","coordinates":[14.5350453,52.4790018]},"properties":{"maxheight":"default"}},{"type":"Feature","geometry":{"type":"Point","coordinates":[14.3860929,52.6543835]},"properties":{"maxweight":"7"}},{"type":"Feature","geometry":{"type":"Point","coordinates":[14.358531,52.6634403]},"properties":{"hgv":"agricultural"}},{"type":"Feature","geometry":{"type":"Point","coordinates":[14.5372153,52.3411174]},"properties":{"maxheight":"1.9"}},{"type":"Feature","geometry":{"type":"Point","coordinates":[14.2616964,52.104493]},"properties":{"hgv":"no"}},{"type":"Feature","geometry":{"type":"Point","coordinates":[14.0376475,52.0354332]},"properties":{"maxweight":"7.5"}},{"type":"Feature","geometry":{"type":"Point","coordinates":[14.0374978,52.0358974]},"properties":{"maxweight":"7.5"}},{"type":"Feature","geometry":{"type":"Point","coordinates":[14.0407424,52.0191742]},"properties":{"maxweight":"7.5"}},{"type":"Feature","geometry":{"type":"Point","coordinates":[14.0331254,52.0307684]},"properties":{"maxweight":"3.5"}},{"type":"Feature","geometry":{"type":"Point","coordinates":[14.5239127,52.3454376]},"properties":{"maxheight":"default"}},{"type":"Feature","geometry":{"type":"Point","coordinates":[14.3212179,52.0385841]},"properties":{"maxweight":"7.5"}},{"type":"Feature","geometry":{"type":"Point","coordinates":[14.3210559,52.0385057]},"properties":{"maxweight":"7.5"}},{"type":"Feature","geometry":{"type":"Point","coordinates":[14.5110314,52.3479386]},"properties":{"maxheight":"below_default"}},{"type":"Feature","geometry":{"type":"Point","coordinates":[14.5099236,52.3478267]},"properties":{"maxheight":"below_default"}},{"type":"Feature","geometry":{"type":"Point","coordinates":[14.5202993,52.3441223]},"properties":{"maxheight":"default"}},{"type":"Feature","geometry":{"type":"Point","coordinates":[14.5188202,52.3462755]},"properties":{"maxheight":"2.9","maxweight":"7.5"}},{"type":"Feature","geometry":{"type":"Point","coordinates":[14.5188704,52.3463809]},"properties":{"maxweight":"7.5"}},{"type":"Feature","geometry":{"type":"Point","coordinates":[14.5213317,52.3429758]},"properties":{"maxheight":"below_default"}},{"type":"Feature","geometry":{"type":"Point","coordinates":[14.5123662,52.3479109]},"properties":{"maxheight":"below_default"}},{"type":"Feature","geometry":{"type":"Point","coordinates":[14.4757718,52.3204561]},"properties":{"maxheight":"default"}},{"type":"Feature","geometry":{"type":"Point","coordinates":[14.4727404,52.3206286]},"properties":{"maxheight":"default"}},{"type":"Feature","geometry":{"type":"Point","coordinates":[14.1898268,52.3428621]},"properties":{"maxheight":"default"}},{"type":"Feature","geometry":{"type":"Point","coordinates":[14.5537771,52.3474834]},"properties":{"hgv":"no"}},{"type":"Feature","geometry":{"type":"Point","coordinates":[14.2583162,52.1676118]},"properties":{"hgv":"agricultural"}},{"type":"Feature","geometry":{"type":"Point","coordinates":[14.4372072,52.4786605]},"properties":{"maxweight":"3.5"}},{"type":"Feature","geometry":{"type":"Point","coordinates":[14.4372698,52.4785821]},"properties":{"maxweight":"3.5"}},{"type":"Feature","geometry":{"type":"Point","coordinates":[14.0656592,52.353795]},"properties":{"maxwidth":"9.40","maxlength":"67.70"}},{"type":"Feature","geometry":{"type":"Point","coordinates":[14.0653659,52.3540891]},"properties":{"maxwidth":"8.54","maxlength":"67.60"}},{"type":"Feature","geometry":{"type":"Point","coordinates":[14.2395494,52.3051307]},"properties":{"maxwidth":"8.54","maxlength":"67.5"}},{"type":"Feature","geometry":{"type":"Point","coordinates":[14.2397151,52.3053799]},"properties":{"maxwidth":"9.80","maxlength":"115"}},{"type":"Feature","geometry":{"type":"Point","coordinates":[14.151182,52.876373]},"properties":{"maxheight":"6.6","maxwidth":"11.90","maxlength":"170"}},{"type":"Feature","geometry":{"type":"Point","coordinates":[14.1505284,52.8738201]},"properties":{"maxheight":"6.2","maxwidth":"11.50","maxlength":"170"}},{"type":"Feature","geometry":{"type":"Point","coordinates":[14.6525682,52.1319485]},"properties":{"maxwidth":"12","maxlength":"127"}},{"type":"Feature","geometry":{"type":"Point","coordinates":[14.6526223,52.1322589]},"properties":{"maxwidth":"12","maxlength":"127"}},{"type":"Feature","geometry":{"type":"Point","coordinates":[14.5381208,52.3513511]},"properties":{"maxheight":"3"}},{"type":"Feature","geometry":{"type":"Point","coordinates":[14.3102251,52.7570753]},"properties":{"maxweight":"3.5"}},{"type":"Feature","geometry":{"type":"Point","coordinates":[14.3099397,52.756512]},"properties":{"maxweight":"3.5"}},{"type":"Feature","geometry":{"type":"Point","coordinates":[14.0037042,52.2141953]},"properties":{"maxwidth":"5.30","maxlength":"34"}},{"type":"Feature","geometry":{"type":"Point","coordinates":[14.0350172,52.3280634]},"properties":{"maxheight":"default"}},{"type":"Feature","geometry":{"type":"Point","coordinates":[14.343368,52.4712024]},"properties":{"hgv":"no"}},{"type":"Feature","geometry":{"type":"Point","coordinates":[14.7333362,52.0162674]},"properties":{"maxweight":"7.5"}},{"type":"Feature","geometry":{"type":"Point","coordinates":[14.6600652,52.1466837]},"properties":{"hgv":"destination"}},{"type":"Feature","geometry":{"type":"Point","coordinates":[14.0636705,52.1178668]},"properties":{"maxwidth":"1.9","maxlength":"9.5"}},{"type":"Feature","geometry":{"type":"Point","coordinates":[14.064142,52.11769]},"properties":{"maxwidth":"1.9","maxlength":"9.5"}},{"type":"Feature","geometry":{"type":"Point","coordinates":[14.023339,52.022947]},"properties":{"maxweight":"3.5"}},{"type":"Feature","geometry":{"type":"Point","coordinates":[14.6548457,52.1323142]},"properties":{"maxheight":"2.3","maxweight":"2.8"}},{"type":"Feature","geometry":{"type":"Point","coordinates":[14.6367895,52.1535903]},"properties":{"maxheight":"2.6"}},{"type":"Feature","geometry":{"type":"Point","coordinates":[14.6520842,52.1277455]},"properties":{"hgv":"no"}},{"type":"Feature","geometry":{"type":"Point","coordinates":[14.4765865,52.2988846]},"properties":{"hgv":"no","goods":"no"}},{"type":"Feature","geometry":{"type":"Point","coordinates":[14.0376475,52.0354332]},"properties":{"maxweight":"3.5"}},{"type":"Feature","geometry":{"type":"Point","coordinates":[14.2845443,52.2628639]},"properties":{"maxwidth":"3","maxlength":"12.6"}},{"type":"Feature","geometry":{"type":"Point","coordinates":[14.2547561,52.1719048]},"properties":{"maxwidth":"5.3","maxlength":"43.5"}},{"type":"Feature","geometry":{"type":"Point","coordinates":[14.2296807,52.2961704]},"properties":{"maxweight":"0.5"}},{"type":"Feature","geometry":{"type":"Point","coordinates":[14.2218296,52.337212]},"properties":{"hgv":"designated"}},{"type":"Feature","geometry":{"type":"Point","coordinates":[14.2218455,52.3362786]},"properties":{"hgv":"designated"}},{"type":"Feature","geometry":{"type":"Point","coordinates":[14.0763543,52.7676731]},"properties":{"maxheight":"3.5"}},{"type":"Feature","geometry":{"type":"Point","coordinates":[14.439008,52.4795181]},"properties":{"maxweight":"3.5"}},{"type":"Feature","geometry":{"type":"Point","coordinates":[14.0103458,52.0973197]},"properties":{"maxweight":"3.5"}},{"type":"Feature","geometry":{"type":"Point","coordinates":[14.0079226,52.0961755]},"properties":{"maxweight":"3.5"}},{"type":"Feature","geometry":{"type":"Point","coordinates":[14.1464365,52.0619385]},"properties":{"hgv":"destination"}},{"type":"Feature","geometry":{"type":"Point","coordinates":[14.1493337,52.8722004]},"properties":{"maxweight":"3.5"}},{"type":"Feature","geometry":{"type":"Point","coordinates":[14.1796247,52.0816177]},"properties":{"maxweight":"6"}},{"type":"Feature","geometry":{"type":"Point","coordinates":[14.0410997,52.8651936]},"properties":{"hgv":"no"}},{"type":"Feature","geometry":{"type":"Point","coordinates":[14.122913,52.8432299]},"properties":{"maxheight":"default","maxweight":"7.5"}},{"type":"Feature","geometry":{"type":"Point","coordinates":[14.0336248,52.7846339]},"properties":{"hgv":"delivery"}},{"type":"Feature","geometry":{"type":"Point","coordinates":[14.0317679,52.7858496]},"properties":{"hgv":"delivery"}},{"type":"Feature","geometry":{"type":"Point","coordinates":[14.0203456,52.1120894]},"properties":{"maxwidth":"1.9","maxlength":"9.5"}},{"type":"Feature","geometry":{"type":"Point","coordinates":[14.1953725,52.0212424]},"properties":{"maxweight":"7.5"}},{"type":"Feature","geometry":{"type":"Point","coordinates":[14.1484464,52.8714586]},"properties":{"maxweight":"3.5"}},{"type":"Feature","geometry":{"type":"Point","coordinates":[14.1007414,52.1067111]},"properties":{"maxwidth":"1.9","maxlength":"9.5"}},{"type":"Feature","geometry":{"type":"Point","coordinates":[14.2509294,52.2003258]},"properties":{"maxheight":"4"}},{"type":"Feature","geometry":{"type":"Point","coordinates":[14.0669264,52.2658239]},"properties":{"hgv":"no"}},{"type":"Feature","geometry":{"type":"Point","coordinates":[14.1219345,52.8433463]},"properties":{"maxweight":"7.5"}},{"type":"Feature","geometry":{"type":"Point","coordinates":[14.0012017,52.908415]},"properties":{"hgv":"agricultural;forestry"}},{"type":"Feature","geometry":{"type":"Point","coordinates":[14.5545423,52.3476586]},"properties":{"hgv":"no"}},{"type":"Feature","geometry":{"type":"Point","coordinates":[14.5560186,52.3481552]},"properties":{"hgv":"no"}},{"type":"Feature","geometry":{"type":"Point","coordinates":[14.5575387,52.3486702]},"properties":{"hgv":"no"}},{"type":"Feature","geometry":{"type":"Point","coordinates":[14.3502806,52.3221697]},"properties":{"maxheight":"default"}},{"type":"Feature","geometry":{"type":"Point","coordinates":[14.3528994,52.3219477]},"properties":{"maxheight":"default"}},{"type":"Feature","geometry":{"type":"Point","coordinates":[14.0380141,52.0377049]},"properties":{"maxweight":"7.5"}},{"type":"Feature","geometry":{"type":"Point","coordinates":[14.0367991,52.0344183]},"properties":{"maxweight":"3.5"}},{"type":"Feature","geometry":{"type":"Point","coordinates":[14.0157901,52.0995744]},"properties":{"maxweight":"3.5"}},{"type":"Feature","geometry":{"type":"Point","coordinates":[14.0209842,52.1043988]},"properties":{"maxweight":"3.5"}},{"type":"Feature","geometry":{"type":"Point","coordinates":[14.0227169,52.102697]},"properties":{"maxweight":"3.5"}},{"type":"Feature","geometry":{"type":"Point","coordinates":[14.4662773,52.5768093]},"properties":{"maxweight":"7.5"}},{"type":"Feature","geometry":{"type":"Point","coordinates":[14.4703905,52.5742518]},"properties":{"maxweight":"7.5"}},{"type":"Feature","geometry":{"type":"Point","coordinates":[14.730777,52.0171515]},"properties":{"maxweight":"7.5"}},{"type":"Feature","geometry":{"type":"Point","coordinates":[14.7312661,52.0169588]},"properties":{"maxweight":"7.5"}},{"type":"Feature","geometry":{"type":"Point","coordinates":[14.6083943,52.1556009]},"properties":{"hgv":"destination"}},{"type":"Feature","geometry":{"type":"Point","coordinates":[14.6689801,52.1440626]},"properties":{"hgv":"destination"}},{"type":"Feature","geometry":{"type":"Point","coordinates":[14.5760927,52.2642741]},"properties":{"maxheight":"default"}},{"type":"Feature","geometry":{"type":"Point","coordinates":[14.4764872,52.4301711]},"properties":{"maxheight":"3.8"}},{"type":"Feature","geometry":{"type":"Point","coordinates":[14.430983,52.3204005]},"properties":{"maxheight":"default"}},{"type":"Feature","geometry":{"type":"Point","coordinates":[14.4571681,52.3206895]},"properties":{"maxheight":"default"}},{"type":"Feature","geometry":{"type":"Point","coordinates":[14.0591971,52.3661039]},"properties":{"maxheight":"default"}},{"type":"Feature","geometry":{"type":"Point","coordinates":[14.543775,52.3369452]},"properties":{"maxheight":"3.9"}},{"type":"Feature","geometry":{"type":"Point","coordinates":[14.0646792,52.3589566]},"properties":{"maxheight":"2.1"}},{"type":"Feature","geometry":{"type":"Point","coordinates":[14.5535587,52.3423511]},"properties":{"maxheight":"3.4"}},{"type":"Feature","geometry":{"type":"Point","coordinates":[14.5534261,52.3423511]},"properties":{"maxheight":"3.4"}},{"type":"Feature","geometry":{"type":"Point","coordinates":[14.421245,52.320429]},"properties":{"maxheight":"default"}},{"type":"Feature","geometry":{"type":"Point","coordinates":[14.2468195,52.3356141]},"properties":{"maxheight":"default"}},{"type":"Feature","geometry":{"type":"Point","coordinates":[14.3823359,52.3208758]},"properties":{"maxheight":"default"}},{"type":"Feature","geometry":{"type":"Point","coordinates":[14.3824164,52.320991]},"properties":{"maxheight":"default"}},{"type":"Feature","geometry":{"type":"Point","coordinates":[14.1914632,52.3426149]},"properties":{"maxheight":"default"}},{"type":"Feature","geometry":{"type":"Point","coordinates":[14.2712056,52.3282993]},"properties":{"maxheight":"default"}},{"type":"Feature","geometry":{"type":"Point","coordinates":[14.2705259,52.3283579]},"properties":{"maxheight":"default"}},{"type":"Feature","geometry":{"type":"Point","coordinates":[14.3912339,52.3204796]},"properties":{"maxheight":"default"}},{"type":"Feature","geometry":{"type":"Point","coordinates":[14.1048429,52.7447558]},"properties":{"hgv":"no"}},{"type":"Feature","geometry":{"type":"Point","coordinates":[14.1360696,52.4418953]},"properties":{"hgv":"yes"}},{"type":"Feature","geometry":{"type":"Point","coordinates":[14.3843242,52.5288697]},"properties":{"maxheight":"2.7"}},{"type":"Feature","geometry":{"type":"Point","coordinates":[14.4882297,52.3529985]},"properties":{"maxweight":"7.5"}},{"type":"Feature","geometry":{"type":"Point","coordinates":[14.3842712,52.5289891]},"properties":{"maxheight":"2.7"}},{"type":"Feature","geometry":{"type":"Point","coordinates":[14.5516676,52.3425653]},"properties":{"maxheight":"2"}},{"type":"Feature","geometry":{"type":"Point","coordinates":[14.5530629,52.3425042]},"properties":{"maxheight":"1.8"}},{"type":"Feature","geometry":{"type":"Point","coordinates":[14.3800946,52.5323191]},"properties":{"maxweight":"7.5"}},{"type":"Feature","geometry":{"type":"Point","coordinates":[14.3213372,52.0385875]},"properties":{"maxweight":"7.5"}},{"type":"Feature","geometry":{"type":"Point","coordinates":[14.0359048,52.7833568]},"properties":{"hgv":"delivery"}},{"type":"Feature","geometry":{"type":"Point","coordinates":[14.5727308,52.26477]},"properties":{"maxweight":"100"}},{"type":"Feature","geometry":{"type":"Point","coordinates":[14.5578347,52.3487359]},"properties":{"hgv":"no"}},{"type":"Feature","geometry":{"type":"Point","coordinates":[14.5163068,52.3440475]},"properties":{"maxlength":"10"}},{"type":"Feature","geometry":{"type":"Point","coordinates":[14.5153233,52.3457772]},"properties":{"maxweight":"7.5"}},{"type":"Feature","geometry":{"type":"Point","coordinates":[14.3745774,52.1079874]},"properties":{"maxheight":"2"}},{"type":"Feature","geometry":{"type":"Point","coordinates":[14.5198021,52.3500452]},"properties":{"maxheight":"default"}},{"type":"Feature","geometry":{"type":"Point","coordinates":[14.5183462,52.3488272]},"properties":{"goods":"delivery"}},{"type":"Feature","geometry":{"type":"Point","coordinates":[14.5534223,52.3424884]},"properties":{"maxheight":"3.4"}},{"type":"Feature","geometry":{"type":"Point","coordinates":[14.5260933,52.3613275]},"properties":{"maxheight":"2.9"}},{"type":"Feature","geometry":{"type":"Point","coordinates":[14.5258543,52.3612937]},"properties":{"maxheight":"2.9"}},{"type":"Feature","geometry":{"type":"Point","coordinates":[14.5312956,52.3237951]},"properties":{"maxheight":"default"}},{"type":"Feature","geometry":{"type":"Point","coordinates":[14.5511559,52.3427249]},"properties":{"maxheight":"default"}},{"type":"Feature","geometry":{"type":"Point","coordinates":[14.550924,52.342727]},"properties":{"maxheight":"default"}},{"type":"Feature","geometry":{"type":"Point","coordinates":[14.5198077,52.3499925]},"properties":{"maxheight":"default"}},{"type":"Feature","geometry":{"type":"Point","coordinates":[14.5197984,52.3501009]},"properties":{"maxheight":"default"}},{"type":"Feature","geometry":{"type":"Point","coordinates":[14.6052638,52.5655711]},"properties":{"maxweight":"7.5"}},{"type":"Feature","geometry":{"type":"Point","coordinates":[14.5143366,52.3466116]},"properties":{"maxweight":"3.5"}},{"type":"Feature","geometry":{"type":"Point","coordinates":[14.217517,52.1089182]},"properties":{"maxweight":"2.5"}},{"type":"Feature","geometry":{"type":"Point","coordinates":[14.5538961,52.3474382]},"properties":{"hgv":"no"}},{"type":"Feature","geometry":{"type":"Point","coordinates":[14.5204912,52.352088]},"properties":{"maxheight":"3.9"}},{"type":"Feature","geometry":{"type":"Point","coordinates":[14.5209863,52.3523277]},"properties":{"maxheight":"3.9"}},{"type":"Feature","geometry":{"type":"Point","coordinates":[14.0378482,52.024762]},"properties":{"maxweight":"3.5"}},{"type":"Feature","geometry":{"type":"Point","coordinates":[14.4397054,52.4790854]},"properties":{"maxweight":"3.5"}},{"type":"Feature","geometry":{"type":"Point","coordinates":[14.4107881,52.5194576]},"properties":{"maxheight":"default"}},{"type":"Feature","geometry":{"type":"Point","coordinates":[14.0226366,52.1025717]},"properties":{"maxweight":"3.5"}},{"type":"Feature","geometry":{"type":"Point","coordinates":[14.5401553,52.3399326]},"properties":{"maxheight":"4"}},{"type":"Feature","geometry":{"type":"Point","coordinates":[14.5402445,52.3399385]},"properties":{"maxheight":"4"}},{"type":"Feature","geometry":{"type":"Point","coordinates":[14.5302406,52.3435982]},"properties":{"maxheight":"4"}},{"type":"Feature","geometry":{"type":"Point","coordinates":[14.529976,52.3436533]},"properties":{"maxheight":"4"}},{"type":"Feature","geometry":{"type":"Point","coordinates":[14.3890768,52.5644676]},"properties":{"maxheight":"3.9"}},{"type":"Feature","geometry":{"type":"Point","coordinates":[14.3941935,52.5425216]},"properties":{"maxheight":"3.5"}},{"type":"Feature","geometry":{"type":"Point","coordinates":[14.1035755,52.6914469]},"properties":{"maxweight":"7.5"}},{"type":"Feature","geometry":{"type":"Point","coordinates":[14.0275026,52.7866874]},"properties":{"hgv":"delivery"}},{"type":"Feature","geometry":{"type":"Point","coordinates":[14.0075616,52.9093712]},"properties":{"hgv":"agricultural;forestry"}},{"type":"Feature","geometry":{"type":"Point","coordinates":[14.0101827,52.9099083]},"properties":{"hgv":"agricultural;forestry"}},{"type":"Feature","geometry":{"type":"Point","coordinates":[14.1251206,52.3599735]},"properties":{"maxheight":"1.5"}},{"type":"Feature","geometry":{"type":"Point","coordinates":[14.630271,52.1433839]},"properties":{"maxheight":"2.9"}},{"type":"Feature","geometry":{"type":"Point","coordinates":[14.0409372,52.8071113]},"properties":{"maxweight":"7.5"}},{"type":"Feature","geometry":{"type":"Point","coordinates":[14.0078259,52.8284525]},"properties":{"maxweight":"7.5"}},{"type":"Feature","geometry":{"type":"Point","coordinates":[14.2592502,52.1670806]},"properties":{"hgv":"delivery"}},{"type":"Feature","geometry":{"type":"Point","coordinates":[14.3144534,52.3234802]},"properties":{"maxheight":"default"}},{"type":"Feature","geometry":{"type":"Point","coordinates":[14.3153673,52.3233408]},"properties":{"maxheight":"default"}},{"type":"Feature","geometry":{"type":"Point","coordinates":[14.0403038,52.7949891]},"properties":{"hgv":"no"}},{"type":"Feature","geometry":{"type":"Point","coordinates":[14.0411987,52.7949477]},"properties":{"hgv":"no"}},{"type":"Feature","geometry":{"type":"Point","coordinates":[14.1219225,52.8445846]},"properties":{"maxweight":"7.5"}},{"type":"Feature","geometry":{"type":"Point","coordinates":[14.0408365,52.7946585]},"properties":{"hgv":"no"}},{"type":"Feature","geometry":{"type":"Point","coordinates":[14.5552594,52.337174]},"properties":{"maxheight":"2.9"}},{"type":"Feature","geometry":{"type":"Point","coordinates":[14.5542658,52.3474963]},"properties":{"hgv":"no"}},{"type":"Feature","geometry":{"type":"Point","coordinates":[14.0489256,52.86393]},"properties":{"hgv":"no"}},{"type":"Feature","geometry":{"type":"Point","coordinates":[14.134194,52.4439339]},"properties":{"hgv":"yes"}},{"type":"Feature","geometry":{"type":"Point","coordinates":[14.0675049,52.1185301]},"properties":{"maxweight":"12 t"}},{"type":"Feature","geometry":{"type":"Point","coordinates":[14.5158937,52.3468942]},"properties":{"maxweight":"7.5"}},{"type":"Feature","geometry":{"type":"Point","coordinates":[14.5156093,52.3465124]},"properties":{"maxweight":"7.5"}},{"type":"Feature","geometry":{"type":"Point","coordinates":[14.5151536,52.3451288]},"properties":{"maxweight":"7.5"}},{"type":"Feature","geometry":{"type":"Point","coordinates":[14.5170923,52.3445658]},"properties":{"maxlength":"10"}},{"type":"Feature","geometry":{"type":"Point","coordinates":[14.5049417,52.3576007]},"properties":{"maxheight":"default"}},{"type":"Feature","geometry":{"type":"Point","coordinates":[14.1242542,52.849727]},"properties":{"maxweight":"7.5"}},{"type":"Feature","geometry":{"type":"Point","coordinates":[14.1229644,52.8460973]},"properties":{"maxweight":"7.5"}},{"type":"Feature","geometry":{"type":"Point","coordinates":[14.0326307,52.7889944]},"properties":{"hgv":"delivery"}},{"type":"Feature","geometry":{"type":"Point","coordinates":[14.0339185,52.784422]},"properties":{"hgv":"delivery"}},{"type":"Feature","geometry":{"type":"Point","coordinates":[14.0171467,52.7868084]},"properties":{"hgv":"delivery"}},{"type":"Feature","geometry":{"type":"Point","coordinates":[14.3263203,52.5829801]},"properties":{"maxweight":"9"}},{"type":"Feature","geometry":{"type":"Point","coordinates":[14.5511532,52.3290128]},"properties":{"maxheight":"default"}},{"type":"Feature","geometry":{"type":"Point","coordinates":[14.077611,52.7683539]},"properties":{"maxheight":"3.5"}},{"type":"Feature","geometry":{"type":"Point","coordinates":[14.5426395,52.3513197]},"properties":{"maxheight":"below_default"}},{"type":"Feature","geometry":{"type":"Point","coordinates":[14.4763773,52.2468111]},"properties":{"hgv":"no"}},{"type":"Feature","geometry":{"type":"Point","coordinates":[14.4702451,52.5291948]},"properties":{"hgv":"no"}},{"type":"Feature","geometry":{"type":"Point","coordinates":[14.0189842,52.9131345]},"properties":{"hgv":"agricultural;forestry"}},{"type":"Feature","geometry":{"type":"Point","coordinates":[14.0269036,52.9183086]},"properties":{"hgv":"agricultural;forestry"}},{"type":"Feature","geometry":{"type":"Point","coordinates":[14.0371109,52.928312]},"properties":{"hgv":"agricultural;forestry;delivery"}},{"type":"Feature","geometry":{"type":"Point","coordinates":[14.028409,52.9210827]},"properties":{"hgv":"agricultural;forestry;delivery"}},{"type":"Feature","geometry":{"type":"Point","coordinates":[14.0344659,52.7840678]},"properties":{"hgv":"delivery"}},{"type":"Feature","geometry":{"type":"Point","coordinates":[14.0350074,52.7837772]},"properties":{"hgv":"delivery"}},{"type":"Feature","geometry":{"type":"Point","coordinates":[14.5233997,52.3292332]},"properties":{"maxweight":"3.5"}},{"type":"Feature","geometry":{"type":"Point","coordinates":[14.0449303,52.8657873]},"properties":{"hgv":"no"}},{"type":"Feature","geometry":{"type":"Point","coordinates":[14.3989223,52.6504013]},"properties":{"maxweight":"7"}},{"type":"Feature","geometry":{"type":"Point","coordinates":[14.0441575,52.8656984]},"properties":{"hgv":"no"}},{"type":"Feature","geometry":{"type":"Point","coordinates":[14.0444565,52.8657843]},"properties":{"hgv":"no"}},{"type":"Feature","geometry":{"type":"Point","coordinates":[14.0435086,52.8654957]},"properties":{"hgv":"no"}},{"type":"Feature","geometry":{"type":"Point","coordinates":[14.0398217,52.8650205]},"properties":{"hgv":"no"}},{"type":"Feature","geometry":{"type":"Point","coordinates":[14.0426923,52.8653301]},"properties":{"hgv":"no"}},{"type":"Feature","geometry":{"type":"Point","coordinates":[14.0393418,52.864982]},"properties":{"hgv":"no"}},{"type":"Feature","geometry":{"type":"Point","coordinates":[14.0391116,52.8649902]},"properties":{"hgv":"no"}},{"type":"Feature","geometry":{"type":"Point","coordinates":[14.7320702,52.0166274]},"properties":{"maxweight":"7.5"}},{"type":"Feature","geometry":{"type":"Point","coordinates":[14.3266435,52.1691799]},"properties":{"hgv":"destination"}},{"type":"Feature","geometry":{"type":"Point","coordinates":[14.0302248,52.7874764]},"properties":{"hgv":"delivery"}},{"type":"Feature","geometry":{"type":"Point","coordinates":[14.1558558,52.796317]},"properties":{"maxweight":"7.5"}},{"type":"Feature","geometry":{"type":"Point","coordinates":[14.0765604,52.7677745]},"properties":{"maxheight":"3.5"}},{"type":"Feature","geometry":{"type":"Point","coordinates":[14.067525,52.3376112]},"properties":{"hgv":"yes","maxlength":"25","maxweight":"3"}},{"type":"Feature","geometry":{"type":"Point","coordinates":[14.2613305,52.1034485]},"properties":{"hgv":"no"}},{"type":"Feature","geometry":{"type":"Point","coordinates":[14.2612555,52.1039172]},"properties":{"hgv":"no"}},{"type":"Feature","geometry":{"type":"Point","coordinates":[14.5424983,52.3370478]},"properties":{"maxheight":"2.2"}},{"type":"Feature","geometry":{"type":"Point","coordinates":[14.1416277,52.2310813]},"properties":{"maxweight":"7.5"}},{"type":"Feature","geometry":{"type":"Point","coordinates":[14.4333679,52.1829273]},"properties":{"hgv":"no"}},{"type":"Feature","geometry":{"type":"Point","coordinates":[14.5333578,52.1425376]},"properties":{"maxweight":"3.5"}},{"type":"Feature","geometry":{"type":"Point","coordinates":[14.2126105,52.0141363]},"properties":{"maxweight":"7.5"}},{"type":"Feature","geometry":{"type":"Point","coordinates":[14.2127778,52.014015]},"properties":{"maxweight":"7.5"}},{"type":"Feature","geometry":{"type":"Point","coordinates":[14.4689272,52.3291932]},"properties":{"goods":"yes"}},{"type":"Feature","geometry":{"type":"Point","coordinates":[14.4166623,52.4646783]},"properties":{"hgv":"delivery"}},{"type":"Feature","geometry":{"type":"Point","coordinates":[14.3783358,52.5321619]},"properties":{"maxweight":"7.5"}},{"type":"Feature","geometry":{"type":"Point","coordinates":[14.3212113,52.5035711]},"properties":{"hgv":"destination"}},{"type":"Feature","geometry":{"type":"Point","coordinates":[14.2626811,52.1042178]},"properties":{"hgv":"no"}}]}