{"type":"FeatureCollection","features":[{"type":"Feature","geometry":{"type":"Point","coordinates":[14.0080605,54.0291044]},"properties":{"maxwidth":"1"}},{"type":"Feature","geometry":{"type":"Point","coordinates":[14.0144289,54.0447623]},"properties":{"maxwidth":"0.8"}},{"type":"Feature","geometry":{"type":"Point","coordinates":[14.0153391,54.0449434]},"properties":{"maxwidth":"0.8"}},{"type":"Feature","geometry":{"type":"Point","coordinates":[14.0479525,54.0132631]},"properties":{"hgv":"no"}},{"type":"Feature","geometry":{"type":"Point","coordinates":[14.0194442,54.0369572]},"properties":{"maxweight":"3.5"}},{"type":"Feature","geometry":{"type":"Point","coordinates":[14.0228747,54.0371519]},"properties":{"hgv":"no"}},{"type":"Feature","geometry":{"type":"Point","coordinates":[14.0463278,54.0056287]},"properties":{"maxweight":"7.5"}},{"type":"Feature","geometry":{"type":"Point","coordinates":[14.0196906,54.0372327]},"properties":{"maxweight":"3.5"}},{"type":"Feature","geometry":{"type":"Point","coordinates":[14.0350557,54.0306826]},"properties":{"maxweight":"8"}},{"type":"Feature","geometry":{"type":"Point","coordinates":[14.0293492,54.0317542]},"properties":{"maxweight":"8"}},{"type":"Feature","geometry":{"type":"Point","coordinates":[14.0431935,54.0126435]},"properties":{"maxweight":"7.5"}},{"type":"Feature","geometry":{"type":"Point","coordinates":[14.0297365,54.0417444]},"properties":{"maxweight":"3.5"}},{"type":"Feature","geometry":{"type":"Point","coordinates":[14.0317355,54.0306502]},"properties":{"maxweight":"8"}}]}