{"type":"FeatureCollection","features":[{"type":"Feature","geometry":{"type":"Point","coordinates":[14.0804798,50.9537241]},"properties":{"maxheight":"4"}},{"type":"Feature","geometry":{"type":"Point","coordinates":[14.1362123,50.922218]},"properties":{"maxheight":"6.5"}},{"type":"Feature","geometry":{"type":"Point","coordinates":[14.0766568,50.956332]},"properties":{"maxheight":"4"}},{"type":"Feature","geometry":{"type":"Point","coordinates":[14.0823609,50.9475867]},"properties":{"maxheight":"4"}},{"type":"Feature","geometry":{"type":"Point","coordinates":[14.034147,50.954287]},"properties":{"maxheight":"default"}},{"type":"Feature","geometry":{"type":"Point","coordinates":[14.6186281,50.9347814]},"properties":{"maxwidth":"1"}},{"type":"Feature","geometry":{"type":"Point","coordinates":[14.0720159,50.9179221]},"properties":{"maxwidth":"2.2"}},{"type":"Feature","geometry":{"type":"Point","coordinates":[14.7089666,50.9148245]},"properties":{"maxheight":"2.5"}},{"type":"Feature","geometry":{"type":"Point","coordinates":[14.7087772,50.9682451]},"properties":{"maxheight":"3.8"}},{"type":"Feature","geometry":{"type":"Point","coordinates":[14.8004508,50.9253714]},"properties":{"maxweight":"2.5"}},{"type":"Feature","geometry":{"type":"Point","coordinates":[14.0342152,50.954264]},"properties":{"maxheight":"default"}},{"type":"Feature","geometry":{"type":"Point","coordinates":[14.0766262,50.9563016]},"properties":{"maxheight":"4"}},{"type":"Feature","geometry":{"type":"Point","coordinates":[14.0804277,50.9537045]},"properties":{"maxheight":"4"}},{"type":"Feature","geometry":{"type":"Point","coordinates":[14.0823046,50.9475905]},"properties":{"maxheight":"4"}},{"type":"Feature","geometry":{"type":"Point","coordinates":[14.6298917,50.8808948]},"properties":{"maxwidth":"1.2"}},{"type":"Feature","geometry":{"type":"Point","coordinates":[14.286046,50.9604032]},"properties":{"maxweight":"3.5"}},{"type":"Feature","geometry":{"type":"Point","coordinates":[14.1315586,50.9230452]},"properties":{"maxheight":"7.3"}},{"type":"Feature","geometry":{"type":"Point","coordinates":[14.1683754,50.9109215]},"properties":{"maxwidth":"2.2"}},{"type":"Feature","geometry":{"type":"Point","coordinates":[14.3598391,50.924871]},"properties":{"maxwidth":"1.80"}},{"type":"Feature","geometry":{"type":"Point","coordinates":[14.8134981,50.8888041]},"properties":{"maxheight":"1.5","maxwidth":"4"}},{"type":"Feature","geometry":{"type":"Point","coordinates":[14.2779388,50.9788362]},"properties":{"maxheight":"3.0"}},{"type":"Feature","geometry":{"type":"Point","coordinates":[14.6633491,50.8955073]},"properties":{"maxwidth":"3"}},{"type":"Feature","geometry":{"type":"Point","coordinates":[14.6627687,50.8951627]},"properties":{"maxheight":"0.75","maxwidth":"3"}},{"type":"Feature","geometry":{"type":"Point","coordinates":[14.6261661,50.9074173]},"properties":{"maxwidth":"1"}},{"type":"Feature","geometry":{"type":"Point","coordinates":[14.6261378,50.9074273]},"properties":{"maxwidth":"1"}},{"type":"Feature","geometry":{"type":"Point","coordinates":[14.6729895,50.8955454]},"properties":{"maxwidth":"1.2"}},{"type":"Feature","geometry":{"type":"Point","coordinates":[14.2443185,50.9288229]},"properties":{"maxheight":"default"}},{"type":"Feature","geometry":{"type":"Point","coordinates":[14.6438961,50.9027247]},"properties":{"maxheight":"3.0"}},{"type":"Feature","geometry":{"type":"Point","coordinates":[14.6804453,50.8970439]},"properties":{"maxheight":"2"}},{"type":"Feature","geometry":{"type":"Point","coordinates":[14.2443077,50.9288098]},"properties":{"maxheight":"default"}},{"type":"Feature","geometry":{"type":"Point","coordinates":[14.6494117,50.8685674]},"properties":{"maxheight":"1","maxwidth":"3"}},{"type":"Feature","geometry":{"type":"Point","coordinates":[14.0750531,50.9189984]},"properties":{"hgv":"no"}},{"type":"Feature","geometry":{"type":"Point","coordinates":[14.1539695,50.9168142]},"properties":{"maxheight":"2"}},{"type":"Feature","geometry":{"type":"Point","coordinates":[14.0554813,50.9189799]},"properties":{"maxweight":"4.5"}},{"type":"Feature","geometry":{"type":"Point","coordinates":[14.8069394,50.8978203]},"properties":{"maxheight":"2.1"}},{"type":"Feature","geometry":{"type":"Point","coordinates":[14.87828,50.9379612]},"properties":{"maxheight":"4.5"}},{"type":"Feature","geometry":{"type":"Point","coordinates":[14.8783552,50.9380335]},"properties":{"maxheight":"4.5"}},{"type":"Feature","geometry":{"type":"Point","coordinates":[14.7092291,50.9681336]},"properties":{"maxheight":"3.8"}},{"type":"Feature","geometry":{"type":"Point","coordinates":[14.6890071,50.9369294]},"properties":{"maxheight":"3.6"}},{"type":"Feature","geometry":{"type":"Point","coordinates":[14.1387346,50.9097448]},"properties":{"hgv":"no"}},{"type":"Feature","geometry":{"type":"Point","coordinates":[14.6438613,50.9026341]},"properties":{"maxheight":"3.0"}},{"type":"Feature","geometry":{"type":"Point","coordinates":[14.6451291,50.9041298]},"properties":{"maxheight":"3.0"}},{"type":"Feature","geometry":{"type":"Point","coordinates":[14.1505001,50.9175682]},"properties":{"maxheight":"2.2"}},{"type":"Feature","geometry":{"type":"Point","coordinates":[14.1504722,50.9175369]},"properties":{"maxheight":"1.9"}},{"type":"Feature","geometry":{"type":"Point","coordinates":[14.2354843,50.8862757]},"properties":{"maxweight":"12"}},{"type":"Feature","geometry":{"type":"Point","coordinates":[14.1381046,50.9226399]},"properties":{"maxweight":"7.5"}},{"type":"Feature","geometry":{"type":"Point","coordinates":[14.703394,50.8482466]},"properties":{"maxwidth":"2"}},{"type":"Feature","geometry":{"type":"Point","coordinates":[14.7082193,50.8334387]},"properties":{"hgv":"no"}},{"type":"Feature","geometry":{"type":"Point","coordinates":[14.7655227,50.8197071]},"properties":{"hgv":"no"}},{"type":"Feature","geometry":{"type":"Point","coordinates":[14.6781557,50.8956353]},"properties":{"maxweight":"7.5"}},{"type":"Feature","geometry":{"type":"Point","coordinates":[14.6766112,50.8966531]},"properties":{"maxweight":"5.5"}},{"type":"Feature","geometry":{"type":"Point","coordinates":[14.8025715,50.8967181]},"properties":{"maxweight":"7.5"}},{"type":"Feature","geometry":{"type":"Point","coordinates":[14.8037619,50.8968506]},"properties":{"maxweight":"7.5"}},{"type":"Feature","geometry":{"type":"Point","coordinates":[14.7480894,50.9137595]},"properties":{"maxweight":"5"}},{"type":"Feature","geometry":{"type":"Point","coordinates":[14.8086118,50.895459]},"properties":{"maxweight":"7.5"}},{"type":"Feature","geometry":{"type":"Point","coordinates":[14.7861878,50.9951019]},"properties":{"hgv":"no"}},{"type":"Feature","geometry":{"type":"Point","coordinates":[14.7948661,50.8989885]},"properties":{"maxweight":"2.8"}},{"type":"Feature","geometry":{"type":"Point","coordinates":[14.6502964,50.9044852]},"properties":{"maxweight":"7.5"}},{"type":"Feature","geometry":{"type":"Point","coordinates":[14.8236164,50.8974006]},"properties":{"maxweight":"7.5"}},{"type":"Feature","geometry":{"type":"Point","coordinates":[14.6610022,50.8991207]},"properties":{"maxweight":"10"}},{"type":"Feature","geometry":{"type":"Point","coordinates":[14.8052003,50.8959293]},"properties":{"maxweight":"7.5"}},{"type":"Feature","geometry":{"type":"Point","coordinates":[14.7025154,50.9033018]},"properties":{"hgv":"no"}},{"type":"Feature","geometry":{"type":"Point","coordinates":[14.742251,50.9217134]},"properties":{"maxweight":"3.5"}},{"type":"Feature","geometry":{"type":"Point","coordinates":[14.6887956,50.8905488]},"properties":{"maxweight":"24"}},{"type":"Feature","geometry":{"type":"Point","coordinates":[14.8009866,50.8959985]},"properties":{"maxweight":"7.5"}},{"type":"Feature","geometry":{"type":"Point","coordinates":[14.2361493,50.8741583]},"properties":{"maxweight":"49"}},{"type":"Feature","geometry":{"type":"Point","coordinates":[14.8111776,50.8926045]},"properties":{"maxweight":"10"}},{"type":"Feature","geometry":{"type":"Point","coordinates":[14.1624574,50.941658]},"properties":{"maxweight":"3.5"}},{"type":"Feature","geometry":{"type":"Point","coordinates":[14.3606632,50.9227433]},"properties":{"hgv":"no"}},{"type":"Feature","geometry":{"type":"Point","coordinates":[14.7568686,50.9159204]},"properties":{"maxheight":"3.5"}},{"type":"Feature","geometry":{"type":"Point","coordinates":[14.072436,50.9161889]},"properties":{"maxweight":"3.5"}},{"type":"Feature","geometry":{"type":"Point","coordinates":[14.1857574,50.9455534]},"properties":{"maxheight":"default"}},{"type":"Feature","geometry":{"type":"Point","coordinates":[14.2610942,50.966742]},"properties":{"maxwidth":"2"}},{"type":"Feature","geometry":{"type":"Point","coordinates":[14.3414236,50.9270763]},"properties":{"maxweight":"2.8"}},{"type":"Feature","geometry":{"type":"Point","coordinates":[14.1607592,50.9452417]},"properties":{"maxweight":"3.5"}},{"type":"Feature","geometry":{"type":"Point","coordinates":[14.8156684,50.8984597]},"properties":{"maxheight":"2.6"}},{"type":"Feature","geometry":{"type":"Point","coordinates":[14.0696014,50.9143769]},"properties":{"maxweight":"12"}},{"type":"Feature","geometry":{"type":"Point","coordinates":[14.2663536,50.9750918]},"properties":{"hgv":"no"}},{"type":"Feature","geometry":{"type":"Point","coordinates":[14.7971201,50.9034301]},"properties":{"maxweight":"2.8"}},{"type":"Feature","geometry":{"type":"Point","coordinates":[14.8166217,50.8990897]},"properties":{"maxweight":"16"}},{"type":"Feature","geometry":{"type":"Point","coordinates":[14.801495,50.896212]},"properties":{"maxweight":"7.5"}},{"type":"Feature","geometry":{"type":"Point","coordinates":[14.6940764,50.8570506]},"properties":{"maxwidth":"7.5","maxweight":"3.5"}},{"type":"Feature","geometry":{"type":"Point","coordinates":[14.6987401,50.8517514]},"properties":{"maxweight":"12"}},{"type":"Feature","geometry":{"type":"Point","coordinates":[14.6533772,50.873453]},"properties":{"maxweight":"1.5"}},{"type":"Feature","geometry":{"type":"Point","coordinates":[14.6937177,50.8975636]},"properties":{"hgv":"no","maxlength":"10"}},{"type":"Feature","geometry":{"type":"Point","coordinates":[14.7672625,50.8710095]},"properties":{"maxweight":"7.5"}},{"type":"Feature","geometry":{"type":"Point","coordinates":[14.7681669,50.9238027]},"properties":{"maxweight":"7.5"}},{"type":"Feature","geometry":{"type":"Point","coordinates":[14.7661675,50.9217913]},"properties":{"maxweight":"7.5"}},{"type":"Feature","geometry":{"type":"Point","coordinates":[14.7742606,50.8772355]},"properties":{"maxweight":"3.5 t"}},{"type":"Feature","geometry":{"type":"Point","coordinates":[14.7690285,50.9266895]},"properties":{"maxweight":"7.5"}},{"type":"Feature","geometry":{"type":"Point","coordinates":[14.732844,50.8394818]},"properties":{"maxweight":"3.5 t"}},{"type":"Feature","geometry":{"type":"Point","coordinates":[14.7693261,50.8716111]},"properties":{"maxweight":"5"}},{"type":"Feature","geometry":{"type":"Point","coordinates":[14.7898325,50.9891205]},"properties":{"maxweight":"24"}},{"type":"Feature","geometry":{"type":"Point","coordinates":[14.0016338,50.9690929]},"properties":{"maxweight":"3.5"}},{"type":"Feature","geometry":{"type":"Point","coordinates":[14.0164906,50.9878364]},"properties":{"maxwidth":"2"}},{"type":"Feature","geometry":{"type":"Point","coordinates":[14.0224011,50.9854888]},"properties":{"maxweight":"5.5"}},{"type":"Feature","geometry":{"type":"Point","coordinates":[14.7789649,50.8795125]},"properties":{"maxweight":"1.5"}},{"type":"Feature","geometry":{"type":"Point","coordinates":[14.7906746,50.8920034]},"properties":{"hgv":"no"}},{"type":"Feature","geometry":{"type":"Point","coordinates":[14.7923659,50.9014661]},"properties":{"maxheight":"4"}},{"type":"Feature","geometry":{"type":"Point","coordinates":[14.7693332,50.9293773]},"properties":{"maxweight":"9"}},{"type":"Feature","geometry":{"type":"Point","coordinates":[14.7691499,50.9278644]},"properties":{"maxweight":"12"}},{"type":"Feature","geometry":{"type":"Point","coordinates":[14.1122618,50.9787307]},"properties":{"maxweight":"10"}},{"type":"Feature","geometry":{"type":"Point","coordinates":[14.7048784,50.910633]},"properties":{"maxweight":"2.5"}},{"type":"Feature","geometry":{"type":"Point","coordinates":[14.7847948,50.885615]},"properties":{"maxheight":"3.5"}},{"type":"Feature","geometry":{"type":"Point","coordinates":[14.5794531,50.9441622]},"properties":{"maxweight":"32"}},{"type":"Feature","geometry":{"type":"Point","coordinates":[14.5816091,50.9420685]},"properties":{"hgv":"no"}},{"type":"Feature","geometry":{"type":"Point","coordinates":[14.6215587,50.9372825]},"properties":{"maxweight":"1.5"}},{"type":"Feature","geometry":{"type":"Point","coordinates":[14.8175039,50.9042922]},"properties":{"maxweight":"1.5"}},{"type":"Feature","geometry":{"type":"Point","coordinates":[14.8191684,50.9081863]},"properties":{"maxheight":"default"}},{"type":"Feature","geometry":{"type":"Point","coordinates":[14.824115,50.9042085]},"properties":{"maxweight":"7.5"}},{"type":"Feature","geometry":{"type":"Point","coordinates":[14.6685807,50.9348269]},"properties":{"maxweight":"2.5"}},{"type":"Feature","geometry":{"type":"Point","coordinates":[14.6501567,50.8876243]},"properties":{"maxweight":"5.5"}},{"type":"Feature","geometry":{"type":"Point","coordinates":[14.783891,50.8830036]},"properties":{"hgv":"no"}},{"type":"Feature","geometry":{"type":"Point","coordinates":[14.7986571,50.8617825]},"properties":{"maxweight":"2.5"}},{"type":"Feature","geometry":{"type":"Point","coordinates":[14.156114,50.9330627]},"properties":{"maxweight":"3.5"}},{"type":"Feature","geometry":{"type":"Point","coordinates":[14.5939345,50.9854087]},"properties":{"hgv":"no"}},{"type":"Feature","geometry":{"type":"Point","coordinates":[14.2529271,50.9853816]},"properties":{"maxweight":"3.5"}},{"type":"Feature","geometry":{"type":"Point","coordinates":[14.1683858,50.9109345]},"properties":{"maxwidth":"2.2"}},{"type":"Feature","geometry":{"type":"Point","coordinates":[14.8213782,50.9107473]},"properties":{"maxweight":"5"}},{"type":"Feature","geometry":{"type":"Point","coordinates":[14.7438293,50.9447411]},"properties":{"maxwidth":"2.4"}},{"type":"Feature","geometry":{"type":"Point","coordinates":[14.7797676,50.9426681]},"properties":{"hgv":"agricultural"}},{"type":"Feature","geometry":{"type":"Point","coordinates":[14.67917,50.9745769]},"properties":{"maxwidth":"2"}},{"type":"Feature","geometry":{"type":"Point","coordinates":[14.7461205,50.9375351]},"properties":{"maxweight":"3"}},{"type":"Feature","geometry":{"type":"Point","coordinates":[14.1330398,50.9311605]},"properties":{"maxweight":"3.5"}},{"type":"Feature","geometry":{"type":"Point","coordinates":[14.2924833,50.991923]},"properties":{"maxheight":"3.7"}},{"type":"Feature","geometry":{"type":"Point","coordinates":[14.7080783,50.9098271]},"properties":{"hgv":"agricultural"}},{"type":"Feature","geometry":{"type":"Point","coordinates":[14.7181333,50.9612552]},"properties":{"maxweight":"2.8"}},{"type":"Feature","geometry":{"type":"Point","coordinates":[14.16533,50.94777]},"properties":{"maxweight":"3.5"}},{"type":"Feature","geometry":{"type":"Point","coordinates":[14.1419484,50.9444098]},"properties":{"maxheight":"3.2"}},{"type":"Feature","geometry":{"type":"Point","coordinates":[14.1520956,50.9394435]},"properties":{"maxheight":"3.2","maxweight":"3.5"}},{"type":"Feature","geometry":{"type":"Point","coordinates":[14.0870302,50.992775]},"properties":{"maxweight":"10"}},{"type":"Feature","geometry":{"type":"Point","coordinates":[14.0385937,50.9554815]},"properties":{"maxheight":"2.9"}},{"type":"Feature","geometry":{"type":"Point","coordinates":[14.0380285,50.9579382]},"properties":{"maxweight":"10"}},{"type":"Feature","geometry":{"type":"Point","coordinates":[14.6192483,50.9311394]},"properties":{"maxweight":"5"}},{"type":"Feature","geometry":{"type":"Point","coordinates":[14.6173663,50.9293862]},"properties":{"maxweight":"1.5"}},{"type":"Feature","geometry":{"type":"Point","coordinates":[14.6105982,50.9258208]},"properties":{"maxweight":"5"}},{"type":"Feature","geometry":{"type":"Point","coordinates":[14.6078508,50.9293372]},"properties":{"maxheight":"4","maxweight":"5"}},{"type":"Feature","geometry":{"type":"Point","coordinates":[14.6129166,50.9283094]},"properties":{"maxweight":"5"}},{"type":"Feature","geometry":{"type":"Point","coordinates":[14.1751802,50.9210053]},"properties":{"maxweight":"2.8"}},{"type":"Feature","geometry":{"type":"Point","coordinates":[14.6634915,50.9732077]},"properties":{"maxheight":"3.0"}},{"type":"Feature","geometry":{"type":"Point","coordinates":[14.6478159,50.9654174]},"properties":{"hgv":"delivery"}},{"type":"Feature","geometry":{"type":"Point","coordinates":[14.6235185,50.9372089]},"properties":{"maxweight":"1.5"}},{"type":"Feature","geometry":{"type":"Point","coordinates":[14.7412755,50.9450228]},"properties":{"maxwidth":"2.0"}},{"type":"Feature","geometry":{"type":"Point","coordinates":[14.7432325,50.9433063]},"properties":{"maxwidth":"2.4","maxweight":"15"}},{"type":"Feature","geometry":{"type":"Point","coordinates":[14.6257079,50.9850711]},"properties":{"maxheight":"default"}},{"type":"Feature","geometry":{"type":"Point","coordinates":[14.6768669,50.9758506]},"properties":{"maxweight":"2"}},{"type":"Feature","geometry":{"type":"Point","coordinates":[14.7466394,50.9388878]},"properties":{"maxweight":"7.5"}},{"type":"Feature","geometry":{"type":"Point","coordinates":[14.7472395,50.9393969]},"properties":{"maxweight":"7.5"}},{"type":"Feature","geometry":{"type":"Point","coordinates":[14.0665356,50.9198764]},"properties":{"hgv":"no"}},{"type":"Feature","geometry":{"type":"Point","coordinates":[14.5831065,50.9420074]},"properties":{"hgv":"no"}},{"type":"Feature","geometry":{"type":"Point","coordinates":[14.6574716,50.9016274]},"properties":{"maxweight":"5.5"}},{"type":"Feature","geometry":{"type":"Point","coordinates":[14.612191,50.9274848]},"properties":{"maxweight":"5"}},{"type":"Feature","geometry":{"type":"Point","coordinates":[14.6070668,50.924644]},"properties":{"maxweight":"1.5"}},{"type":"Feature","geometry":{"type":"Point","coordinates":[14.6975369,50.988367]},"properties":{"maxweight":"7.5"}},{"type":"Feature","geometry":{"type":"Point","coordinates":[14.2300504,50.9655898]},"properties":{"maxheight":"4"}},{"type":"Feature","geometry":{"type":"Point","coordinates":[14.759605,50.8297769]},"properties":{"maxweight":"2.5"}},{"type":"Feature","geometry":{"type":"Point","coordinates":[14.0717743,50.9129258]},"properties":{"maxweight":"3.5"}},{"type":"Feature","geometry":{"type":"Point","coordinates":[14.0719121,50.9145442]},"properties":{"maxweight":"3.5"}},{"type":"Feature","geometry":{"type":"Point","coordinates":[14.6195115,50.9364651]},"properties":{"maxweight":"2.5"}},{"type":"Feature","geometry":{"type":"Point","coordinates":[14.5853516,50.9394387]},"properties":{"maxweight":"8"}},{"type":"Feature","geometry":{"type":"Point","coordinates":[14.5967284,50.9335152]},"properties":{"maxwidth":"2"}},{"type":"Feature","geometry":{"type":"Point","coordinates":[14.6030821,50.9350184]},"properties":{"maxwidth":"2"}},{"type":"Feature","geometry":{"type":"Point","coordinates":[14.6158838,50.9374188]},"properties":{"maxheight":"3.90"}},{"type":"Feature","geometry":{"type":"Point","coordinates":[14.2744405,50.9643835]},"properties":{"maxweight":"7.5"}},{"type":"Feature","geometry":{"type":"Point","coordinates":[14.8236805,50.8545681]},"properties":{"maxweight":"8"}},{"type":"Feature","geometry":{"type":"Point","coordinates":[14.6266918,50.9039531]},"properties":{"hgv":"no","goods":"no"}},{"type":"Feature","geometry":{"type":"Point","coordinates":[14.7463974,50.9127626]},"properties":{"maxweight":"5"}},{"type":"Feature","geometry":{"type":"Point","coordinates":[14.693167,50.8549041]},"properties":{"hgv":"no"}},{"type":"Feature","geometry":{"type":"Point","coordinates":[14.6929052,50.8553772]},"properties":{"hgv":"no"}},{"type":"Feature","geometry":{"type":"Point","coordinates":[14.5967578,50.9715072]},"properties":{"hgv":"no"}},{"type":"Feature","geometry":{"type":"Point","coordinates":[14.0546145,50.9292945]},"properties":{"maxweight":"2.8"}},{"type":"Feature","geometry":{"type":"Point","coordinates":[14.0757513,50.9192573]},"properties":{"maxheight":"3.7"}},{"type":"Feature","geometry":{"type":"Point","coordinates":[14.579993,50.9676137]},"properties":{"hgv":"no"}},{"type":"Feature","geometry":{"type":"Point","coordinates":[14.026885,50.9358397]},"properties":{"maxweight":"7.5"}},{"type":"Feature","geometry":{"type":"Point","coordinates":[14.0099906,50.9355209]},"properties":{"maxwidth":"2.2","maxweight":"3.5"}},{"type":"Feature","geometry":{"type":"Point","coordinates":[14.011492,50.9368854]},"properties":{"maxwidth":"2.2","maxweight":"3.5"}},{"type":"Feature","geometry":{"type":"Point","coordinates":[14.0096474,50.935575]},"properties":{"maxwidth":"2.2","maxweight":"3.5"}},{"type":"Feature","geometry":{"type":"Point","coordinates":[14.072363,50.9172131]},"properties":{"maxwidth":"2.2"}},{"type":"Feature","geometry":{"type":"Point","coordinates":[14.072669,50.9169747]},"properties":{"maxwidth":"2.2","maxweight":"3.5"}},{"type":"Feature","geometry":{"type":"Point","coordinates":[14.0886512,50.9187732]},"properties":{"maxweight":"12"}},{"type":"Feature","geometry":{"type":"Point","coordinates":[14.0873502,50.9186359]},"properties":{"maxweight":"12"}},{"type":"Feature","geometry":{"type":"Point","coordinates":[14.0123568,50.9446831]},"properties":{"maxheight":"2.6","maxwidth":"2.22"}},{"type":"Feature","geometry":{"type":"Point","coordinates":[14.3235598,50.9871925]},"properties":{"maxheight":"default"}},{"type":"Feature","geometry":{"type":"Point","coordinates":[14.3192732,50.9872671]},"properties":{"maxweight":"22"}},{"type":"Feature","geometry":{"type":"Point","coordinates":[14.2881887,50.9781701]},"properties":{"maxweight":"3.5"}},{"type":"Feature","geometry":{"type":"Point","coordinates":[14.0826574,50.9589554]},"properties":{"maxweight":"3.5"}},{"type":"Feature","geometry":{"type":"Point","coordinates":[14.1633672,50.9572]},"properties":{"maxweight":"10"}},{"type":"Feature","geometry":{"type":"Point","coordinates":[14.0085663,50.8866229]},"properties":{"maxweight":"16 t"}},{"type":"Feature","geometry":{"type":"Point","coordinates":[14.6071969,50.918687]},"properties":{"maxweight":"7.5"}},{"type":"Feature","geometry":{"type":"Point","coordinates":[14.7063049,50.9158106]},"properties":{"hgv":"no"}},{"type":"Feature","geometry":{"type":"Point","coordinates":[14.3596771,50.9284926]},"properties":{"maxweight":"7.5"}},{"type":"Feature","geometry":{"type":"Point","coordinates":[14.3592259,50.9267537]},"properties":{"maxweight":"7.5"}},{"type":"Feature","geometry":{"type":"Point","coordinates":[14.3366759,50.9061474]},"properties":{"maxweight":"16"}},{"type":"Feature","geometry":{"type":"Point","coordinates":[14.3570565,50.9220962]},"properties":{"maxwidth":"2"}},{"type":"Feature","geometry":{"type":"Point","coordinates":[14.0466571,50.8790208]},"properties":{"maxweight":"5"}},{"type":"Feature","geometry":{"type":"Point","coordinates":[14.0398922,50.9048418]},"properties":{"maxweight":"3.5"}},{"type":"Feature","geometry":{"type":"Point","coordinates":[14.6488985,50.8665277]},"properties":{"hgv":"destination"}},{"type":"Feature","geometry":{"type":"Point","coordinates":[14.2422607,50.9333316]},"properties":{"maxwidth":"2.2"}},{"type":"Feature","geometry":{"type":"Point","coordinates":[14.0717268,50.9123027]},"properties":{"maxweight":"3.5"}},{"type":"Feature","geometry":{"type":"Point","coordinates":[14.1114012,50.9803213]},"properties":{"hgv":"no"}},{"type":"Feature","geometry":{"type":"Point","coordinates":[14.8267113,50.9058578]},"properties":{"maxweight":"7.5"}},{"type":"Feature","geometry":{"type":"Point","coordinates":[14.1100282,50.9806983]},"properties":{"maxweight":"10"}},{"type":"Feature","geometry":{"type":"Point","coordinates":[14.8433796,50.9207641]},"properties":{"maxweight":"5"}},{"type":"Feature","geometry":{"type":"Point","coordinates":[14.025659,50.9464217]},"properties":{"hgv":"no"}},{"type":"Feature","geometry":{"type":"Point","coordinates":[14.7680002,50.9238404]},"properties":{"maxweight":"7.5"}},{"type":"Feature","geometry":{"type":"Point","coordinates":[14.7673058,50.9238218]},"properties":{"maxweight":"7.5"}},{"type":"Feature","geometry":{"type":"Point","coordinates":[14.0740499,50.9525182]},"properties":{"maxheight":"4"}},{"type":"Feature","geometry":{"type":"Point","coordinates":[14.8070103,50.9382406]},"properties":{"maxweight":"2.5"}},{"type":"Feature","geometry":{"type":"Point","coordinates":[14.8321374,50.8903663]},"properties":{"maxheight":"3","maxwidth":"2.5"}},{"type":"Feature","geometry":{"type":"Point","coordinates":[14.7688705,50.9333718]},"properties":{"maxweight":"6"}},{"type":"Feature","geometry":{"type":"Point","coordinates":[14.7689658,50.9267088]},"properties":{"maxweight":"7.5"}},{"type":"Feature","geometry":{"type":"Point","coordinates":[14.7689235,50.9267159]},"properties":{"maxweight":"7.5"}},{"type":"Feature","geometry":{"type":"Point","coordinates":[14.7685953,50.9257282]},"properties":{"maxweight":"7.5"}},{"type":"Feature","geometry":{"type":"Point","coordinates":[14.0003538,50.8398034]},"properties":{"maxweight":"7.3"}},{"type":"Feature","geometry":{"type":"Point","coordinates":[14.0554032,50.9288379]},"properties":{"maxheight":"3.75"}},{"type":"Feature","geometry":{"type":"Point","coordinates":[14.2460158,50.9379732]},"properties":{"maxwidth":"2.2"}},{"type":"Feature","geometry":{"type":"Point","coordinates":[14.2781634,50.9705752]},"properties":{"maxwidth":"2.2"}},{"type":"Feature","geometry":{"type":"Point","coordinates":[14.2513311,50.96802]},"properties":{"maxweight":"12"}},{"type":"Feature","geometry":{"type":"Point","coordinates":[14.2525699,50.9697862]},"properties":{"maxwidth":"2.4"}},{"type":"Feature","geometry":{"type":"Point","coordinates":[14.2527917,50.9747955]},"properties":{"maxweight":"7.5"}},{"type":"Feature","geometry":{"type":"Point","coordinates":[14.2635766,50.9723616]},"properties":{"maxweight":"7.5"}},{"type":"Feature","geometry":{"type":"Point","coordinates":[14.2645233,50.9740217]},"properties":{"maxweight":"7.5"}},{"type":"Feature","geometry":{"type":"Point","coordinates":[14.2729731,50.9686469]},"properties":{"maxwidth":"2"}},{"type":"Feature","geometry":{"type":"Point","coordinates":[14.701462,50.8493553]},"properties":{"maxwidth":"2"}},{"type":"Feature","geometry":{"type":"Point","coordinates":[14.7013363,50.8497111]},"properties":{"maxwidth":"2"}},{"type":"Feature","geometry":{"type":"Point","coordinates":[14.7065108,50.8403905]},"properties":{"hgv":"delivery;destination"}},{"type":"Feature","geometry":{"type":"Point","coordinates":[14.1687568,50.9113891]},"properties":{"maxheight":"default"}},{"type":"Feature","geometry":{"type":"Point","coordinates":[14.8491451,50.9775297]},"properties":{"maxweight":"5.5"}},{"type":"Feature","geometry":{"type":"Point","coordinates":[14.8618549,50.9793393]},"properties":{"maxweight":"5.5"}},{"type":"Feature","geometry":{"type":"Point","coordinates":[14.3320811,50.9426348]},"properties":{"maxweight":"10"}},{"type":"Feature","geometry":{"type":"Point","coordinates":[14.267193,50.9744582]},"properties":{"hgv":"no"}},{"type":"Feature","geometry":{"type":"Point","coordinates":[14.6657907,50.9805121]},"properties":{"maxweight":"3.5"}},{"type":"Feature","geometry":{"type":"Point","coordinates":[14.2141622,50.938397]},"properties":{"hgv":"no"}},{"type":"Feature","geometry":{"type":"Point","coordinates":[14.8730583,50.95192]},"properties":{"maxweight":"1.5"}},{"type":"Feature","geometry":{"type":"Point","coordinates":[14.2381334,50.9450087]},"properties":{"maxwidth":"2.2"}},{"type":"Feature","geometry":{"type":"Point","coordinates":[14.2415123,50.9435315]},"properties":{"maxwidth":"2.5","maxweight":"3"}},{"type":"Feature","geometry":{"type":"Point","coordinates":[14.2113236,50.8915083]},"properties":{"maxweight":"7.5"}},{"type":"Feature","geometry":{"type":"Point","coordinates":[14.6609559,50.9842711]},"properties":{"maxweight":"2.8"}},{"type":"Feature","geometry":{"type":"Point","coordinates":[14.7950993,50.8907135]},"properties":{"maxheight":"4"}},{"type":"Feature","geometry":{"type":"Point","coordinates":[14.7766919,50.9021367]},"properties":{"maxheight":"4.0"}},{"type":"Feature","geometry":{"type":"Point","coordinates":[14.6142577,50.9229118]},"properties":{"maxlength":"10"}},{"type":"Feature","geometry":{"type":"Point","coordinates":[14.7422609,50.9256384]},"properties":{"maxweight":"3"}},{"type":"Feature","geometry":{"type":"Point","coordinates":[14.2084647,50.9356851]},"properties":{"maxweight":"10"}},{"type":"Feature","geometry":{"type":"Point","coordinates":[14.2801005,50.9747779]},"properties":{"hgv":"no","maxweight":"2.8"}},{"type":"Feature","geometry":{"type":"Point","coordinates":[14.7839838,50.8613449]},"properties":{"maxweight":"7.5"}},{"type":"Feature","geometry":{"type":"Point","coordinates":[14.2811798,50.975454]},"properties":{"maxwidth":"2"}},{"type":"Feature","geometry":{"type":"Point","coordinates":[14.2808041,50.9755057]},"properties":{"maxwidth":"2"}},{"type":"Feature","geometry":{"type":"Point","coordinates":[14.1132167,50.9309125]},"properties":{"maxweight":"3.5"}},{"type":"Feature","geometry":{"type":"Point","coordinates":[14.1414833,50.9057658]},"properties":{"maxweight":"3.5"}},{"type":"Feature","geometry":{"type":"Point","coordinates":[14.1307676,50.9258631]},"properties":{"maxheight":"4"}},{"type":"Feature","geometry":{"type":"Point","coordinates":[14.7872163,50.8842037]},"properties":{"maxheight":"3.5"}},{"type":"Feature","geometry":{"type":"Point","coordinates":[14.6810356,50.9871489]},"properties":{"maxweight":"7.5"}},{"type":"Feature","geometry":{"type":"Point","coordinates":[14.1811121,50.9465223]},"properties":{"maxheight":"below_default"}},{"type":"Feature","geometry":{"type":"Point","coordinates":[14.1445573,50.8746262]},"properties":{"maxweight":"16"}},{"type":"Feature","geometry":{"type":"Point","coordinates":[14.2372127,50.9439977]},"properties":{"maxweight":"5"}},{"type":"Feature","geometry":{"type":"Point","coordinates":[14.0136926,50.9386326]},"properties":{"maxweight":"3.5"}},{"type":"Feature","geometry":{"type":"Point","coordinates":[14.7402181,50.9259354]},"properties":{"maxheight":"3.6"}},{"type":"Feature","geometry":{"type":"Point","coordinates":[14.75991,50.8323872]},"properties":{"maxweight":"2.5"}},{"type":"Feature","geometry":{"type":"Point","coordinates":[14.7628079,50.8305533]},"properties":{"maxwidth":"2.1"}},{"type":"Feature","geometry":{"type":"Point","coordinates":[14.118861,50.8848225]},"properties":{"maxweight":"16"}},{"type":"Feature","geometry":{"type":"Point","coordinates":[14.1182892,50.8845818]},"properties":{"maxweight":"16"}},{"type":"Feature","geometry":{"type":"Point","coordinates":[14.0406373,50.9586289]},"properties":{"maxweight":"10"}},{"type":"Feature","geometry":{"type":"Point","coordinates":[14.7987037,50.9270027]},"properties":{"maxweight":"2.5"}},{"type":"Feature","geometry":{"type":"Point","coordinates":[14.2317951,50.8817549]},"properties":{"maxweight":"3"}},{"type":"Feature","geometry":{"type":"Point","coordinates":[14.0059965,50.8378881]},"properties":{"maxweight":"7.3"}},{"type":"Feature","geometry":{"type":"Point","coordinates":[14.007681,50.8360405]},"properties":{"maxweight":"7.3"}},{"type":"Feature","geometry":{"type":"Point","coordinates":[14.1852124,50.9326401]},"properties":{"maxweight":"10"}},{"type":"Feature","geometry":{"type":"Point","coordinates":[14.7959858,50.9020639]},"properties":{"maxheight":"3.5"}},{"type":"Feature","geometry":{"type":"Point","coordinates":[14.7918808,50.9008615]},"properties":{"maxheight":"4"}},{"type":"Feature","geometry":{"type":"Point","coordinates":[14.8064339,50.9409868]},"properties":{"maxweight":"1.5"}},{"type":"Feature","geometry":{"type":"Point","coordinates":[14.2782126,50.9788005]},"properties":{"hgv":"no"}},{"type":"Feature","geometry":{"type":"Point","coordinates":[14.1175712,50.9335755]},"properties":{"maxweight":"12"}},{"type":"Feature","geometry":{"type":"Point","coordinates":[14.796988,50.8636325]},"properties":{"maxweight":"2.5"}},{"type":"Feature","geometry":{"type":"Point","coordinates":[14.1924951,50.9932576]},"properties":{"maxweight":"2.8"}},{"type":"Feature","geometry":{"type":"Point","coordinates":[14.1324254,50.940074]},"properties":{"maxweight":"5.5"}},{"type":"Feature","geometry":{"type":"Point","coordinates":[14.8122334,50.903263]},"properties":{"maxheight":"default"}},{"type":"Feature","geometry":{"type":"Point","coordinates":[14.1300717,50.9272791]},"properties":{"maxheight":"4"}},{"type":"Feature","geometry":{"type":"Point","coordinates":[14.775571,50.8645226]},"properties":{"hgv":"no","maxweight":"7.5"}},{"type":"Feature","geometry":{"type":"Point","coordinates":[14.6075467,50.9237604]},"properties":{"maxweight":"7.5"}},{"type":"Feature","geometry":{"type":"Point","coordinates":[14.2113859,50.9596355]},"properties":{"hgv":"no"}},{"type":"Feature","geometry":{"type":"Point","coordinates":[14.8191281,50.8597242]},"properties":{"maxweight":"2.8"}},{"type":"Feature","geometry":{"type":"Point","coordinates":[14.8180329,50.8608184]},"properties":{"maxweight":"2.8"}},{"type":"Feature","geometry":{"type":"Point","coordinates":[14.1367878,50.9225004]},"properties":{"maxweight":"7.5"}},{"type":"Feature","geometry":{"type":"Point","coordinates":[14.1825641,50.9558214]},"properties":{"maxheight":"default"}},{"type":"Feature","geometry":{"type":"Point","coordinates":[14.2037344,50.9908094]},"properties":{"hgv":"destination"}},{"type":"Feature","geometry":{"type":"Point","coordinates":[14.8091348,50.9272034]},"properties":{"maxheight":"default"}},{"type":"Feature","geometry":{"type":"Point","coordinates":[14.3424689,50.928035]},"properties":{"maxweight":"2.8"}},{"type":"Feature","geometry":{"type":"Point","coordinates":[14.784943,50.88365]},"properties":{"hgv":"no"}},{"type":"Feature","geometry":{"type":"Point","coordinates":[14.765559,50.8200414]},"properties":{"hgv":"no"}},{"type":"Feature","geometry":{"type":"Point","coordinates":[14.1637918,50.9526549]},"properties":{"maxweight":"10"}},{"type":"Feature","geometry":{"type":"Point","coordinates":[14.6303201,50.9059876]},"properties":{"hgv":"no"}},{"type":"Feature","geometry":{"type":"Point","coordinates":[14.6707871,50.8808128]},"properties":{"hgv":"no"}},{"type":"Feature","geometry":{"type":"Point","coordinates":[14.7925035,50.9909457]},"properties":{"maxweight":"1"}},{"type":"Feature","geometry":{"type":"Point","coordinates":[14.803944,50.9198392]},"properties":{"maxweight":"16"}},{"type":"Feature","geometry":{"type":"Point","coordinates":[14.8047872,50.9189113]},"properties":{"maxweight":"16"}},{"type":"Feature","geometry":{"type":"Point","coordinates":[14.743311,50.9255232]},"properties":{"maxweight":"6"}},{"type":"Feature","geometry":{"type":"Point","coordinates":[14.2078956,50.9635474]},"properties":{"hgv":"no"}},{"type":"Feature","geometry":{"type":"Point","coordinates":[14.1465316,50.9071078]},"properties":{"maxweight":"16"}},{"type":"Feature","geometry":{"type":"Point","coordinates":[14.0802243,50.9536122]},"properties":{"maxheight":"4"}},{"type":"Feature","geometry":{"type":"Point","coordinates":[14.590562,50.9694327]},"properties":{"hgv":"no"}},{"type":"Feature","geometry":{"type":"Point","coordinates":[14.5735398,50.9925767]},"properties":{"hgv":"no"}},{"type":"Feature","geometry":{"type":"Point","coordinates":[14.5761794,50.9921312]},"properties":{"hgv":"no"}},{"type":"Feature","geometry":{"type":"Point","coordinates":[14.5702291,50.996091]},"properties":{"hgv":"no"}},{"type":"Feature","geometry":{"type":"Point","coordinates":[14.1685613,50.9521629]},"properties":{"maxweight":"10"}},{"type":"Feature","geometry":{"type":"Point","coordinates":[14.7607862,50.8317984]},"properties":{"maxwidth":"2","maxweight":"2.5"}},{"type":"Feature","geometry":{"type":"Point","coordinates":[14.7639428,50.8292015]},"properties":{"maxwidth":"2","maxweight":"15"}},{"type":"Feature","geometry":{"type":"Point","coordinates":[14.7633438,50.832533]},"properties":{"maxweight":"2.5"}},{"type":"Feature","geometry":{"type":"Point","coordinates":[14.761518,50.8307826]},"properties":{"maxweight":"2.5"}},{"type":"Feature","geometry":{"type":"Point","coordinates":[14.8061369,50.8955777]},"properties":{"maxheight":"below_default"}},{"type":"Feature","geometry":{"type":"Point","coordinates":[14.1125423,50.9802209]},"properties":{"hgv":"no"}},{"type":"Feature","geometry":{"type":"Point","coordinates":[14.0540621,50.9290542]},"properties":{"maxweight":"1.5"}},{"type":"Feature","geometry":{"type":"Point","coordinates":[14.1707564,50.9110194]},"properties":{"maxheight":"3"}},{"type":"Feature","geometry":{"type":"Point","coordinates":[14.1365584,50.9228496]},"properties":{"maxheight":"default"}},{"type":"Feature","geometry":{"type":"Point","coordinates":[14.7453418,50.9330938]},"properties":{"maxweight":"3"}},{"type":"Feature","geometry":{"type":"Point","coordinates":[14.6725377,50.9881741]},"properties":{"maxweight":"7.5"}},{"type":"Feature","geometry":{"type":"Point","coordinates":[14.8352909,50.9185777]},"properties":{"maxweight":"5"}},{"type":"Feature","geometry":{"type":"Point","coordinates":[14.8365737,50.9202588]},"properties":{"maxweight":"5"}},{"type":"Feature","geometry":{"type":"Point","coordinates":[14.2500255,50.9302057]},"properties":{"maxweight":"9"}},{"type":"Feature","geometry":{"type":"Point","coordinates":[14.2413503,50.9440186]},"properties":{"maxwidth":"2.2"}},{"type":"Feature","geometry":{"type":"Point","coordinates":[14.7214836,50.9733987]},"properties":{"hgv":"no"}},{"type":"Feature","geometry":{"type":"Point","coordinates":[14.1789428,50.9340231]},"properties":{"hgv":"no"}},{"type":"Feature","geometry":{"type":"Point","coordinates":[14.8293667,50.870717]},"properties":{"maxweight":"12"}},{"type":"Feature","geometry":{"type":"Point","coordinates":[14.8382715,50.9204576]},"properties":{"maxweight":"5"}},{"type":"Feature","geometry":{"type":"Point","coordinates":[14.8031235,50.9335861]},"properties":{"maxweight":"12"}},{"type":"Feature","geometry":{"type":"Point","coordinates":[14.1761869,50.9206442]},"properties":{"maxwidth":"2.4"}},{"type":"Feature","geometry":{"type":"Point","coordinates":[14.088135,50.9935058]},"properties":{"maxweight":"10"}},{"type":"Feature","geometry":{"type":"Point","coordinates":[14.7096228,50.9134909]},"properties":{"hgv":"agricultural"}},{"type":"Feature","geometry":{"type":"Point","coordinates":[14.7089666,50.9148245]},"properties":{"hgv":"no","maxheight":"2.5"}},{"type":"Feature","geometry":{"type":"Point","coordinates":[14.7558255,50.8801765]},"properties":{"maxweight":"15"}},{"type":"Feature","geometry":{"type":"Point","coordinates":[14.3350557,50.9414863]},"properties":{"maxweight":"10"}},{"type":"Feature","geometry":{"type":"Point","coordinates":[14.135012,50.9234717]},"properties":{"maxheight":"3.68"}},{"type":"Feature","geometry":{"type":"Point","coordinates":[14.1657449,50.9254955]},"properties":{"maxweight":"3.5"}},{"type":"Feature","geometry":{"type":"Point","coordinates":[14.3309913,50.9395891]},"properties":{"maxweight":"7.5"}},{"type":"Feature","geometry":{"type":"Point","coordinates":[14.082483,50.9475794]},"properties":{"maxheight":"4"}},{"type":"Feature","geometry":{"type":"Point","coordinates":[14.3572306,50.9242468]},"properties":{"maxweight":"2.8"}},{"type":"Feature","geometry":{"type":"Point","coordinates":[14.3558035,50.922366]},"properties":{"maxweight":"2.8"}},{"type":"Feature","geometry":{"type":"Point","coordinates":[14.3566494,50.9247642]},"properties":{"maxweight":"2.8"}},{"type":"Feature","geometry":{"type":"Point","coordinates":[14.3584396,50.9243939]},"properties":{"maxweight":"7.5"}},{"type":"Feature","geometry":{"type":"Point","coordinates":[14.160453,50.9238645]},"properties":{"maxweight":"2.7"}},{"type":"Feature","geometry":{"type":"Point","coordinates":[14.6807248,50.9382728]},"properties":{"hgv":"no"}},{"type":"Feature","geometry":{"type":"Point","coordinates":[14.1367136,50.9229395]},"properties":{"maxheight":"default"}},{"type":"Feature","geometry":{"type":"Point","coordinates":[14.2481356,50.9394672]},"properties":{"maxwidth":"2.2"}},{"type":"Feature","geometry":{"type":"Point","coordinates":[14.2480976,50.9395571]},"properties":{"maxwidth":"2.2"}},{"type":"Feature","geometry":{"type":"Point","coordinates":[14.2866584,50.9596799]},"properties":{"maxweight":"3.5"}},{"type":"Feature","geometry":{"type":"Point","coordinates":[14.8262162,50.9093119]},"properties":{"maxweight":"0"}},{"type":"Feature","geometry":{"type":"Point","coordinates":[14.3596628,50.924827]},"properties":{"maxlength":"7.5"}},{"type":"Feature","geometry":{"type":"Point","coordinates":[14.3607381,50.925169]},"properties":{"maxwidth":"1.80"}},{"type":"Feature","geometry":{"type":"Point","coordinates":[14.6214139,50.937685]},"properties":{"maxweight":"1.5"}},{"type":"Feature","geometry":{"type":"Point","coordinates":[14.670975,50.8967746]},"properties":{"maxweight":"16"}},{"type":"Feature","geometry":{"type":"Point","coordinates":[14.7635092,50.8281812]},"properties":{"maxweight":"2.8"}},{"type":"Feature","geometry":{"type":"Point","coordinates":[14.6229671,50.9398459]},"properties":{"maxweight":"2.5 t"}},{"type":"Feature","geometry":{"type":"Point","coordinates":[14.262981,50.9835222]},"properties":{"hgv":"no"}},{"type":"Feature","geometry":{"type":"Point","coordinates":[14.1343078,50.8976525]},"properties":{"maxweight":"3.5"}},{"type":"Feature","geometry":{"type":"Point","coordinates":[14.1310801,50.9317309]},"properties":{"maxweight":"2"}},{"type":"Feature","geometry":{"type":"Point","coordinates":[14.6152851,50.9236367]},"properties":{"maxlength":"10"}},{"type":"Feature","geometry":{"type":"Point","coordinates":[14.613512,50.9222679]},"properties":{"maxlength":"10"}},{"type":"Feature","geometry":{"type":"Point","coordinates":[14.5845947,50.9885528]},"properties":{"hgv":"no"}},{"type":"Feature","geometry":{"type":"Point","coordinates":[14.5683102,50.9933003]},"properties":{"hgv":"no"}},{"type":"Feature","geometry":{"type":"Point","coordinates":[14.5695951,50.9953369]},"properties":{"hgv":"no"}},{"type":"Feature","geometry":{"type":"Point","coordinates":[14.5687537,50.9943748]},"properties":{"hgv":"no"}},{"type":"Feature","geometry":{"type":"Point","coordinates":[14.5681293,50.9922201]},"properties":{"hgv":"no"}},{"type":"Feature","geometry":{"type":"Point","coordinates":[14.579225,50.9907494]},"properties":{"hgv":"no"}},{"type":"Feature","geometry":{"type":"Point","coordinates":[14.5782674,50.9912022]},"properties":{"hgv":"no"}},{"type":"Feature","geometry":{"type":"Point","coordinates":[14.1063829,50.9881535]},"properties":{"maxweight":"12"}},{"type":"Feature","geometry":{"type":"Point","coordinates":[14.8047194,50.918431]},"properties":{"maxweight":"30"}},{"type":"Feature","geometry":{"type":"Point","coordinates":[14.0731224,50.9194004]},"properties":{"maxheight":"2.9"}},{"type":"Feature","geometry":{"type":"Point","coordinates":[14.0755956,50.9191779]},"properties":{"maxheight":"3.5"}},{"type":"Feature","geometry":{"type":"Point","coordinates":[14.2400612,50.9838745]},"properties":{"maxweight":"3.5"}},{"type":"Feature","geometry":{"type":"Point","coordinates":[14.2514439,50.9848181]},"properties":{"maxweight":"3.5"}},{"type":"Feature","geometry":{"type":"Point","coordinates":[14.5900688,50.9572235]},"properties":{"hgv":"yes"}},{"type":"Feature","geometry":{"type":"Point","coordinates":[14.2560309,50.9700496]},"properties":{"maxheight":"default"}},{"type":"Feature","geometry":{"type":"Point","coordinates":[14.2313651,50.8917925]},"properties":{"maxheight":"2.6","maxwidth":"2.3"}},{"type":"Feature","geometry":{"type":"Point","coordinates":[14.2727518,50.9778174]},"properties":{"maxweight":"7.5"}},{"type":"Feature","geometry":{"type":"Point","coordinates":[14.7071613,50.9686467]},"properties":{"maxheight":"4"}},{"type":"Feature","geometry":{"type":"Point","coordinates":[14.352375,50.9355214]},"properties":{"maxweight":"2.8"}},{"type":"Feature","geometry":{"type":"Point","coordinates":[14.5689239,50.9947841]},"properties":{"hgv":"no"}},{"type":"Feature","geometry":{"type":"Point","coordinates":[14.570903,50.9970494]},"properties":{"hgv":"no"}},{"type":"Feature","geometry":{"type":"Point","coordinates":[14.5709763,50.9971145]},"properties":{"hgv":"no"}},{"type":"Feature","geometry":{"type":"Point","coordinates":[14.6075356,50.9211072]},"properties":{"maxweight":"7.5"}},{"type":"Feature","geometry":{"type":"Point","coordinates":[14.2626349,50.8783363]},"properties":{"maxheight":"default"}},{"type":"Feature","geometry":{"type":"Point","coordinates":[14.8248183,50.8767267]},"properties":{"maxweight":"12"}},{"type":"Feature","geometry":{"type":"Point","coordinates":[14.159054,50.9220409]},"properties":{"maxweight":"15"}},{"type":"Feature","geometry":{"type":"Point","coordinates":[14.7065867,50.8406652]},"properties":{"maxweight":"3.5"}},{"type":"Feature","geometry":{"type":"Point","coordinates":[14.2774187,50.9702953]},"properties":{"maxwidth":"1.8"}},{"type":"Feature","geometry":{"type":"Point","coordinates":[14.2746299,50.9724729]},"properties":{"maxwidth":"2"}},{"type":"Feature","geometry":{"type":"Point","coordinates":[14.2791659,50.9704478]},"properties":{"maxwidth":"1.8"}},{"type":"Feature","geometry":{"type":"Point","coordinates":[14.0290084,50.9051462]},"properties":{"hgv":"forestry"}},{"type":"Feature","geometry":{"type":"Point","coordinates":[14.1389534,50.9433272]},"properties":{"maxheight":"3.2"}},{"type":"Feature","geometry":{"type":"Point","coordinates":[14.7671373,50.829017]},"properties":{"maxweight":"2.8"}},{"type":"Feature","geometry":{"type":"Point","coordinates":[14.7666476,50.8273084]},"properties":{"maxweight":"15"}},{"type":"Feature","geometry":{"type":"Point","coordinates":[14.6660024,50.9805369]},"properties":{"maxweight":"2"}},{"type":"Feature","geometry":{"type":"Point","coordinates":[14.6074486,50.9194005]},"properties":{"maxweight":"7.5"}},{"type":"Feature","geometry":{"type":"Point","coordinates":[14.5807715,50.9428546]},"properties":{"maxweight":"7.5"}},{"type":"Feature","geometry":{"type":"Point","coordinates":[14.7911882,50.9460491]},"properties":{"hgv":"agricultural"}},{"type":"Feature","geometry":{"type":"Point","coordinates":[14.0876358,50.9176664]},"properties":{"maxweight":"12"}},{"type":"Feature","geometry":{"type":"Point","coordinates":[14.3584445,50.9240722]},"properties":{"maxweight":"2.8"}},{"type":"Feature","geometry":{"type":"Point","coordinates":[14.6929625,50.9738636]},"properties":{"maxheight":"3.3"}},{"type":"Feature","geometry":{"type":"Point","coordinates":[14.0743566,50.9145258]},"properties":{"maxweight":"3.5"}},{"type":"Feature","geometry":{"type":"Point","coordinates":[14.1443187,50.9773293]},"properties":{"hgv":"no"}},{"type":"Feature","geometry":{"type":"Point","coordinates":[14.265944,50.9737066]},"properties":{"maxweight":"7.5"}},{"type":"Feature","geometry":{"type":"Point","coordinates":[14.2512415,50.9717427]},"properties":{"maxweight":"7.5"}},{"type":"Feature","geometry":{"type":"Point","coordinates":[14.2537656,50.9704591]},"properties":{"maxweight":"7.5"}},{"type":"Feature","geometry":{"type":"Point","coordinates":[14.2509855,50.9731659]},"properties":{"maxweight":"7.5"}},{"type":"Feature","geometry":{"type":"Point","coordinates":[14.2391208,50.9676879]},"properties":{"maxheight":"2.5"}},{"type":"Feature","geometry":{"type":"Point","coordinates":[14.7924549,50.99097]},"properties":{"maxweight":"1"}},{"type":"Feature","geometry":{"type":"Point","coordinates":[14.792366,50.9910102]},"properties":{"maxweight":"1"}},{"type":"Feature","geometry":{"type":"Point","coordinates":[14.7895254,50.988545]},"properties":{"maxweight":"24"}},{"type":"Feature","geometry":{"type":"Point","coordinates":[14.7895659,50.9883774]},"properties":{"maxweight":"24"}},{"type":"Feature","geometry":{"type":"Point","coordinates":[14.2757331,50.9726501]},"properties":{"maxheight":"2.15"}},{"type":"Feature","geometry":{"type":"Point","coordinates":[14.1521903,50.9184047]},"properties":{"maxheight":"2.15"}},{"type":"Feature","geometry":{"type":"Point","coordinates":[14.1565974,50.9168562]},"properties":{"maxheight":"default"}},{"type":"Feature","geometry":{"type":"Point","coordinates":[14.274846,50.9820274]},"properties":{"hgv":"no"}},{"type":"Feature","geometry":{"type":"Point","coordinates":[14.2754888,50.9813746]},"properties":{"hgv":"no"}},{"type":"Feature","geometry":{"type":"Point","coordinates":[14.2756874,50.9814542]},"properties":{"hgv":"no"}},{"type":"Feature","geometry":{"type":"Point","coordinates":[14.274992,50.9821138]},"properties":{"hgv":"no"}},{"type":"Feature","geometry":{"type":"Point","coordinates":[14.2754168,50.9817392]},"properties":{"hgv":"no"}},{"type":"Feature","geometry":{"type":"Point","coordinates":[14.6073417,50.920161]},"properties":{"maxweight":"28"}},{"type":"Feature","geometry":{"type":"Point","coordinates":[14.6937324,50.8551115]},"properties":{"hgv":"no"}},{"type":"Feature","geometry":{"type":"Point","coordinates":[14.7432985,50.9434661]},"properties":{"maxwidth":"2.4","maxweight":"15"}},{"type":"Feature","geometry":{"type":"Point","coordinates":[14.7432325,50.9433063]},"properties":{"maxwidth":"2.4","maxweight":"15"}},{"type":"Feature","geometry":{"type":"Point","coordinates":[14.1706105,50.9855778]},"properties":{"maxweight":"6.0"}},{"type":"Feature","geometry":{"type":"Point","coordinates":[14.7650988,50.8213565]},"properties":{"hgv":"no"}},{"type":"Feature","geometry":{"type":"Point","coordinates":[14.1368119,50.9443078]},"properties":{"maxweight":"3.5"}},{"type":"Feature","geometry":{"type":"Point","coordinates":[14.7910717,50.9943636]},"properties":{"hgv":"no"}},{"type":"Feature","geometry":{"type":"Point","coordinates":[14.2914232,50.9892935]},"properties":{"maxweight":"8"}},{"type":"Feature","geometry":{"type":"Point","coordinates":[14.8063906,50.9409413]},"properties":{"maxweight":"1.5"}},{"type":"Feature","geometry":{"type":"Point","coordinates":[14.7206264,50.997143]},"properties":{"hgv":"no"}},{"type":"Feature","geometry":{"type":"Point","coordinates":[14.7014951,50.9092371]},"properties":{"maxweight":"2.5"}},{"type":"Feature","geometry":{"type":"Point","coordinates":[14.7695833,50.8746298]},"properties":{"maxweight":"7.5"}},{"type":"Feature","geometry":{"type":"Point","coordinates":[14.3884795,50.9074204]},"properties":{"hgv":"no"}},{"type":"Feature","geometry":{"type":"Point","coordinates":[14.1396219,50.922209]},"properties":{"maxweight":"7.5"}},{"type":"Feature","geometry":{"type":"Point","coordinates":[14.843022,50.9020271]},"properties":{"maxheight":"3"}},{"type":"Feature","geometry":{"type":"Point","coordinates":[14.8098428,50.89627]},"properties":{"maxheight":"3"}},{"type":"Feature","geometry":{"type":"Point","coordinates":[14.2833503,50.9728322]},"properties":{"maxwidth":"2.2"}},{"type":"Feature","geometry":{"type":"Point","coordinates":[14.2881735,50.9781367]},"properties":{"maxweight":"3.5"}},{"type":"Feature","geometry":{"type":"Point","coordinates":[14.6870424,50.9997601]},"properties":{"maxheight":"default"}},{"type":"Feature","geometry":{"type":"Point","coordinates":[14.1089737,50.9810132]},"properties":{"maxweight":"10"}},{"type":"Feature","geometry":{"type":"Point","coordinates":[14.5722446,50.9981336]},"properties":{"hgv":"no"}},{"type":"Feature","geometry":{"type":"Point","coordinates":[14.6489872,50.9912604]},"properties":{"maxweight":"6"}},{"type":"Feature","geometry":{"type":"Point","coordinates":[14.1455217,50.9294518]},"properties":{"maxweight":"2.8"}},{"type":"Feature","geometry":{"type":"Point","coordinates":[14.6123829,50.9322162]},"properties":{"maxheight":"6.3"}},{"type":"Feature","geometry":{"type":"Point","coordinates":[14.6146969,50.9335687]},"properties":{"hgv":"no"}},{"type":"Feature","geometry":{"type":"Point","coordinates":[14.7089937,50.9681928]},"properties":{"maxheight":"3.8"}},{"type":"Feature","geometry":{"type":"Point","coordinates":[14.6284999,50.906683]},"properties":{"hgv":"no","maxweight":"3.5"}},{"type":"Feature","geometry":{"type":"Point","coordinates":[14.1342595,50.9212546]},"properties":{"maxweight":"7.5"}},{"type":"Feature","geometry":{"type":"Point","coordinates":[14.2740089,50.9759649]},"properties":{"maxheight":"3.2"}},{"type":"Feature","geometry":{"type":"Point","coordinates":[14.0322351,50.957167]},"properties":{"maxheight":"3.6"}},{"type":"Feature","geometry":{"type":"Point","coordinates":[14.664641,50.9884043]},"properties":{"hgv":"agricultural"}},{"type":"Feature","geometry":{"type":"Point","coordinates":[14.6958223,50.8567035]},"properties":{"maxwidth":"7.5","maxweight":"3.5"}},{"type":"Feature","geometry":{"type":"Point","coordinates":[14.6944468,50.8568015]},"properties":{"hgv":"no"}},{"type":"Feature","geometry":{"type":"Point","coordinates":[14.6954838,50.854898]},"properties":{"maxwidth":"7.5","maxweight":"3.5"}},{"type":"Feature","geometry":{"type":"Point","coordinates":[14.8257582,50.9466531]},"properties":{"maxweight":"16"}},{"type":"Feature","geometry":{"type":"Point","coordinates":[14.8366381,50.9480972]},"properties":{"maxweight":"18"}},{"type":"Feature","geometry":{"type":"Point","coordinates":[14.8356219,50.9496738]},"properties":{"maxweight":"18"}},{"type":"Feature","geometry":{"type":"Point","coordinates":[14.5684477,50.993668]},"properties":{"hgv":"no"}},{"type":"Feature","geometry":{"type":"Point","coordinates":[14.8175496,50.8982616]},"properties":{"maxheight":"default"}},{"type":"Feature","geometry":{"type":"Point","coordinates":[14.6076016,50.9203728]},"properties":{"maxweight":"7.5"}},{"type":"Feature","geometry":{"type":"Point","coordinates":[14.2364347,50.8747182]},"properties":{"maxweight":"91"}},{"type":"Feature","geometry":{"type":"Point","coordinates":[14.2356183,50.8732706]},"properties":{"maxweight":"41"}},{"type":"Feature","geometry":{"type":"Point","coordinates":[14.2365174,50.8846408]},"properties":{"hgv":"no"}},{"type":"Feature","geometry":{"type":"Point","coordinates":[14.6071832,50.922923]},"properties":{"maxweight":"7.5"}},{"type":"Feature","geometry":{"type":"Point","coordinates":[14.5988754,50.9640253]},"properties":{"hgv":"yes"}},{"type":"Feature","geometry":{"type":"Point","coordinates":[14.1392028,50.9223282]},"properties":{"maxweight":"7.5"}},{"type":"Feature","geometry":{"type":"Point","coordinates":[14.6490376,50.9638631]},"properties":{"hgv":"delivery"}},{"type":"Feature","geometry":{"type":"Point","coordinates":[14.8197627,50.9077638]},"properties":{"maxweight":"1.5"}},{"type":"Feature","geometry":{"type":"Point","coordinates":[14.1376405,50.9226783]},"properties":{"maxweight":"7.5"}},{"type":"Feature","geometry":{"type":"Point","coordinates":[14.0551204,50.9288781]},"properties":{"maxweight":"2.8"}},{"type":"Feature","geometry":{"type":"Point","coordinates":[14.2938968,50.9916692]},"properties":{"maxweight":"9"}},{"type":"Feature","geometry":{"type":"Point","coordinates":[14.1064537,50.9853379]},"properties":{"maxweight":"12"}},{"type":"Feature","geometry":{"type":"Point","coordinates":[14.2771013,50.9731609]},"properties":{"maxweight":"2.8"}},{"type":"Feature","geometry":{"type":"Point","coordinates":[14.3516587,50.9342884]},"properties":{"maxheight":"2.8","maxweight":"2.8"}},{"type":"Feature","geometry":{"type":"Point","coordinates":[14.3519031,50.9345199]},"properties":{"maxheight":"2.8"}},{"type":"Feature","geometry":{"type":"Point","coordinates":[14.3523911,50.9352813]},"properties":{"maxheight":"2.8","maxweight":"2.8"}},{"type":"Feature","geometry":{"type":"Point","coordinates":[14.3503106,50.9337139]},"properties":{"maxheight":"2.8"}},{"type":"Feature","geometry":{"type":"Point","coordinates":[14.7659439,50.8167244]},"properties":{"hgv":"no"}},{"type":"Feature","geometry":{"type":"Point","coordinates":[14.7649276,50.8188507]},"properties":{"hgv":"no"}},{"type":"Feature","geometry":{"type":"Point","coordinates":[14.232893,50.8893305]},"properties":{"hgv":"no"}},{"type":"Feature","geometry":{"type":"Point","coordinates":[14.0554426,50.9273949]},"properties":{"maxheight":"below_default"}},{"type":"Feature","geometry":{"type":"Point","coordinates":[14.3331252,50.9418791]},"properties":{"maxweight":"10"}},{"type":"Feature","geometry":{"type":"Point","coordinates":[14.3463673,50.9292181]},"properties":{"maxweight":"2.8"}},{"type":"Feature","geometry":{"type":"Point","coordinates":[14.3484161,50.9320706]},"properties":{"maxheight":"2.8"}},{"type":"Feature","geometry":{"type":"Point","coordinates":[14.3386967,50.9267078]},"properties":{"maxweight":"2.8"}},{"type":"Feature","geometry":{"type":"Point","coordinates":[14.1662658,50.9505822]},"properties":{"maxweight":"10"}},{"type":"Feature","geometry":{"type":"Point","coordinates":[14.1669218,50.9541473]},"properties":{"maxweight":"10"}},{"type":"Feature","geometry":{"type":"Point","coordinates":[14.1635902,50.9425771]},"properties":{"maxweight":"3.5"}},{"type":"Feature","geometry":{"type":"Point","coordinates":[14.0482505,50.9586293]},"properties":{"maxweight":"10"}},{"type":"Feature","geometry":{"type":"Point","coordinates":[14.0427401,50.9588332]},"properties":{"maxweight":"10"}},{"type":"Feature","geometry":{"type":"Point","coordinates":[14.2609562,50.9834511]},"properties":{"maxheight":"default"}},{"type":"Feature","geometry":{"type":"Point","coordinates":[14.7744452,50.877165]},"properties":{"maxweight":"3.5 t"}},{"type":"Feature","geometry":{"type":"Point","coordinates":[14.7749437,50.876914]},"properties":{"maxweight":"3.5 t"}},{"type":"Feature","geometry":{"type":"Point","coordinates":[14.7764735,50.8790176]},"properties":{"maxweight":"1.5 t"}},{"type":"Feature","geometry":{"type":"Point","coordinates":[14.7685333,50.8707527]},"properties":{"maxweight":"5"}},{"type":"Feature","geometry":{"type":"Point","coordinates":[14.7677707,50.8704612]},"properties":{"maxweight":"5"}},{"type":"Feature","geometry":{"type":"Point","coordinates":[14.7693939,50.8715863]},"properties":{"maxweight":"5"}},{"type":"Feature","geometry":{"type":"Point","coordinates":[14.7679168,50.8704141]},"properties":{"maxweight":"5"}},{"type":"Feature","geometry":{"type":"Point","coordinates":[14.7849583,50.8854916]},"properties":{"maxheight":"3.5"}},{"type":"Feature","geometry":{"type":"Point","coordinates":[14.7854079,50.8852798]},"properties":{"maxheight":"3.5"}},{"type":"Feature","geometry":{"type":"Point","coordinates":[14.7072176,50.836624]},"properties":{"hgv":"no"}},{"type":"Feature","geometry":{"type":"Point","coordinates":[14.0722091,50.9810689]},"properties":{"maxweight":"10"}},{"type":"Feature","geometry":{"type":"Point","coordinates":[14.6125937,50.9333022]},"properties":{"maxheight":"default"}},{"type":"Feature","geometry":{"type":"Point","coordinates":[14.2731442,50.973028]},"properties":{"maxheight":"below_default"}},{"type":"Feature","geometry":{"type":"Point","coordinates":[14.7253596,50.9992637]},"properties":{"maxweight":"12"}},{"type":"Feature","geometry":{"type":"Point","coordinates":[14.7683783,50.8653141]},"properties":{"hgv":"no"}},{"type":"Feature","geometry":{"type":"Point","coordinates":[14.0864535,50.9944539]},"properties":{"maxweight":"10"}},{"type":"Feature","geometry":{"type":"Point","coordinates":[14.1372298,50.9225884]},"properties":{"maxheight":"default"}},{"type":"Feature","geometry":{"type":"Point","coordinates":[14.0649836,50.9207645]},"properties":{"maxheight":"3.45"}},{"type":"Feature","geometry":{"type":"Point","coordinates":[14.1742441,50.9217635]},"properties":{"maxweight":"2.8"}},{"type":"Feature","geometry":{"type":"Point","coordinates":[14.047019,50.8768773]},"properties":{"maxweight":"15"}},{"type":"Feature","geometry":{"type":"Point","coordinates":[14.0106175,50.9443304]},"properties":{"maxheight":"1.65","maxwidth":"2.05"}},{"type":"Feature","geometry":{"type":"Point","coordinates":[14.0290052,50.9564199]},"properties":{"maxweight":"5 t"}},{"type":"Feature","geometry":{"type":"Point","coordinates":[14.0359823,50.9573475]},"properties":{"maxweight":"10"}},{"type":"Feature","geometry":{"type":"Point","coordinates":[14.7507888,50.9149821]},"properties":{"maxheight":"3.5"}},{"type":"Feature","geometry":{"type":"Point","coordinates":[14.7669936,50.9238274]},"properties":{"maxweight":"7.5"}},{"type":"Feature","geometry":{"type":"Point","coordinates":[14.835898,50.9065472]},"properties":{"maxheight":"default"}},{"type":"Feature","geometry":{"type":"Point","coordinates":[14.8248721,50.9167011]},"properties":{"maxheight":"default"}},{"type":"Feature","geometry":{"type":"Point","coordinates":[14.8312291,50.8675436]},"properties":{"maxweight":"12"}},{"type":"Feature","geometry":{"type":"Point","coordinates":[14.6526062,50.8737056]},"properties":{"maxweight":"1.5"}},{"type":"Feature","geometry":{"type":"Point","coordinates":[14.6526696,50.8736923]},"properties":{"maxweight":"1.5"}},{"type":"Feature","geometry":{"type":"Point","coordinates":[14.7828322,50.8825452]},"properties":{"hgv":"no"}},{"type":"Feature","geometry":{"type":"Point","coordinates":[14.6825072,50.9382628]},"properties":{"hgv":"no"}},{"type":"Feature","geometry":{"type":"Point","coordinates":[14.6551142,50.9540822]},"properties":{"maxweight":"2"}},{"type":"Feature","geometry":{"type":"Point","coordinates":[14.0794863,50.9526151]},"properties":{"maxheight":"4"}},{"type":"Feature","geometry":{"type":"Point","coordinates":[14.7438492,50.9439378]},"properties":{"maxwidth":"2.0"}},{"type":"Feature","geometry":{"type":"Point","coordinates":[14.7453375,50.9436554]},"properties":{"maxwidth":"2.0"}},{"type":"Feature","geometry":{"type":"Point","coordinates":[14.5973127,50.9879284]},"properties":{"maxheight":"2"}},{"type":"Feature","geometry":{"type":"Point","coordinates":[14.7229562,50.8325517]},"properties":{"maxweight":"7.5"}},{"type":"Feature","geometry":{"type":"Point","coordinates":[14.8345501,50.9079504]},"properties":{"maxheight":"default"}},{"type":"Feature","geometry":{"type":"Point","coordinates":[14.6653269,50.8985121]},"properties":{"maxweight":"16"}},{"type":"Feature","geometry":{"type":"Point","coordinates":[14.6935702,50.8554122]},"properties":{"hgv":"no"}},{"type":"Feature","geometry":{"type":"Point","coordinates":[14.6939629,50.8558327]},"properties":{"hgv":"no"}},{"type":"Feature","geometry":{"type":"Point","coordinates":[14.7946986,50.8937565]},"properties":{"maxheight":"3.2"}},{"type":"Feature","geometry":{"type":"Point","coordinates":[14.8097557,50.8959287]},"properties":{"maxheight":"below_default"}},{"type":"Feature","geometry":{"type":"Point","coordinates":[14.047228,50.9269964]},"properties":{"maxwidth":"2.2"}},{"type":"Feature","geometry":{"type":"Point","coordinates":[14.1056706,50.9904369]},"properties":{"maxweight":"12"}},{"type":"Feature","geometry":{"type":"Point","coordinates":[14.8571211,50.9316552]},"properties":{"maxweight":"15"}},{"type":"Feature","geometry":{"type":"Point","coordinates":[14.6428394,50.9095946]},"properties":{"maxweight":"0.45"}},{"type":"Feature","geometry":{"type":"Point","coordinates":[14.0537598,50.9076854]},"properties":{"maxweight":"7.5"}},{"type":"Feature","geometry":{"type":"Point","coordinates":[14.137514,50.9226308]},"properties":{"maxweight":"7.5"}},{"type":"Feature","geometry":{"type":"Point","coordinates":[14.0684893,50.9196056]},"properties":{"maxheight":"2.1"}},{"type":"Feature","geometry":{"type":"Point","coordinates":[14.707426,50.9949988]},"properties":{"maxheight":"default"}},{"type":"Feature","geometry":{"type":"Point","coordinates":[14.1159167,50.8774089]},"properties":{"maxheight":"2.2"}},{"type":"Feature","geometry":{"type":"Point","coordinates":[14.075695,50.9106102]},"properties":{"maxweight":"3.5"}},{"type":"Feature","geometry":{"type":"Point","coordinates":[14.806281,50.9408904]},"properties":{"maxweight":"1.5"}},{"type":"Feature","geometry":{"type":"Point","coordinates":[14.7672425,50.8653002]},"properties":{"hgv":"no"}},{"type":"Feature","geometry":{"type":"Point","coordinates":[14.7303734,50.9781848]},"properties":{"maxheight":"default"}},{"type":"Feature","geometry":{"type":"Point","coordinates":[14.8291112,50.8930868]},"properties":{"maxheight":"default"}},{"type":"Feature","geometry":{"type":"Point","coordinates":[14.362204,50.9253693]},"properties":{"maxlength":"7.5"}},{"type":"Feature","geometry":{"type":"Point","coordinates":[14.1590358,50.9284421]},"properties":{"hgv":"no"}},{"type":"Feature","geometry":{"type":"Point","coordinates":[14.1481023,50.9230615]},"properties":{"maxweight":"2.8"}},{"type":"Feature","geometry":{"type":"Point","coordinates":[14.6821661,50.8930187]},"properties":{"maxweight":"7.5"}},{"type":"Feature","geometry":{"type":"Point","coordinates":[14.0766568,50.956332]},"properties":{"maxheight":"4.0","maxweight":"7.5"}},{"type":"Feature","geometry":{"type":"Point","coordinates":[14.141381,50.9296114]},"properties":{"maxweight":"3.5"}},{"type":"Feature","geometry":{"type":"Point","coordinates":[14.1422736,50.929134]},"properties":{"maxweight":"3.5"}},{"type":"Feature","geometry":{"type":"Point","coordinates":[14.207299,50.9362083]},"properties":{"maxweight":"10"}},{"type":"Feature","geometry":{"type":"Point","coordinates":[14.1376326,50.9435259]},"properties":{"maxheight":"3.2"}},{"type":"Feature","geometry":{"type":"Point","coordinates":[14.6187501,50.9304284]},"properties":{"maxweight":"5"}},{"type":"Feature","geometry":{"type":"Point","coordinates":[14.6148493,50.9286595]},"properties":{"maxweight":"5"}},{"type":"Feature","geometry":{"type":"Point","coordinates":[14.6599306,50.8913546]},"properties":{"hgv":"no"}},{"type":"Feature","geometry":{"type":"Point","coordinates":[14.6690839,50.9884352]},"properties":{"maxweight":"7.5"}},{"type":"Feature","geometry":{"type":"Point","coordinates":[14.2683759,50.9731521]},"properties":{"maxheight":"default"}},{"type":"Feature","geometry":{"type":"Point","coordinates":[14.808258,50.8828553]},"properties":{"maxheight":"2.9"}},{"type":"Feature","geometry":{"type":"Point","coordinates":[14.6945202,50.8570948]},"properties":{"maxwidth":"7.5","maxweight":"3.5"}},{"type":"Feature","geometry":{"type":"Point","coordinates":[14.6943752,50.8570721]},"properties":{"maxwidth":"7.5","maxweight":"3.5"}},{"type":"Feature","geometry":{"type":"Point","coordinates":[14.2715041,50.9721755]},"properties":{"maxheight":"below_default"}},{"type":"Feature","geometry":{"type":"Point","coordinates":[14.2509238,50.9846258]},"properties":{"maxweight":"3.5"}},{"type":"Feature","geometry":{"type":"Point","coordinates":[14.2517855,50.9851595]},"properties":{"maxweight":"3.5"}},{"type":"Feature","geometry":{"type":"Point","coordinates":[14.2347027,50.8768909]},"properties":{"maxweight":"3"}},{"type":"Feature","geometry":{"type":"Point","coordinates":[14.2352679,50.9829293]},"properties":{"maxweight":"3.5"}},{"type":"Feature","geometry":{"type":"Point","coordinates":[14.1627739,50.9549705]},"properties":{"maxweight":"10"}},{"type":"Feature","geometry":{"type":"Point","coordinates":[14.1621931,50.9339034]},"properties":{"maxweight":"3.5"}},{"type":"Feature","geometry":{"type":"Point","coordinates":[14.2679422,50.9747644]},"properties":{"maxheight":"3.20"}},{"type":"Feature","geometry":{"type":"Point","coordinates":[14.1663967,50.9564534]},"properties":{"maxweight":"10"}},{"type":"Feature","geometry":{"type":"Point","coordinates":[14.6481636,50.8678283]},"properties":{"hgv":"destination"}},{"type":"Feature","geometry":{"type":"Point","coordinates":[14.6479633,50.8691557]},"properties":{"hgv":"destination"}},{"type":"Feature","geometry":{"type":"Point","coordinates":[14.6484351,50.8704518]},"properties":{"hgv":"destination"}},{"type":"Feature","geometry":{"type":"Point","coordinates":[14.1320598,50.9214845]},"properties":{"maxheight":"default"}},{"type":"Feature","geometry":{"type":"Point","coordinates":[14.7188454,50.8319815]},"properties":{"maxweight":"3.5"}},{"type":"Feature","geometry":{"type":"Point","coordinates":[14.2017479,50.913112]},"properties":{"maxheight":"0.30"}},{"type":"Feature","geometry":{"type":"Point","coordinates":[14.8289093,50.8714919]},"properties":{"maxweight":"12"}},{"type":"Feature","geometry":{"type":"Point","coordinates":[14.2340859,50.8879381]},"properties":{"hgv":"no"}},{"type":"Feature","geometry":{"type":"Point","coordinates":[14.6055729,50.9861964]},"properties":{"maxheight":"3.20"}},{"type":"Feature","geometry":{"type":"Point","coordinates":[14.6075953,50.9868254]},"properties":{"maxheight":"default"}},{"type":"Feature","geometry":{"type":"Point","coordinates":[14.1064182,50.9861344]},"properties":{"maxweight":"12"}},{"type":"Feature","geometry":{"type":"Point","coordinates":[14.2713759,50.9730265]},"properties":{"maxheight":"below_default"}},{"type":"Feature","geometry":{"type":"Point","coordinates":[14.7473728,50.942895]},"properties":{"maxwidth":"2.0"}},{"type":"Feature","geometry":{"type":"Point","coordinates":[14.7468049,50.9429891]},"properties":{"maxwidth":"2.0"}},{"type":"Feature","geometry":{"type":"Point","coordinates":[14.1652825,50.9119109]},"properties":{"maxheight":"below_default"}},{"type":"Feature","geometry":{"type":"Point","coordinates":[14.8125275,50.9041179]},"properties":{"maxheight":"default"}},{"type":"Feature","geometry":{"type":"Point","coordinates":[14.1313421,50.9220958]},"properties":{"maxheight":"default"}},{"type":"Feature","geometry":{"type":"Point","coordinates":[14.0720159,50.9179221]},"properties":{"maxwidth":"2.2"}},{"type":"Feature","geometry":{"type":"Point","coordinates":[14.1477262,50.9049579]},"properties":{"maxweight":"3.5"}},{"type":"Feature","geometry":{"type":"Point","coordinates":[14.5774037,50.9915652]},"properties":{"hgv":"no"}},{"type":"Feature","geometry":{"type":"Point","coordinates":[14.581375,50.9897913]},"properties":{"hgv":"no"}},{"type":"Feature","geometry":{"type":"Point","coordinates":[14.5795474,50.9905969]},"properties":{"hgv":"no"}},{"type":"Feature","geometry":{"type":"Point","coordinates":[14.2494006,50.9842893]},"properties":{"maxweight":"3.5"}},{"type":"Feature","geometry":{"type":"Point","coordinates":[14.6076361,50.9165854]},"properties":{"maxweight":"7.5"}},{"type":"Feature","geometry":{"type":"Point","coordinates":[14.5866581,50.9681698]},"properties":{"hgv":"no"}},{"type":"Feature","geometry":{"type":"Point","coordinates":[14.164616,50.9252973]},"properties":{"maxweight":"3.5"}},{"type":"Feature","geometry":{"type":"Point","coordinates":[14.1634267,50.9252521]},"properties":{"maxweight":"3.5"}},{"type":"Feature","geometry":{"type":"Point","coordinates":[14.8271521,50.9152923]},"properties":{"maxweight":"5"}},{"type":"Feature","geometry":{"type":"Point","coordinates":[14.2047879,50.9964573]},"properties":{"maxheight":"4"}},{"type":"Feature","geometry":{"type":"Point","coordinates":[14.6690645,50.9350505]},"properties":{"maxweight":"2.5"}},{"type":"Feature","geometry":{"type":"Point","coordinates":[14.7050514,50.9074345]},"properties":{"maxheight":"3.8"}},{"type":"Feature","geometry":{"type":"Point","coordinates":[14.0022149,50.8892049]},"properties":{"maxweight":"16 t"}},{"type":"Feature","geometry":{"type":"Point","coordinates":[14.3609382,50.924951]},"properties":{"maxlength":"7.5"}},{"type":"Feature","geometry":{"type":"Point","coordinates":[14.2073678,50.964129]},"properties":{"hgv":"no"}},{"type":"Feature","geometry":{"type":"Point","coordinates":[14.2109835,50.935151]},"properties":{"maxweight":"10"}},{"type":"Feature","geometry":{"type":"Point","coordinates":[14.0895128,50.9181476]},"properties":{"maxweight":"12"}},{"type":"Feature","geometry":{"type":"Point","coordinates":[14.0900294,50.9177742]},"properties":{"maxweight":"12"}},{"type":"Feature","geometry":{"type":"Point","coordinates":[14.0888437,50.9191681]},"properties":{"maxweight":"12"}},{"type":"Feature","geometry":{"type":"Point","coordinates":[14.0891396,50.9196799]},"properties":{"maxweight":"12"}},{"type":"Feature","geometry":{"type":"Point","coordinates":[14.0863176,50.9184373]},"properties":{"maxweight":"12"}},{"type":"Feature","geometry":{"type":"Point","coordinates":[14.0862358,50.9184303]},"properties":{"maxweight":"12"}},{"type":"Feature","geometry":{"type":"Point","coordinates":[14.0897506,50.9174666]},"properties":{"maxweight":"12"}},{"type":"Feature","geometry":{"type":"Point","coordinates":[14.0857924,50.9184726]},"properties":{"maxweight":"12"}},{"type":"Feature","geometry":{"type":"Point","coordinates":[14.0790827,50.9192005]},"properties":{"maxweight":"12"}},{"type":"Feature","geometry":{"type":"Point","coordinates":[14.0539555,50.8757044]},"properties":{"maxweight":"3.5"}},{"type":"Feature","geometry":{"type":"Point","coordinates":[14.7084321,50.8348248]},"properties":{"hgv":"no"}},{"type":"Feature","geometry":{"type":"Point","coordinates":[14.2821643,50.975795]},"properties":{"maxwidth":"2"}},{"type":"Feature","geometry":{"type":"Point","coordinates":[14.6075839,50.9206126]},"properties":{"maxweight":"7.5"}},{"type":"Feature","geometry":{"type":"Point","coordinates":[14.6075785,50.9208857]},"properties":{"maxweight":"7.5"}},{"type":"Feature","geometry":{"type":"Point","coordinates":[14.6074724,50.9212419]},"properties":{"maxweight":"7.5"}},{"type":"Feature","geometry":{"type":"Point","coordinates":[14.6074642,50.921256]},"properties":{"maxweight":"7.5"}},{"type":"Feature","geometry":{"type":"Point","coordinates":[14.6073163,50.9215314]},"properties":{"maxweight":"7.5"}},{"type":"Feature","geometry":{"type":"Point","coordinates":[14.6072542,50.9216469]},"properties":{"maxweight":"7.5"}},{"type":"Feature","geometry":{"type":"Point","coordinates":[14.6071507,50.9219114]},"properties":{"maxweight":"7.5"}},{"type":"Feature","geometry":{"type":"Point","coordinates":[14.6071038,50.9222045]},"properties":{"maxweight":"7.5"}},{"type":"Feature","geometry":{"type":"Point","coordinates":[14.6071756,50.921831]},"properties":{"maxweight":"7.5"}},{"type":"Feature","geometry":{"type":"Point","coordinates":[14.607715,50.9240068]},"properties":{"maxweight":"7.5"}},{"type":"Feature","geometry":{"type":"Point","coordinates":[14.6085269,50.9303034]},"properties":{"maxweight":"5"}},{"type":"Feature","geometry":{"type":"Point","coordinates":[14.0686085,50.9198831]},"properties":{"maxheight":"2.1"}},{"type":"Feature","geometry":{"type":"Point","coordinates":[14.7030404,50.8483565]},"properties":{"maxwidth":"2"}},{"type":"Feature","geometry":{"type":"Point","coordinates":[14.7020861,50.8488614]},"properties":{"maxwidth":"2"}},{"type":"Feature","geometry":{"type":"Point","coordinates":[14.7992394,50.887701]},"properties":{"hgv":"no"}},{"type":"Feature","geometry":{"type":"Point","coordinates":[14.8067107,50.8956458]},"properties":{"maxheight":"below_default"}},{"type":"Feature","geometry":{"type":"Point","coordinates":[14.1666229,50.9761319]},"properties":{"hgv":"agricultural"}},{"type":"Feature","geometry":{"type":"Point","coordinates":[14.8192218,50.9074451]},"properties":{"maxweight":"1.5"}},{"type":"Feature","geometry":{"type":"Point","coordinates":[14.3570527,50.9243242]},"properties":{"maxweight":"2.8"}},{"type":"Feature","geometry":{"type":"Point","coordinates":[14.3576988,50.9241723]},"properties":{"maxweight":"2.8"}},{"type":"Feature","geometry":{"type":"Point","coordinates":[14.2569537,50.967763]},"properties":{"maxwidth":"2"}},{"type":"Feature","geometry":{"type":"Point","coordinates":[14.0077985,50.8443927]},"properties":{"maxweight":"3.5"}},{"type":"Feature","geometry":{"type":"Point","coordinates":[14.7433627,50.9268631]},"properties":{"maxweight":"3"}},{"type":"Feature","geometry":{"type":"Point","coordinates":[14.7441309,50.9278093]},"properties":{"maxweight":"3"}},{"type":"Feature","geometry":{"type":"Point","coordinates":[14.8029945,50.8974634]},"properties":{"maxweight":"7.5"}},{"type":"Feature","geometry":{"type":"Point","coordinates":[14.8050441,50.8963652]},"properties":{"maxweight":"7.5"}},{"type":"Feature","geometry":{"type":"Point","coordinates":[14.0721421,50.9175733]},"properties":{"maxwidth":"2.2"}},{"type":"Feature","geometry":{"type":"Point","coordinates":[14.1679339,50.9519144]},"properties":{"maxweight":"10"}},{"type":"Feature","geometry":{"type":"Point","coordinates":[14.6603111,50.8914927]},"properties":{"hgv":"no"}},{"type":"Feature","geometry":{"type":"Point","coordinates":[14.2538538,50.9672197]},"properties":{"maxweight":"12"}},{"type":"Feature","geometry":{"type":"Point","coordinates":[14.1536349,50.917596]},"properties":{"maxheight":"3.45"}},{"type":"Feature","geometry":{"type":"Point","coordinates":[14.2593381,50.9687473]},"properties":{"maxheight":"below_default"}},{"type":"Feature","geometry":{"type":"Point","coordinates":[14.2384862,50.9451818]},"properties":{"maxwidth":"2.2"}},{"type":"Feature","geometry":{"type":"Point","coordinates":[14.2603817,50.9836564]},"properties":{"maxheight":"default"}},{"type":"Feature","geometry":{"type":"Point","coordinates":[14.2361286,50.8741229]},"properties":{"maxweight":"49"}},{"type":"Feature","geometry":{"type":"Point","coordinates":[14.2362616,50.8743582]},"properties":{"maxweight":"49"}},{"type":"Feature","geometry":{"type":"Point","coordinates":[14.8358241,50.9452274]},"properties":{"maxweight":"18"}},{"type":"Feature","geometry":{"type":"Point","coordinates":[14.127739,50.9367901]},"properties":{"maxheight":"default"}},{"type":"Feature","geometry":{"type":"Point","coordinates":[14.7064085,50.9158788]},"properties":{"hgv":"no"}},{"type":"Feature","geometry":{"type":"Point","coordinates":[14.7065249,50.9159555]},"properties":{"hgv":"no"}},{"type":"Feature","geometry":{"type":"Point","coordinates":[14.7558131,50.8802148]},"properties":{"maxweight":"15"}},{"type":"Feature","geometry":{"type":"Point","coordinates":[14.8250038,50.9035374]},"properties":{"maxweight":"7.5"}},{"type":"Feature","geometry":{"type":"Point","coordinates":[14.8228454,50.9042653]},"properties":{"maxweight":"7.5"}},{"type":"Feature","geometry":{"type":"Point","coordinates":[14.2423202,50.930235]},"properties":{"maxwidth":"2.2"}},{"type":"Feature","geometry":{"type":"Point","coordinates":[14.2423311,50.9307374]},"properties":{"maxwidth":"2.2"}},{"type":"Feature","geometry":{"type":"Point","coordinates":[14.2435698,50.9359377]},"properties":{"maxwidth":"2.2"}},{"type":"Feature","geometry":{"type":"Point","coordinates":[14.2435652,50.9359632]},"properties":{"maxwidth":"2.2"}},{"type":"Feature","geometry":{"type":"Point","coordinates":[14.1672943,50.9101465]},"properties":{"maxwidth":"2.2"}},{"type":"Feature","geometry":{"type":"Point","coordinates":[14.1680606,50.9105726]},"properties":{"maxwidth":"2.2"}},{"type":"Feature","geometry":{"type":"Point","coordinates":[14.085177,50.9186597]},"properties":{"maxweight":"12"}},{"type":"Feature","geometry":{"type":"Point","coordinates":[14.7947141,50.8982786]},"properties":{"maxweight":"2.8"}},{"type":"Feature","geometry":{"type":"Point","coordinates":[14.7065713,50.8405611]},"properties":{"maxweight":"3.5"}},{"type":"Feature","geometry":{"type":"Point","coordinates":[14.6616041,50.9849235]},"properties":{"maxweight":"2.8"}},{"type":"Feature","geometry":{"type":"Point","coordinates":[14.7433041,50.9260064]},"properties":{"maxweight":"3"}},{"type":"Feature","geometry":{"type":"Point","coordinates":[14.7887025,50.9458041]},"properties":{"hgv":"agricultural"}},{"type":"Feature","geometry":{"type":"Point","coordinates":[14.629378,50.9062385]},"properties":{"hgv":"no"}},{"type":"Feature","geometry":{"type":"Point","coordinates":[14.5982777,50.9837203]},"properties":{"hgv":"no"}},{"type":"Feature","geometry":{"type":"Point","coordinates":[14.785361,50.9446742]},"properties":{"hgv":"agricultural"}},{"type":"Feature","geometry":{"type":"Point","coordinates":[14.7875504,50.9455789]},"properties":{"hgv":"agricultural"}},{"type":"Feature","geometry":{"type":"Point","coordinates":[14.8164591,50.8990057]},"properties":{"maxheight":"2.6"}},{"type":"Feature","geometry":{"type":"Point","coordinates":[14.6791045,50.8955614]},"properties":{"maxweight":"1.5"}},{"type":"Feature","geometry":{"type":"Point","coordinates":[14.87828,50.9379612]},"properties":{"maxheight":"4.5"}},{"type":"Feature","geometry":{"type":"Point","coordinates":[14.5889366,50.9870415]},"properties":{"hgv":"no"}},{"type":"Feature","geometry":{"type":"Point","coordinates":[14.5908265,50.9861255]},"properties":{"hgv":"no"}},{"type":"Feature","geometry":{"type":"Point","coordinates":[14.5919886,50.9858298]},"properties":{"hgv":"no"}},{"type":"Feature","geometry":{"type":"Point","coordinates":[14.7907644,50.9460035]},"properties":{"hgv":"agricultural"}},{"type":"Feature","geometry":{"type":"Point","coordinates":[14.7090898,50.9682759]},"properties":{"maxheight":"3.8"}},{"type":"Feature","geometry":{"type":"Point","coordinates":[14.7864963,50.8846832]},"properties":{"maxheight":"3.5"}},{"type":"Feature","geometry":{"type":"Point","coordinates":[14.7865802,50.8846504]},"properties":{"maxheight":"3.5"}},{"type":"Feature","geometry":{"type":"Point","coordinates":[14.7993357,50.8877694]},"properties":{"hgv":"no"}},{"type":"Feature","geometry":{"type":"Point","coordinates":[14.6438613,50.9026341]},"properties":{"maxheight":"3"}},{"type":"Feature","geometry":{"type":"Point","coordinates":[14.2758408,50.9815064]},"properties":{"hgv":"no"}},{"type":"Feature","geometry":{"type":"Point","coordinates":[14.2752133,50.9816562]},"properties":{"hgv":"no"}},{"type":"Feature","geometry":{"type":"Point","coordinates":[14.1065058,50.986557]},"properties":{"maxweight":"12"}},{"type":"Feature","geometry":{"type":"Point","coordinates":[14.0861693,50.9184308]},"properties":{"maxweight":"12"}},{"type":"Feature","geometry":{"type":"Point","coordinates":[14.0672354,50.912664]},"properties":{"maxweight":"12"}},{"type":"Feature","geometry":{"type":"Point","coordinates":[14.0840348,50.9189868]},"properties":{"maxweight":"12"}},{"type":"Feature","geometry":{"type":"Point","coordinates":[14.1581872,50.9279461]},"properties":{"hgv":"no"}},{"type":"Feature","geometry":{"type":"Point","coordinates":[14.1587393,50.9283091]},"properties":{"hgv":"no"}},{"type":"Feature","geometry":{"type":"Point","coordinates":[14.1368488,50.9226336]},"properties":{"maxheight":"default"}},{"type":"Feature","geometry":{"type":"Point","coordinates":[14.5664661,50.9137439]},"properties":{"hgv":"no"}},{"type":"Feature","geometry":{"type":"Point","coordinates":[14.5664661,50.9137439]},"properties":{"hgv":"no"}},{"type":"Feature","geometry":{"type":"Point","coordinates":[14.1523206,50.9162182]},"properties":{"hgv":"no"}},{"type":"Feature","geometry":{"type":"Point","coordinates":[14.2885522,50.9598598]},"properties":{"maxweight":"3.5"}},{"type":"Feature","geometry":{"type":"Point","coordinates":[14.2897932,50.9600094]},"properties":{"maxweight":"3.5"}},{"type":"Feature","geometry":{"type":"Point","coordinates":[14.2891919,50.9593982]},"properties":{"maxweight":"3.5"}},{"type":"Feature","geometry":{"type":"Point","coordinates":[14.8063259,50.8959605]},"properties":{"maxheight":"below_default"}},{"type":"Feature","geometry":{"type":"Point","coordinates":[14.8063034,50.8959079]},"properties":{"maxheight":"below_default"}},{"type":"Feature","geometry":{"type":"Point","coordinates":[14.8320576,50.8903331]},"properties":{"maxheight":"3","maxwidth":"2.5"}},{"type":"Feature","geometry":{"type":"Point","coordinates":[14.8321927,50.8903906]},"properties":{"maxheight":"3","maxwidth":"2.5"}},{"type":"Feature","geometry":{"type":"Point","coordinates":[14.6919493,50.9970926]},"properties":{"maxheight":"default"}},{"type":"Feature","geometry":{"type":"Point","coordinates":[14.0721908,50.9173825]},"properties":{"maxwidth":"2.2"}},{"type":"Feature","geometry":{"type":"Point","coordinates":[14.5705481,50.9966519]},"properties":{"hgv":"no"}},{"type":"Feature","geometry":{"type":"Point","coordinates":[14.5734126,50.9996344]},"properties":{"hgv":"no"}},{"type":"Feature","geometry":{"type":"Point","coordinates":[14.5791195,50.9907993]},"properties":{"hgv":"no"}},{"type":"Feature","geometry":{"type":"Point","coordinates":[14.5862588,50.9881023]},"properties":{"hgv":"no"}},{"type":"Feature","geometry":{"type":"Point","coordinates":[14.6179819,50.9298342]},"properties":{"maxweight":"5"}},{"type":"Feature","geometry":{"type":"Point","coordinates":[14.2560008,50.8752533]},"properties":{"maxheight":"default"}},{"type":"Feature","geometry":{"type":"Point","coordinates":[14.0746796,50.9116053]},"properties":{"maxweight":"3.5"}},{"type":"Feature","geometry":{"type":"Point","coordinates":[14.1655969,50.9493098]},"properties":{"maxweight":"3.5"}},{"type":"Feature","geometry":{"type":"Point","coordinates":[14.163481,50.9464425]},"properties":{"maxweight":"3.5"}},{"type":"Feature","geometry":{"type":"Point","coordinates":[14.1613966,50.9462989]},"properties":{"maxweight":"3.5"}},{"type":"Feature","geometry":{"type":"Point","coordinates":[14.5688835,50.9941356]},"properties":{"hgv":"no"}},{"type":"Feature","geometry":{"type":"Point","coordinates":[14.7587163,50.8319484]},"properties":{"maxweight":"2.5"}},{"type":"Feature","geometry":{"type":"Point","coordinates":[14.7494953,50.9148302]},"properties":{"maxweight":"5"}},{"type":"Feature","geometry":{"type":"Point","coordinates":[14.1494335,50.9218647]},"properties":{"maxweight":"2.8"}},{"type":"Feature","geometry":{"type":"Point","coordinates":[14.1504834,50.9175495]},"properties":{"maxheight":"1.9"}},{"type":"Feature","geometry":{"type":"Point","coordinates":[14.769502,50.8714928]},"properties":{"maxweight":"5"}},{"type":"Feature","geometry":{"type":"Point","coordinates":[14.6790835,50.8947957]},"properties":{"maxweight":"7.5"}},{"type":"Feature","geometry":{"type":"Point","coordinates":[14.7935985,50.8981095]},"properties":{"hgv":"yes"}},{"type":"Feature","geometry":{"type":"Point","coordinates":[14.1391771,50.9198031]},"properties":{"maxheight":"default"}},{"type":"Feature","geometry":{"type":"Point","coordinates":[14.2345199,50.8758267]},"properties":{"maxweight":"3"}},{"type":"Feature","geometry":{"type":"Point","coordinates":[14.8140627,50.9043603]},"properties":{"maxheight":"3.6"}},{"type":"Feature","geometry":{"type":"Point","coordinates":[14.7373411,50.9496433]},"properties":{"maxweight":"1"}},{"type":"Feature","geometry":{"type":"Point","coordinates":[14.7328588,50.9511634]},"properties":{"maxweight":"7.5"}},{"type":"Feature","geometry":{"type":"Point","coordinates":[14.5950994,50.970931]},"properties":{"hgv":"no"}},{"type":"Feature","geometry":{"type":"Point","coordinates":[14.3597393,50.9280404]},"properties":{"maxweight":"7.5"}},{"type":"Feature","geometry":{"type":"Point","coordinates":[14.8047245,50.895687]},"properties":{"maxweight":"7.5"}},{"type":"Feature","geometry":{"type":"Point","coordinates":[14.8041042,50.8955061]},"properties":{"maxweight":"7.5"}},{"type":"Feature","geometry":{"type":"Point","coordinates":[14.139451,50.9195613]},"properties":{"maxheight":"default"}}]}