{"type":"FeatureCollection","features":[{"type":"Feature","geometry":{"type":"Point","coordinates":[14.2452239,53.0248287]},"properties":{"maxheight":"4.78"}},{"type":"Feature","geometry":{"type":"Point","coordinates":[14.3116262,53.0349598]},"properties":{"hgv":"yes","goods":"yes"}},{"type":"Feature","geometry":{"type":"Point","coordinates":[14.4083265,53.3357274]},"properties":{"hgv":"yes","goods":"yes"}},{"type":"Feature","geometry":{"type":"Point","coordinates":[14.4084131,53.3356327]},"properties":{"hgv":"yes","goods":"yes"}},{"type":"Feature","geometry":{"type":"Point","coordinates":[14.4090568,53.3067929]},"properties":{"hgv":"yes","goods":"yes"}},{"type":"Feature","geometry":{"type":"Point","coordinates":[14.290184,53.0530975]},"properties":{"maxheight":"4.84"}},{"type":"Feature","geometry":{"type":"Point","coordinates":[14.320093,53.0704979]},"properties":{"maxheight":"4.86"}},{"type":"Feature","geometry":{"type":"Point","coordinates":[14.2856132,53.0643024]},"properties":{"maxheight":"default"}},{"type":"Feature","geometry":{"type":"Point","coordinates":[14.4423189,53.2546792]},"properties":{"maxheight":"5.57 m"}},{"type":"Feature","geometry":{"type":"Point","coordinates":[14.4257,53.2419257]},"properties":{"hgv":"no","goods":"yes"}},{"type":"Feature","geometry":{"type":"Point","coordinates":[14.2268592,53.0109047]},"properties":{"maxheight":"4.86"}},{"type":"Feature","geometry":{"type":"Point","coordinates":[14.2585441,53.0364254]},"properties":{"maxheight":"5.12"}},{"type":"Feature","geometry":{"type":"Point","coordinates":[14.2743346,53.0469783]},"properties":{"maxheight":"5.49"}},{"type":"Feature","geometry":{"type":"Point","coordinates":[14.323538,53.0703238]},"properties":{"maxheight":"5.25"}},{"type":"Feature","geometry":{"type":"Point","coordinates":[14.3487282,53.1324574]},"properties":{"maxheight":"5.25"}},{"type":"Feature","geometry":{"type":"Point","coordinates":[14.4417515,53.2549214]},"properties":{"maxheight":"5.46"}},{"type":"Feature","geometry":{"type":"Point","coordinates":[14.285647,53.0643497]},"properties":{"maxheight":"default"}},{"type":"Feature","geometry":{"type":"Point","coordinates":[14.2856632,53.0643734]},"properties":{"maxheight":"default"}},{"type":"Feature","geometry":{"type":"Point","coordinates":[14.3711923,53.4534028]},"properties":{"hgv":"yes","goods":"yes"}},{"type":"Feature","geometry":{"type":"Point","coordinates":[14.3711471,53.4532744]},"properties":{"hgv":"yes","goods":"yes"}},{"type":"Feature","geometry":{"type":"Point","coordinates":[14.173662,53.9504871]},"properties":{"maxheight":"2"}},{"type":"Feature","geometry":{"type":"Point","coordinates":[14.2396975,53.4478158]},"properties":{"maxwidth":"3"}},{"type":"Feature","geometry":{"type":"Point","coordinates":[14.2392351,53.4478493]},"properties":{"maxwidth":"3"}},{"type":"Feature","geometry":{"type":"Point","coordinates":[14.2383741,53.4478367]},"properties":{"maxwidth":"2.5"}},{"type":"Feature","geometry":{"type":"Point","coordinates":[14.2336258,53.4485968]},"properties":{"maxwidth":"2"}},{"type":"Feature","geometry":{"type":"Point","coordinates":[14.2315568,53.4487718]},"properties":{"maxwidth":"1.5"}},{"type":"Feature","geometry":{"type":"Point","coordinates":[14.2149633,53.4543797]},"properties":{"maxwidth":"3.5"}},{"type":"Feature","geometry":{"type":"Point","coordinates":[14.1763006,53.9499588]},"properties":{"maxwidth":"1.5"}},{"type":"Feature","geometry":{"type":"Point","coordinates":[14.1574478,53.0626093]},"properties":{"maxheight":"2","maxwidth":"3"}},{"type":"Feature","geometry":{"type":"Point","coordinates":[14.165017,53.952978]},"properties":{"maxwidth":"0.8"}},{"type":"Feature","geometry":{"type":"Point","coordinates":[14.0486254,53.9814426]},"properties":{"maxwidth":"2"}},{"type":"Feature","geometry":{"type":"Point","coordinates":[14.1473644,53.9551875]},"properties":{"maxwidth":"1.2"}},{"type":"Feature","geometry":{"type":"Point","coordinates":[14.1690513,53.9504302]},"properties":{"maxwidth":"1"}},{"type":"Feature","geometry":{"type":"Point","coordinates":[14.150581,53.9597916]},"properties":{"maxwidth":"1.5"}},{"type":"Feature","geometry":{"type":"Point","coordinates":[14.165184,53.9559046]},"properties":{"maxheight":"2.5"}},{"type":"Feature","geometry":{"type":"Point","coordinates":[14.2083135,53.9334764]},"properties":{"maxwidth":"3"}},{"type":"Feature","geometry":{"type":"Point","coordinates":[14.1865341,53.942125]},"properties":{"maxheight":"2"}},{"type":"Feature","geometry":{"type":"Point","coordinates":[14.1813801,53.9455912]},"properties":{"maxheight":"2.1"}},{"type":"Feature","geometry":{"type":"Point","coordinates":[14.188711,53.9413063]},"properties":{"maxheight":"2"}},{"type":"Feature","geometry":{"type":"Point","coordinates":[14.1885724,53.9411345]},"properties":{"maxheight":"2,03"}},{"type":"Feature","geometry":{"type":"Point","coordinates":[14.0162044,53.0165115]},"properties":{"hgv":"delivery"}},{"type":"Feature","geometry":{"type":"Point","coordinates":[14.0159827,53.016395]},"properties":{"hgv":"delivery"}},{"type":"Feature","geometry":{"type":"Point","coordinates":[14.311149,53.0355852]},"properties":{"hgv":"yes"}},{"type":"Feature","geometry":{"type":"Point","coordinates":[14.0121999,53.2457092]},"properties":{"maxheight":"default"}},{"type":"Feature","geometry":{"type":"Point","coordinates":[14.4417977,53.2548895]},"properties":{"hgv":"no"}},{"type":"Feature","geometry":{"type":"Point","coordinates":[14.1408848,53.9750945]},"properties":{"maxweight":"3.5"}},{"type":"Feature","geometry":{"type":"Point","coordinates":[14.1301832,53.8831167]},"properties":{"maxweight":"3.5"}},{"type":"Feature","geometry":{"type":"Point","coordinates":[14.0161028,53.944248]},"properties":{"maxweight":"7.5"}},{"type":"Feature","geometry":{"type":"Point","coordinates":[14.034927,53.9346448]},"properties":{"maxweight":"3.5"}},{"type":"Feature","geometry":{"type":"Point","coordinates":[14.1398946,53.972155]},"properties":{"hgv":"no"}},{"type":"Feature","geometry":{"type":"Point","coordinates":[14.1599142,53.9604768]},"properties":{"maxweight":"7.5"}},{"type":"Feature","geometry":{"type":"Point","coordinates":[14.164075,53.9579633]},"properties":{"goods":"no"}},{"type":"Feature","geometry":{"type":"Point","coordinates":[14.1639289,53.9565559]},"properties":{"maxweight":"5.5"}},{"type":"Feature","geometry":{"type":"Point","coordinates":[14.183587,53.9415097]},"properties":{"maxweight":"7.5"}},{"type":"Feature","geometry":{"type":"Point","coordinates":[14.1963336,53.9388516]},"properties":{"hgv":"no"}},{"type":"Feature","geometry":{"type":"Point","coordinates":[14.1891215,53.9382105]},"properties":{"maxweight":"7.5"}},{"type":"Feature","geometry":{"type":"Point","coordinates":[14.1817109,53.940331]},"properties":{"maxweight":"5.5"}},{"type":"Feature","geometry":{"type":"Point","coordinates":[14.16729,53.955888]},"properties":{"maxweight":"3"}},{"type":"Feature","geometry":{"type":"Point","coordinates":[14.0327056,53.1990341]},"properties":{"maxheight":"default"}},{"type":"Feature","geometry":{"type":"Point","coordinates":[14.2567395,53.039278]},"properties":{"maxweight":"7.5"}},{"type":"Feature","geometry":{"type":"Point","coordinates":[14.3126015,53.0337273]},"properties":{"hgv":"yes"}},{"type":"Feature","geometry":{"type":"Point","coordinates":[14.3111387,53.0355987]},"properties":{"hgv":"yes"}},{"type":"Feature","geometry":{"type":"Point","coordinates":[14.2291692,53.0283619]},"properties":{"maxweight":"7.5"}},{"type":"Feature","geometry":{"type":"Point","coordinates":[14.1315887,53.8851429]},"properties":{"maxweight":"3.5"}},{"type":"Feature","geometry":{"type":"Point","coordinates":[14.1429282,53.9571941]},"properties":{"hgv":"no"}},{"type":"Feature","geometry":{"type":"Point","coordinates":[14.1259087,53.4007541]},"properties":{"maxweight":"7.5"}},{"type":"Feature","geometry":{"type":"Point","coordinates":[14.1661012,53.5143295]},"properties":{"maxweight":"5.5"}},{"type":"Feature","geometry":{"type":"Point","coordinates":[14.0356414,53.9379987]},"properties":{"maxweight":"3.5 t"}},{"type":"Feature","geometry":{"type":"Point","coordinates":[14.0424631,53.9405169]},"properties":{"maxheight":"3.8"}},{"type":"Feature","geometry":{"type":"Point","coordinates":[14.0546278,53.9064984]},"properties":{"maxweight":"7.5"}},{"type":"Feature","geometry":{"type":"Point","coordinates":[14.1758382,53.9431532]},"properties":{"maxweight":"3.5"}},{"type":"Feature","geometry":{"type":"Point","coordinates":[14.1756232,53.9431723]},"properties":{"maxlength":"10"}},{"type":"Feature","geometry":{"type":"Point","coordinates":[14.187393,53.941959]},"properties":{"maxweight":"5.5"}},{"type":"Feature","geometry":{"type":"Point","coordinates":[14.2456925,53.058605]},"properties":{"maxweight":"7.5"}},{"type":"Feature","geometry":{"type":"Point","coordinates":[14.2107719,53.4610299]},"properties":{"maxweight":"7,5"}},{"type":"Feature","geometry":{"type":"Point","coordinates":[14.3004789,53.1005773]},"properties":{"maxweight":"7.5"}},{"type":"Feature","geometry":{"type":"Point","coordinates":[14.3063872,53.0962294]},"properties":{"maxweight":"7.5"}},{"type":"Feature","geometry":{"type":"Point","coordinates":[14.0114067,53.2436156]},"properties":{"maxheight":"default"}},{"type":"Feature","geometry":{"type":"Point","coordinates":[14.2267593,53.0110254]},"properties":{"maxweight":"12"}},{"type":"Feature","geometry":{"type":"Point","coordinates":[14.2892975,53.055048]},"properties":{"hgv":"delivery"}},{"type":"Feature","geometry":{"type":"Point","coordinates":[14.1425732,53.9729723]},"properties":{"maxweight":"7.5"}},{"type":"Feature","geometry":{"type":"Point","coordinates":[14.2162092,53.922645]},"properties":{"hgv":"no"}},{"type":"Feature","geometry":{"type":"Point","coordinates":[14.4426718,53.2545902]},"properties":{"hgv":"no"}},{"type":"Feature","geometry":{"type":"Point","coordinates":[14.4213951,53.2417116]},"properties":{"hgv":"no","goods":"no"}},{"type":"Feature","geometry":{"type":"Point","coordinates":[14.4301851,53.271141]},"properties":{"hgv":"no"}},{"type":"Feature","geometry":{"type":"Point","coordinates":[14.1348989,53.8859052]},"properties":{"maxweight":"3.5"}},{"type":"Feature","geometry":{"type":"Point","coordinates":[14.033061,53.6469146]},"properties":{"maxweight":"0.3"}},{"type":"Feature","geometry":{"type":"Point","coordinates":[14.0110388,53.6329628]},"properties":{"hgv":"no"}},{"type":"Feature","geometry":{"type":"Point","coordinates":[14.0360536,53.6423837]},"properties":{"hgv":"yes","goods":"yes"}},{"type":"Feature","geometry":{"type":"Point","coordinates":[14.0177655,53.6275806]},"properties":{"hgv":"no"}},{"type":"Feature","geometry":{"type":"Point","coordinates":[14.0614698,53.7471607]},"properties":{"hgv":"no"}},{"type":"Feature","geometry":{"type":"Point","coordinates":[14.2744556,53.0668817]},"properties":{"maxweight":"7.5"}},{"type":"Feature","geometry":{"type":"Point","coordinates":[14.0113,53.2452705]},"properties":{"maxheight":"default"}},{"type":"Feature","geometry":{"type":"Point","coordinates":[14.2834977,53.0539358]},"properties":{"hgv":"destination"}},{"type":"Feature","geometry":{"type":"Point","coordinates":[14.2634619,53.0735823]},"properties":{"maxweight":"7.5"}},{"type":"Feature","geometry":{"type":"Point","coordinates":[14.249977,53.5844173]},"properties":{"maxweight":"7.5 t"}},{"type":"Feature","geometry":{"type":"Point","coordinates":[14.2638564,53.4314394]},"properties":{"maxweight":"12"}},{"type":"Feature","geometry":{"type":"Point","coordinates":[14.2065821,53.3046558]},"properties":{"maxheight":"default"}},{"type":"Feature","geometry":{"type":"Point","coordinates":[14.0257832,53.0997641]},"properties":{"maxweight":"15.5"}},{"type":"Feature","geometry":{"type":"Point","coordinates":[14.3048794,53.1810105]},"properties":{"hgv":"no"}},{"type":"Feature","geometry":{"type":"Point","coordinates":[14.3899753,53.2065336]},"properties":{"hgv":"no"}},{"type":"Feature","geometry":{"type":"Point","coordinates":[14.0537036,53.9698326]},"properties":{"maxweight":"7.5"}},{"type":"Feature","geometry":{"type":"Point","coordinates":[14.1751341,53.942163]},"properties":{"maxlength":"10"}},{"type":"Feature","geometry":{"type":"Point","coordinates":[14.2744779,53.0588479]},"properties":{"maxweight":"7.5"}},{"type":"Feature","geometry":{"type":"Point","coordinates":[14.2721283,53.0588776]},"properties":{"maxweight":"7.5"}},{"type":"Feature","geometry":{"type":"Point","coordinates":[14.16722,53.9558133]},"properties":{"maxweight":"3"}},{"type":"Feature","geometry":{"type":"Point","coordinates":[14.1670176,53.9562639]},"properties":{"maxweight":"3"}},{"type":"Feature","geometry":{"type":"Point","coordinates":[14.0478774,53.9707377]},"properties":{"maxweight":"7.5"}},{"type":"Feature","geometry":{"type":"Point","coordinates":[14.3400079,53.3266861]},"properties":{"maxheight":"default"}},{"type":"Feature","geometry":{"type":"Point","coordinates":[14.3964385,53.3339635]},"properties":{"maxheight":"default"}},{"type":"Feature","geometry":{"type":"Point","coordinates":[14.0458377,53.2681803]},"properties":{"maxheight":"default"}},{"type":"Feature","geometry":{"type":"Point","coordinates":[14.2449409,53.0249163]},"properties":{"maxweight":"12"}},{"type":"Feature","geometry":{"type":"Point","coordinates":[14.2000066,53.3036716]},"properties":{"maxheight":"default"}},{"type":"Feature","geometry":{"type":"Point","coordinates":[14.3232831,53.0701782]},"properties":{"maxwidth":"10","maxlength":"61.50"}},{"type":"Feature","geometry":{"type":"Point","coordinates":[14.0101754,53.0164564]},"properties":{"hgv":"delivery"}},{"type":"Feature","geometry":{"type":"Point","coordinates":[14.2457111,53.0592618]},"properties":{"maxweight":"7.5"}},{"type":"Feature","geometry":{"type":"Point","coordinates":[14.2399968,53.0665062]},"properties":{"maxweight":"7.5"}},{"type":"Feature","geometry":{"type":"Point","coordinates":[14.2006533,53.5162766]},"properties":{"maxweight":"5.5"}},{"type":"Feature","geometry":{"type":"Point","coordinates":[14.1990756,53.5166248]},"properties":{"maxheight":"3.5"}},{"type":"Feature","geometry":{"type":"Point","coordinates":[14.4070606,53.2233573]},"properties":{"hgv":"permit","goods":"permit"}},{"type":"Feature","geometry":{"type":"Point","coordinates":[14.1940406,53.9358517]},"properties":{"maxweight":"7.5"}},{"type":"Feature","geometry":{"type":"Point","coordinates":[14.3006286,53.1025019]},"properties":{"maxweight":"7.5"}},{"type":"Feature","geometry":{"type":"Point","coordinates":[14.376458,53.2159278]},"properties":{"goods":"no"}},{"type":"Feature","geometry":{"type":"Point","coordinates":[14.4022042,53.2219198]},"properties":{"hgv":"agricultural","goods":"yes"}},{"type":"Feature","geometry":{"type":"Point","coordinates":[14.4028028,53.2219614]},"properties":{"hgv":"no","goods":"no"}},{"type":"Feature","geometry":{"type":"Point","coordinates":[14.399157,53.2259149]},"properties":{"hgv":"no","goods":"yes"}},{"type":"Feature","geometry":{"type":"Point","coordinates":[14.1446302,53.972108]},"properties":{"hgv":"delivery"}},{"type":"Feature","geometry":{"type":"Point","coordinates":[14.4398609,53.2556316]},"properties":{"hgv":"no"}},{"type":"Feature","geometry":{"type":"Point","coordinates":[14.0807554,53.739308]},"properties":{"maxheight":"2"}},{"type":"Feature","geometry":{"type":"Point","coordinates":[14.3595894,53.0623492]},"properties":{"maxweight":"30"}},{"type":"Feature","geometry":{"type":"Point","coordinates":[14.0153328,53.0164884]},"properties":{"hgv":"delivery"}},{"type":"Feature","geometry":{"type":"Point","coordinates":[14.0088536,53.6327285]},"properties":{"hgv":"no"}},{"type":"Feature","geometry":{"type":"Point","coordinates":[14.3109685,53.0358141]},"properties":{"hgv":"yes"}},{"type":"Feature","geometry":{"type":"Point","coordinates":[14.0321831,53.6345265]},"properties":{"hgv":"no"}},{"type":"Feature","geometry":{"type":"Point","coordinates":[14.3883859,53.2126128]},"properties":{"hgv":"no"}},{"type":"Feature","geometry":{"type":"Point","coordinates":[14.3902126,53.210881]},"properties":{"hgv":"no"}},{"type":"Feature","geometry":{"type":"Point","coordinates":[14.3894653,53.2113537]},"properties":{"hgv":"no"}},{"type":"Feature","geometry":{"type":"Point","coordinates":[14.3200916,53.6049312]},"properties":{"hgv":"no"}},{"type":"Feature","geometry":{"type":"Point","coordinates":[14.382746,53.124226]},"properties":{"hgv":"no"}},{"type":"Feature","geometry":{"type":"Point","coordinates":[14.399157,53.2259149]},"properties":{"hgv":"no","goods":"yes"}},{"type":"Feature","geometry":{"type":"Point","coordinates":[14.3992312,53.2261596]},"properties":{"hgv":"no","goods":"yes"}},{"type":"Feature","geometry":{"type":"Point","coordinates":[14.0489455,53.7351074]},"properties":{"maxheight":"1.50"}},{"type":"Feature","geometry":{"type":"Point","coordinates":[14.443793,53.2543132]},"properties":{"hgv":"no"}},{"type":"Feature","geometry":{"type":"Point","coordinates":[14.0593126,53.9683795]},"properties":{"maxweight":"7.5"}},{"type":"Feature","geometry":{"type":"Point","coordinates":[14.2832898,53.0153857]},"properties":{"maxweight":"2.5"}},{"type":"Feature","geometry":{"type":"Point","coordinates":[14.2869222,53.0170453]},"properties":{"maxweight":"2.5"}},{"type":"Feature","geometry":{"type":"Point","coordinates":[14.2958614,53.0220002]},"properties":{"maxweight":"2.5"}},{"type":"Feature","geometry":{"type":"Point","coordinates":[14.0040888,53.0150859]},"properties":{"maxlength":"8"}},{"type":"Feature","geometry":{"type":"Point","coordinates":[14.3837272,53.1276573]},"properties":{"hgv":"no"}},{"type":"Feature","geometry":{"type":"Point","coordinates":[14.3839778,53.1299078]},"properties":{"hgv":"no"}},{"type":"Feature","geometry":{"type":"Point","coordinates":[14.383398,53.1265594]},"properties":{"hgv":"no"}},{"type":"Feature","geometry":{"type":"Point","coordinates":[14.4313833,53.270204]},"properties":{"hgv":"no"}},{"type":"Feature","geometry":{"type":"Point","coordinates":[14.0092948,53.2440954]},"properties":{"maxheight":"default"}},{"type":"Feature","geometry":{"type":"Point","coordinates":[14.088213,53.2895057]},"properties":{"hgv":"no","maxweight":"7.5"}},{"type":"Feature","geometry":{"type":"Point","coordinates":[14.0810097,53.2867671]},"properties":{"hgv":"no","maxweight":"7.5"}},{"type":"Feature","geometry":{"type":"Point","coordinates":[14.2697866,53.0595518]},"properties":{"maxweight":"3.5"}},{"type":"Feature","geometry":{"type":"Point","coordinates":[14.3115884,53.0322963]},"properties":{"hgv":"no"}},{"type":"Feature","geometry":{"type":"Point","coordinates":[14.011819,53.2457869]},"properties":{"maxheight":"default"}},{"type":"Feature","geometry":{"type":"Point","coordinates":[14.0104097,53.2443473]},"properties":{"maxheight":"default"}},{"type":"Feature","geometry":{"type":"Point","coordinates":[14.0088741,53.2433171]},"properties":{"maxheight":"default"}},{"type":"Feature","geometry":{"type":"Point","coordinates":[14.1905068,53.0828872]},"properties":{"maxheight":"default"}},{"type":"Feature","geometry":{"type":"Point","coordinates":[14.4090568,53.3067929]},"properties":{"hgv":"no"}},{"type":"Feature","geometry":{"type":"Point","coordinates":[14.2166701,53.9224429]},"properties":{"hgv":"no"}},{"type":"Feature","geometry":{"type":"Point","coordinates":[14.1143803,53.0579996]},"properties":{"hgv":"no","goods":"no"}},{"type":"Feature","geometry":{"type":"Point","coordinates":[14.2052794,53.8690354]},"properties":{"maxweight":"5.5"}},{"type":"Feature","geometry":{"type":"Point","coordinates":[14.4616477,53.2540713]},"properties":{"hgv":"no"}},{"type":"Feature","geometry":{"type":"Point","coordinates":[14.322094,53.6178196]},"properties":{"maxweight":"12"}},{"type":"Feature","geometry":{"type":"Point","coordinates":[14.0547102,53.7380615]},"properties":{"maxheight":"1"}},{"type":"Feature","geometry":{"type":"Point","coordinates":[14.0696211,53.2799198]},"properties":{"hgv":"no","maxweight":"7.5"}},{"type":"Feature","geometry":{"type":"Point","coordinates":[14.0787585,53.2859628]},"properties":{"hgv":"no","maxweight":"7.5"}},{"type":"Feature","geometry":{"type":"Point","coordinates":[14.2739209,53.0588513]},"properties":{"maxweight":"7.5"}},{"type":"Feature","geometry":{"type":"Point","coordinates":[14.1286233,53.1367632]},"properties":{"maxheight":"default"}},{"type":"Feature","geometry":{"type":"Point","coordinates":[14.2701722,53.3153907]},"properties":{"maxheight":"default"}},{"type":"Feature","geometry":{"type":"Point","coordinates":[14.0330529,53.1044756]},"properties":{"maxweight":"15.5"}},{"type":"Feature","geometry":{"type":"Point","coordinates":[14.0313504,53.1034277]},"properties":{"maxweight":"15.5"}},{"type":"Feature","geometry":{"type":"Point","coordinates":[14.0141595,53.0164842]},"properties":{"hgv":"delivery"}},{"type":"Feature","geometry":{"type":"Point","coordinates":[14.2905763,53.0180607]},"properties":{"maxweight":"2.5"}},{"type":"Feature","geometry":{"type":"Point","coordinates":[14.2701569,53.0484365]},"properties":{"maxweight":"7.5"}},{"type":"Feature","geometry":{"type":"Point","coordinates":[14.0045763,53.2529518]},"properties":{"maxheight":"default"}},{"type":"Feature","geometry":{"type":"Point","coordinates":[14.0127299,53.2459002]},"properties":{"maxheight":"default"}},{"type":"Feature","geometry":{"type":"Point","coordinates":[14.1369474,53.9630532]},"properties":{"maxheight":"default"}},{"type":"Feature","geometry":{"type":"Point","coordinates":[14.3952899,53.333301]},"properties":{"hgv":"designated"}},{"type":"Feature","geometry":{"type":"Point","coordinates":[14.3986598,53.333522]},"properties":{"hgv":"designated"}},{"type":"Feature","geometry":{"type":"Point","coordinates":[14.3985027,53.3332601]},"properties":{"hgv":"designated"}},{"type":"Feature","geometry":{"type":"Point","coordinates":[14.3985596,53.3328028]},"properties":{"hgv":"designated"}},{"type":"Feature","geometry":{"type":"Point","coordinates":[14.3986828,53.3330612]},"properties":{"hgv":"designated"}},{"type":"Feature","geometry":{"type":"Point","coordinates":[14.4021913,53.3321622]},"properties":{"hgv":"designated"}},{"type":"Feature","geometry":{"type":"Point","coordinates":[14.3974981,53.3347035]},"properties":{"hgv":"no"}},{"type":"Feature","geometry":{"type":"Point","coordinates":[14.4054097,53.3357386]},"properties":{"hgv":"designated"}},{"type":"Feature","geometry":{"type":"Point","coordinates":[14.4049899,53.3360505]},"properties":{"hgv":"designated"}},{"type":"Feature","geometry":{"type":"Point","coordinates":[14.4038504,53.3369945]},"properties":{"hgv":"designated"}},{"type":"Feature","geometry":{"type":"Point","coordinates":[14.4052329,53.3369526]},"properties":{"hgv":"designated"}},{"type":"Feature","geometry":{"type":"Point","coordinates":[14.4057217,53.3367972]},"properties":{"hgv":"designated"}},{"type":"Feature","geometry":{"type":"Point","coordinates":[14.405584,53.3367022]},"properties":{"hgv":"designated"}},{"type":"Feature","geometry":{"type":"Point","coordinates":[14.0684966,53.2792184]},"properties":{"maxheight":"default"}},{"type":"Feature","geometry":{"type":"Point","coordinates":[14.0101823,53.6330869]},"properties":{"hgv":"no"}},{"type":"Feature","geometry":{"type":"Point","coordinates":[14.0109494,53.6331139]},"properties":{"hgv":"no"}},{"type":"Feature","geometry":{"type":"Point","coordinates":[14.2698888,53.0606716]},"properties":{"maxweight":"3.5"}},{"type":"Feature","geometry":{"type":"Point","coordinates":[14.3871414,53.3327732]},"properties":{"maxheight":"default"}},{"type":"Feature","geometry":{"type":"Point","coordinates":[14.1369474,53.9630532]},"properties":{"maxheight":"default"}},{"type":"Feature","geometry":{"type":"Point","coordinates":[14.1779978,53.9431128]},"properties":{"maxweight":"3.5"}},{"type":"Feature","geometry":{"type":"Point","coordinates":[14.2562279,53.0396579]},"properties":{"maxweight":"7.5"}},{"type":"Feature","geometry":{"type":"Point","coordinates":[14.2552073,53.0369095]},"properties":{"maxweight":"7.5"}},{"type":"Feature","geometry":{"type":"Point","coordinates":[14.3005459,53.1022142]},"properties":{"maxweight":"7.5"}},{"type":"Feature","geometry":{"type":"Point","coordinates":[14.0678959,53.2794963]},"properties":{"hgv":"no"}},{"type":"Feature","geometry":{"type":"Point","coordinates":[14.1312108,53.8841147]},"properties":{"maxweight":"3.5"}},{"type":"Feature","geometry":{"type":"Point","coordinates":[14.1320935,53.8852431]},"properties":{"maxweight":"3.5"}},{"type":"Feature","geometry":{"type":"Point","coordinates":[14.2955946,53.1809946]},"properties":{"hgv":"no"}},{"type":"Feature","geometry":{"type":"Point","coordinates":[14.0005852,53.5034242]},"properties":{"maxheight":"default"}},{"type":"Feature","geometry":{"type":"Point","coordinates":[14.3976268,53.3346334]},"properties":{"hgv":"no"}},{"type":"Feature","geometry":{"type":"Point","coordinates":[14.4453613,53.2542682]},"properties":{"hgv":"no"}},{"type":"Feature","geometry":{"type":"Point","coordinates":[14.4393454,53.256087]},"properties":{"hgv":"no"}},{"type":"Feature","geometry":{"type":"Point","coordinates":[14.3937366,53.2096707]},"properties":{"maxheight":"3.5","maxwidth":"2.6"}},{"type":"Feature","geometry":{"type":"Point","coordinates":[14.2174619,53.9221072]},"properties":{"hgv":"no"}},{"type":"Feature","geometry":{"type":"Point","coordinates":[14.0555475,53.2730177]},"properties":{"hgv":"no"}},{"type":"Feature","geometry":{"type":"Point","coordinates":[14.2737016,53.0667973]},"properties":{"maxweight":"7.5"}},{"type":"Feature","geometry":{"type":"Point","coordinates":[14.3998908,53.2174306]},"properties":{"hgv":"agricultural","goods":"yes"}},{"type":"Feature","geometry":{"type":"Point","coordinates":[14.2867387,53.0550464]},"properties":{"hgv":"destination"}},{"type":"Feature","geometry":{"type":"Point","coordinates":[14.2850946,53.054483]},"properties":{"hgv":"destination"}},{"type":"Feature","geometry":{"type":"Point","coordinates":[14.3988871,53.2256693]},"properties":{"hgv":"agricultural","goods":"yes"}},{"type":"Feature","geometry":{"type":"Point","coordinates":[14.4034679,53.2261153]},"properties":{"hgv":"no","goods":"yes"}},{"type":"Feature","geometry":{"type":"Point","coordinates":[14.0083072,53.2434417]},"properties":{"maxheight":"default"}},{"type":"Feature","geometry":{"type":"Point","coordinates":[14.2028729,53.025688]},"properties":{"maxweight":"7.5"}},{"type":"Feature","geometry":{"type":"Point","coordinates":[14.2830038,53.0609676]},"properties":{"maxheight":"2.3"}},{"type":"Feature","geometry":{"type":"Point","coordinates":[14.2823677,53.060669]},"properties":{"maxheight":"2.3"}},{"type":"Feature","geometry":{"type":"Point","coordinates":[14.0348854,53.9333453]},"properties":{"maxweight":"3.5"}},{"type":"Feature","geometry":{"type":"Point","coordinates":[14.2183861,53.9217072]},"properties":{"hgv":"no"}},{"type":"Feature","geometry":{"type":"Point","coordinates":[14.2198577,53.9210553]},"properties":{"hgv":"no"}},{"type":"Feature","geometry":{"type":"Point","coordinates":[14.1772825,53.942955]},"properties":{"maxweight":"3.5"}},{"type":"Feature","geometry":{"type":"Point","coordinates":[14.1780073,53.9429112]},"properties":{"maxweight":"3.5"}},{"type":"Feature","geometry":{"type":"Point","coordinates":[14.2190573,53.9214042]},"properties":{"hgv":"no"}},{"type":"Feature","geometry":{"type":"Point","coordinates":[14.1756284,53.9430057]},"properties":{"maxlength":"10"}},{"type":"Feature","geometry":{"type":"Point","coordinates":[14.0551527,53.2733052]},"properties":{"hgv":"designated"}},{"type":"Feature","geometry":{"type":"Point","coordinates":[14.0544436,53.2726627]},"properties":{"hgv":"designated"}},{"type":"Feature","geometry":{"type":"Point","coordinates":[14.0549288,53.2726111]},"properties":{"hgv":"no"}},{"type":"Feature","geometry":{"type":"Point","coordinates":[14.0553973,53.2728462]},"properties":{"hgv":"no"}},{"type":"Feature","geometry":{"type":"Point","coordinates":[14.0553995,53.2730343]},"properties":{"hgv":"no"}},{"type":"Feature","geometry":{"type":"Point","coordinates":[14.0547559,53.2726483]},"properties":{"hgv":"no"}},{"type":"Feature","geometry":{"type":"Point","coordinates":[14.0603025,53.2764281]},"properties":{"hgv":"designated"}},{"type":"Feature","geometry":{"type":"Point","coordinates":[14.285178,53.0630107]},"properties":{"maxweight":"7.5"}},{"type":"Feature","geometry":{"type":"Point","coordinates":[14.2729898,53.0663523]},"properties":{"hgv":"delivery"}},{"type":"Feature","geometry":{"type":"Point","coordinates":[14.2147598,53.0573218]},"properties":{"hgv":"no"}},{"type":"Feature","geometry":{"type":"Point","coordinates":[14.4079192,53.3680717]},"properties":{"hgv":"no"}},{"type":"Feature","geometry":{"type":"Point","coordinates":[14.1826498,53.9409058]},"properties":{"maxweight":"5.5"}},{"type":"Feature","geometry":{"type":"Point","coordinates":[14.1938056,53.9355661]},"properties":{"maxweight":"7.5"}},{"type":"Feature","geometry":{"type":"Point","coordinates":[14.1945712,53.9359686]},"properties":{"maxweight":"7.5"}},{"type":"Feature","geometry":{"type":"Point","coordinates":[14.1944085,53.9359392]},"properties":{"maxweight":"7.5"}},{"type":"Feature","geometry":{"type":"Point","coordinates":[14.1449101,53.9719028]},"properties":{"hgv":"delivery"}},{"type":"Feature","geometry":{"type":"Point","coordinates":[14.2557196,53.0373231]},"properties":{"maxweight":"7.5"}},{"type":"Feature","geometry":{"type":"Point","coordinates":[14.2176635,53.9220202]},"properties":{"hgv":"no"}},{"type":"Feature","geometry":{"type":"Point","coordinates":[14.2175377,53.9220747]},"properties":{"hgv":"no"}},{"type":"Feature","geometry":{"type":"Point","coordinates":[14.0124524,53.2462115]},"properties":{"maxheight":"default"}},{"type":"Feature","geometry":{"type":"Point","coordinates":[14.0048294,53.2407759]},"properties":{"maxheight":"default"}},{"type":"Feature","geometry":{"type":"Point","coordinates":[14.2889291,53.0555196]},"properties":{"hgv":"delivery"}},{"type":"Feature","geometry":{"type":"Point","coordinates":[14.0752748,53.6819012]},"properties":{"hgv":"no"}},{"type":"Feature","geometry":{"type":"Point","coordinates":[14.2172486,53.9221965]},"properties":{"hgv":"no"}},{"type":"Feature","geometry":{"type":"Point","coordinates":[14.2281763,53.0307912]},"properties":{"maxweight":"7.5"}}]}