{"type":"FeatureCollection","features":[{"type":"Feature","geometry":{"type":"Point","coordinates":[15.0308271,51.2759376]},"properties":{"maxwidth":"1"}},{"type":"Feature","geometry":{"type":"Point","coordinates":[15.000781,51.1502728]},"properties":{"maxweight":"7.5"}},{"type":"Feature","geometry":{"type":"Point","coordinates":[15.0023918,51.2396284]},"properties":{"maxheight":"default"}},{"type":"Feature","geometry":{"type":"Point","coordinates":[15.0047949,51.1515369]},"properties":{"goods":"yes"}},{"type":"Feature","geometry":{"type":"Point","coordinates":[15.0025873,51.1504511]},"properties":{"maxweight":"7.5"}},{"type":"Feature","geometry":{"type":"Point","coordinates":[15.0013879,51.1503351]},"properties":{"maxweight":"7.5"}},{"type":"Feature","geometry":{"type":"Point","coordinates":[15.0013879,51.1503351]},"properties":{"maxweight":"7.5"}},{"type":"Feature","geometry":{"type":"Point","coordinates":[15.0169776,51.1828669]},"properties":{"maxheight":"3","maxweight":"2.5"}},{"type":"Feature","geometry":{"type":"Point","coordinates":[15.00005,51.1501512]},"properties":{"hgv":"no","maxweight":"7.5"}},{"type":"Feature","geometry":{"type":"Point","coordinates":[15.0049902,51.1512955]},"properties":{"maxheight":"4"}}]}