{"type":"FeatureCollection","features":[{"type":"Feature","geometry":{"type":"Point","coordinates":[5.9941354,50.9866102]},"properties":{"maxwidth":"3.0"}},{"type":"Feature","geometry":{"type":"Point","coordinates":[5.9903931,50.9929703]},"properties":{"maxwidth":"3.0"}},{"type":"Feature","geometry":{"type":"Point","coordinates":[5.9983513,50.8033149]},"properties":{"hgv":"destination"}},{"type":"Feature","geometry":{"type":"Point","coordinates":[5.9966816,50.7995528]},"properties":{"hgv":"destination"}},{"type":"Feature","geometry":{"type":"Point","coordinates":[5.9952949,50.9912238]},"properties":{"maxheight":"2.6","maxweight":"2.8"}},{"type":"Feature","geometry":{"type":"Point","coordinates":[5.9551309,50.9990128]},"properties":{"maxheight":"3.8"}},{"type":"Feature","geometry":{"type":"Point","coordinates":[5.9988788,50.9940498]},"properties":{"maxheight":"2.6","maxweight":"2.8"}},{"type":"Feature","geometry":{"type":"Point","coordinates":[5.9771271,50.9818272]},"properties":{"maxweight":"10"}},{"type":"Feature","geometry":{"type":"Point","coordinates":[5.9970891,50.8009285]},"properties":{"hgv":"destination"}},{"type":"Feature","geometry":{"type":"Point","coordinates":[5.9264194,50.9982264]},"properties":{"maxweight":"12"}},{"type":"Feature","geometry":{"type":"Point","coordinates":[5.97212,50.9801605]},"properties":{"maxheight":"3.55"}}]}