{"type":"FeatureCollection","features":[{"type":"Feature","geometry":{"type":"Point","coordinates":[5.9296815,51.0145465]},"properties":{"maxheight":"default"}},{"type":"Feature","geometry":{"type":"Point","coordinates":[5.8887075,51.0314919]},"properties":{"maxheight":"default"}},{"type":"Feature","geometry":{"type":"Point","coordinates":[5.8936379,51.0137503]},"properties":{"hgv":"no"}},{"type":"Feature","geometry":{"type":"Point","coordinates":[5.9210178,51.0005234]},"properties":{"maxweight":"12"}},{"type":"Feature","geometry":{"type":"Point","coordinates":[5.9441591,51.0256267]},"properties":{"maxheight":"2.5 m"}},{"type":"Feature","geometry":{"type":"Point","coordinates":[5.9877849,51.0153864]},"properties":{"maxheight":"default"}},{"type":"Feature","geometry":{"type":"Point","coordinates":[5.9159302,51.0181682]},"properties":{"maxheight":"default"}},{"type":"Feature","geometry":{"type":"Point","coordinates":[5.9157588,51.018135]},"properties":{"maxheight":"default"}},{"type":"Feature","geometry":{"type":"Point","coordinates":[5.8765991,51.0315079]},"properties":{"maxheight":"default"}},{"type":"Feature","geometry":{"type":"Point","coordinates":[5.8797486,51.0320264]},"properties":{"maxheight":"default"}},{"type":"Feature","geometry":{"type":"Point","coordinates":[5.8802829,51.0320798]},"properties":{"maxheight":"default"}},{"type":"Feature","geometry":{"type":"Point","coordinates":[5.9789363,51.0156087]},"properties":{"maxheight":"default"}},{"type":"Feature","geometry":{"type":"Point","coordinates":[5.9170342,51.0178015]},"properties":{"maxheight":"default"}}]}