{"type":"FeatureCollection","features":[{"type":"Feature","geometry":{"type":"Point","coordinates":[6.9891845,52.074737]},"properties":{"maxwidth":"1"}},{"type":"Feature","geometry":{"type":"Point","coordinates":[6.9896542,52.0747219]},"properties":{"maxwidth":"1"}},{"type":"Feature","geometry":{"type":"Point","coordinates":[6.9950883,52.0702024]},"properties":{"maxwidth":"1"}},{"type":"Feature","geometry":{"type":"Point","coordinates":[6.7052939,52.5210587]},"properties":{"maxwidth":"1.75"}},{"type":"Feature","geometry":{"type":"Point","coordinates":[6.8996282,52.0412299]},"properties":{"maxwidth":"3"}},{"type":"Feature","geometry":{"type":"Point","coordinates":[6.8980646,52.0427091]},"properties":{"maxwidth":"3"}},{"type":"Feature","geometry":{"type":"Point","coordinates":[6.9951934,52.0706683]},"properties":{"maxwidth":"2"}},{"type":"Feature","geometry":{"type":"Point","coordinates":[6.9844758,52.0693971]},"properties":{"hgv":"no"}},{"type":"Feature","geometry":{"type":"Point","coordinates":[6.8167279,52.0385321]},"properties":{"hgv":"no"}},{"type":"Feature","geometry":{"type":"Point","coordinates":[6.8200219,52.0331977]},"properties":{"hgv":"no"}},{"type":"Feature","geometry":{"type":"Point","coordinates":[6.8284345,52.0352956]},"properties":{"hgv":"no"}},{"type":"Feature","geometry":{"type":"Point","coordinates":[6.8259419,52.0379246]},"properties":{"hgv":"no"}},{"type":"Feature","geometry":{"type":"Point","coordinates":[6.825991,52.0379584]},"properties":{"hgv":"no"}},{"type":"Feature","geometry":{"type":"Point","coordinates":[6.7891781,52.0179342]},"properties":{"hgv":"no"}},{"type":"Feature","geometry":{"type":"Point","coordinates":[6.7171137,52.4783676]},"properties":{"maxwidth":"1.8"}},{"type":"Feature","geometry":{"type":"Point","coordinates":[6.7542093,52.0982211]},"properties":{"maxwidth":"0.5"}},{"type":"Feature","geometry":{"type":"Point","coordinates":[6.9963779,52.0747252]},"properties":{"hgv":"no"}},{"type":"Feature","geometry":{"type":"Point","coordinates":[6.9917295,52.0696]},"properties":{"hgv":"no"}},{"type":"Feature","geometry":{"type":"Point","coordinates":[6.9869836,52.0697185]},"properties":{"hgv":"no"}},{"type":"Feature","geometry":{"type":"Point","coordinates":[6.9963345,52.0735325]},"properties":{"hgv":"no"}},{"type":"Feature","geometry":{"type":"Point","coordinates":[6.8450926,52.6159788]},"properties":{"hgv":"no"}},{"type":"Feature","geometry":{"type":"Point","coordinates":[6.9739292,52.0669447]},"properties":{"hgv":"no"}},{"type":"Feature","geometry":{"type":"Point","coordinates":[6.9627354,52.0677494]},"properties":{"hgv":"no"}},{"type":"Feature","geometry":{"type":"Point","coordinates":[6.9626761,52.0677089]},"properties":{"hgv":"no"}},{"type":"Feature","geometry":{"type":"Point","coordinates":[6.9179276,52.080541]},"properties":{"hgv":"no"}},{"type":"Feature","geometry":{"type":"Point","coordinates":[6.9178767,52.0805369]},"properties":{"hgv":"no"}},{"type":"Feature","geometry":{"type":"Point","coordinates":[6.9177892,52.0804627]},"properties":{"hgv":"no"}},{"type":"Feature","geometry":{"type":"Point","coordinates":[6.9996135,52.070542]},"properties":{"hgv":"no"}},{"type":"Feature","geometry":{"type":"Point","coordinates":[6.9116148,52.1271588]},"properties":{"hgv":"no"}},{"type":"Feature","geometry":{"type":"Point","coordinates":[6.9650839,52.0658478]},"properties":{"hgv":"no"}},{"type":"Feature","geometry":{"type":"Point","coordinates":[6.9818283,52.0773391]},"properties":{"hgv":"no"}},{"type":"Feature","geometry":{"type":"Point","coordinates":[6.9219604,52.0796776]},"properties":{"hgv":"no"}},{"type":"Feature","geometry":{"type":"Point","coordinates":[6.9219906,52.07963]},"properties":{"hgv":"no"}},{"type":"Feature","geometry":{"type":"Point","coordinates":[6.9220199,52.079583]},"properties":{"hgv":"no"}},{"type":"Feature","geometry":{"type":"Point","coordinates":[6.9220502,52.079534]},"properties":{"hgv":"no"}},{"type":"Feature","geometry":{"type":"Point","coordinates":[6.9220804,52.0794893]},"properties":{"hgv":"no"}},{"type":"Feature","geometry":{"type":"Point","coordinates":[6.9221081,52.0794431]},"properties":{"hgv":"no"}},{"type":"Feature","geometry":{"type":"Point","coordinates":[6.9950445,52.0726025]},"properties":{"hgv":"no"}},{"type":"Feature","geometry":{"type":"Point","coordinates":[6.9697094,52.0927522]},"properties":{"hgv":"no"}},{"type":"Feature","geometry":{"type":"Point","coordinates":[6.9698073,52.0906639]},"properties":{"hgv":"no"}},{"type":"Feature","geometry":{"type":"Point","coordinates":[6.9856652,52.0775407]},"properties":{"hgv":"no"}},{"type":"Feature","geometry":{"type":"Point","coordinates":[6.8206745,52.0328522]},"properties":{"hgv":"no"}},{"type":"Feature","geometry":{"type":"Point","coordinates":[6.8461294,52.0959927]},"properties":{"hgv":"no"}},{"type":"Feature","geometry":{"type":"Point","coordinates":[6.8369551,52.0459782]},"properties":{"hgv":"no"}},{"type":"Feature","geometry":{"type":"Point","coordinates":[6.8369685,52.0459522]},"properties":{"hgv":"no"}},{"type":"Feature","geometry":{"type":"Point","coordinates":[6.7949799,52.016767]},"properties":{"hgv":"no"}},{"type":"Feature","geometry":{"type":"Point","coordinates":[6.7949853,52.0167823]},"properties":{"hgv":"no"}},{"type":"Feature","geometry":{"type":"Point","coordinates":[6.7949072,52.0167771]},"properties":{"hgv":"no"}},{"type":"Feature","geometry":{"type":"Point","coordinates":[6.7949125,52.0167924]},"properties":{"hgv":"no"}},{"type":"Feature","geometry":{"type":"Point","coordinates":[6.7948361,52.0167882]},"properties":{"hgv":"no"}},{"type":"Feature","geometry":{"type":"Point","coordinates":[6.7948414,52.0168035]},"properties":{"hgv":"no"}},{"type":"Feature","geometry":{"type":"Point","coordinates":[6.9938543,52.209134]},"properties":{"hgv":"agricultural;forestry"}},{"type":"Feature","geometry":{"type":"Point","coordinates":[6.7681586,52.4594087]},"properties":{"maxwidth":"2"}},{"type":"Feature","geometry":{"type":"Point","coordinates":[6.720143,52.5982545]},"properties":{"maxwidth":"2"}},{"type":"Feature","geometry":{"type":"Point","coordinates":[6.6795825,52.5531355]},"properties":{"hgv":"destination"}},{"type":"Feature","geometry":{"type":"Point","coordinates":[6.9926866,52.2280597]},"properties":{"hgv":"destination"}},{"type":"Feature","geometry":{"type":"Point","coordinates":[6.9968709,52.2300827]},"properties":{"hgv":"destination"}},{"type":"Feature","geometry":{"type":"Point","coordinates":[6.9958461,52.2304915]},"properties":{"hgv":"destination"}},{"type":"Feature","geometry":{"type":"Point","coordinates":[6.9737672,52.2164199]},"properties":{"hgv":"destination"}},{"type":"Feature","geometry":{"type":"Point","coordinates":[6.9479584,52.1963054]},"properties":{"maxheight":"default"}},{"type":"Feature","geometry":{"type":"Point","coordinates":[6.9781342,52.5013619]},"properties":{"maxweight":"3.5"}},{"type":"Feature","geometry":{"type":"Point","coordinates":[6.9697084,52.4995157]},"properties":{"maxweight":"5.5"}},{"type":"Feature","geometry":{"type":"Point","coordinates":[6.9873139,52.1874451]},"properties":{"hgv":"agricultural;forestry"}},{"type":"Feature","geometry":{"type":"Point","coordinates":[6.9458625,52.6113355]},"properties":{"maxweight":"7.5"}},{"type":"Feature","geometry":{"type":"Point","coordinates":[6.9457248,52.6111962]},"properties":{"maxweight":"7.5"}},{"type":"Feature","geometry":{"type":"Point","coordinates":[6.9474982,52.5824987]},"properties":{"hgv":"destination","maxweight":"3.5"}},{"type":"Feature","geometry":{"type":"Point","coordinates":[6.9468134,52.581759]},"properties":{"hgv":"destination","maxweight":"3.5"}},{"type":"Feature","geometry":{"type":"Point","coordinates":[6.9462316,52.5811208]},"properties":{"hgv":"destination","maxweight":"3.5"}},{"type":"Feature","geometry":{"type":"Point","coordinates":[6.8506301,52.6059192]},"properties":{"hgv":"delivery","maxweight":"7.5"}},{"type":"Feature","geometry":{"type":"Point","coordinates":[6.728653,52.6148826]},"properties":{"maxweight":"3.5"}},{"type":"Feature","geometry":{"type":"Point","coordinates":[6.7400072,52.5093233]},"properties":{"maxweight":"3.5"}},{"type":"Feature","geometry":{"type":"Point","coordinates":[6.7066396,52.5213124]},"properties":{"maxwidth":"1.75"}},{"type":"Feature","geometry":{"type":"Point","coordinates":[6.7323346,52.4971681]},"properties":{"hgv":"no"}},{"type":"Feature","geometry":{"type":"Point","coordinates":[6.9817326,52.6020236]},"properties":{"maxweight":"1.5"}},{"type":"Feature","geometry":{"type":"Point","coordinates":[6.9717814,52.6204418]},"properties":{"hgv":"destination","maxweight":"3.5"}},{"type":"Feature","geometry":{"type":"Point","coordinates":[6.9523765,52.6180219]},"properties":{"maxweight":"3.5"}},{"type":"Feature","geometry":{"type":"Point","coordinates":[6.9651478,52.6232337]},"properties":{"maxweight":"3.5"}},{"type":"Feature","geometry":{"type":"Point","coordinates":[6.9650603,52.6290934]},"properties":{"maxweight":"3.5"}},{"type":"Feature","geometry":{"type":"Point","coordinates":[6.9850892,52.6329034]},"properties":{"maxweight":"3.5"}},{"type":"Feature","geometry":{"type":"Point","coordinates":[6.9844378,52.6420919]},"properties":{"maxwidth":"2","maxweight":"3.5"}},{"type":"Feature","geometry":{"type":"Point","coordinates":[6.911476,52.6171431]},"properties":{"maxweight":"3.5"}},{"type":"Feature","geometry":{"type":"Point","coordinates":[6.9550875,52.4585262]},"properties":{"maxweight":"7.5"}},{"type":"Feature","geometry":{"type":"Point","coordinates":[6.9769987,52.4895874]},"properties":{"maxweight":"3.5"}},{"type":"Feature","geometry":{"type":"Point","coordinates":[6.9772817,52.487962]},"properties":{"maxweight":"3.5"}},{"type":"Feature","geometry":{"type":"Point","coordinates":[6.8683161,52.5737076]},"properties":{"maxweight":"3.5"}},{"type":"Feature","geometry":{"type":"Point","coordinates":[6.8845715,52.6450501]},"properties":{"maxweight":"3.5"}},{"type":"Feature","geometry":{"type":"Point","coordinates":[6.8677721,52.6220465]},"properties":{"maxheight":"2.3","maxwidth":"3.6","maxweight":"3.5"}},{"type":"Feature","geometry":{"type":"Point","coordinates":[6.8990689,52.6362002]},"properties":{"maxweight":"3.5"}},{"type":"Feature","geometry":{"type":"Point","coordinates":[6.8857425,52.6203217]},"properties":{"hgv":"no","maxweight":"3.5"}},{"type":"Feature","geometry":{"type":"Point","coordinates":[6.8856954,52.6202149]},"properties":{"maxweight":"3.5"}},{"type":"Feature","geometry":{"type":"Point","coordinates":[6.8847564,52.6193233]},"properties":{"maxweight":"3 t"}},{"type":"Feature","geometry":{"type":"Point","coordinates":[6.9838593,52.4873717]},"properties":{"maxheight":"4.1","maxweight":"3.5"}},{"type":"Feature","geometry":{"type":"Point","coordinates":[6.7514487,52.5029581]},"properties":{"hgv":"no"}},{"type":"Feature","geometry":{"type":"Point","coordinates":[6.8450276,52.545934]},"properties":{"hgv":"destination","maxweight":"3.5"}},{"type":"Feature","geometry":{"type":"Point","coordinates":[6.8730426,52.6312408]},"properties":{"maxweight":"3.5"}},{"type":"Feature","geometry":{"type":"Point","coordinates":[6.8767322,52.6366249]},"properties":{"maxweight":"3.5"}},{"type":"Feature","geometry":{"type":"Point","coordinates":[6.8906392,52.6272624]},"properties":{"maxweight":"3.5"}},{"type":"Feature","geometry":{"type":"Point","coordinates":[6.9522513,52.484473]},"properties":{"maxheight":"default"}},{"type":"Feature","geometry":{"type":"Point","coordinates":[6.7951407,52.5067001]},"properties":{"maxweight":"3.5"}},{"type":"Feature","geometry":{"type":"Point","coordinates":[6.8612217,52.5489665]},"properties":{"maxweight":"3.5"}},{"type":"Feature","geometry":{"type":"Point","coordinates":[6.9763046,52.487853]},"properties":{"maxheight":"4.1"}},{"type":"Feature","geometry":{"type":"Point","coordinates":[6.9905076,52.0742535]},"properties":{"hgv":"yes","goods":"yes"}},{"type":"Feature","geometry":{"type":"Point","coordinates":[6.9900944,52.0747009]},"properties":{"hgv":"yes","goods":"yes"}},{"type":"Feature","geometry":{"type":"Point","coordinates":[6.8554457,52.6060641]},"properties":{"hgv":"destination","maxweight":"7.5"}},{"type":"Feature","geometry":{"type":"Point","coordinates":[6.8316906,52.6010364]},"properties":{"maxweight":"30"}},{"type":"Feature","geometry":{"type":"Point","coordinates":[6.824371,52.5405536]},"properties":{"maxweight":"3.5"}},{"type":"Feature","geometry":{"type":"Point","coordinates":[6.9771722,52.5021419]},"properties":{"hgv":"no"}},{"type":"Feature","geometry":{"type":"Point","coordinates":[6.8377661,52.6167777]},"properties":{"hgv":"designated","maxweight":"3.5"}},{"type":"Feature","geometry":{"type":"Point","coordinates":[6.8407211,52.6166128]},"properties":{"hgv":"designated","maxweight":"3.5"}},{"type":"Feature","geometry":{"type":"Point","coordinates":[6.8228035,52.6266783]},"properties":{"maxweight":"3.0"}},{"type":"Feature","geometry":{"type":"Point","coordinates":[6.7409049,52.6001447]},"properties":{"maxweight":"3.5"}},{"type":"Feature","geometry":{"type":"Point","coordinates":[6.723656,52.5985271]},"properties":{"maxwidth":"2"}},{"type":"Feature","geometry":{"type":"Point","coordinates":[6.8295427,52.0300312]},"properties":{"hgv":"no"}},{"type":"Feature","geometry":{"type":"Point","coordinates":[6.8320343,52.031207]},"properties":{"hgv":"no"}},{"type":"Feature","geometry":{"type":"Point","coordinates":[6.8301551,52.0302819]},"properties":{"hgv":"no"}},{"type":"Feature","geometry":{"type":"Point","coordinates":[6.808478,52.6099886]},"properties":{"hgv":"destination","maxweight":"3.5"}},{"type":"Feature","geometry":{"type":"Point","coordinates":[6.7995353,52.6139079]},"properties":{"maxweight":"3.5"}},{"type":"Feature","geometry":{"type":"Point","coordinates":[6.7357285,52.6168891]},"properties":{"maxweight":"3.5"}},{"type":"Feature","geometry":{"type":"Point","coordinates":[6.9517236,52.0527662]},"properties":{"maxweight":"3.5 t"}},{"type":"Feature","geometry":{"type":"Point","coordinates":[6.8595818,52.1015658]},"properties":{"hgv":"destination"}},{"type":"Feature","geometry":{"type":"Point","coordinates":[6.988579,52.2159972]},"properties":{"hgv":"destination"}},{"type":"Feature","geometry":{"type":"Point","coordinates":[6.7783247,52.503095]},"properties":{"maxweight":"3.5"}},{"type":"Feature","geometry":{"type":"Point","coordinates":[6.7177098,52.4827106]},"properties":{"maxwidth":"1.8","maxweight":"3.5"}},{"type":"Feature","geometry":{"type":"Point","coordinates":[6.8857705,52.6204437]},"properties":{"maxweight":"3.5"}},{"type":"Feature","geometry":{"type":"Point","coordinates":[6.9776956,52.4911739]},"properties":{"maxweight":"3.5"}},{"type":"Feature","geometry":{"type":"Point","coordinates":[6.9543193,52.4958713]},"properties":{"maxweight":"3.5"}},{"type":"Feature","geometry":{"type":"Point","coordinates":[6.9069791,52.5492556]},"properties":{"hgv":"no"}},{"type":"Feature","geometry":{"type":"Point","coordinates":[6.8560962,52.6054059]},"properties":{"hgv":"destination","maxweight":"7.5"}},{"type":"Feature","geometry":{"type":"Point","coordinates":[6.734869,52.6156319]},"properties":{"maxweight":"3.5"}},{"type":"Feature","geometry":{"type":"Point","coordinates":[6.9888326,52.0752348]},"properties":{"hgv":"yes","goods":"yes"}},{"type":"Feature","geometry":{"type":"Point","coordinates":[6.8759573,52.1327686]},"properties":{"maxweight":"7.5"}},{"type":"Feature","geometry":{"type":"Point","coordinates":[6.8756949,52.132832]},"properties":{"maxweight":"7.5"}},{"type":"Feature","geometry":{"type":"Point","coordinates":[6.9913142,52.0734875]},"properties":{"maxweight":"30"}},{"type":"Feature","geometry":{"type":"Point","coordinates":[6.875123,52.1328416]},"properties":{"maxweight":"7.5"}},{"type":"Feature","geometry":{"type":"Point","coordinates":[6.8513729,52.0200621]},"properties":{"maxweight":"30"}},{"type":"Feature","geometry":{"type":"Point","coordinates":[6.9825798,52.0808387]},"properties":{"maxweight":"30"}},{"type":"Feature","geometry":{"type":"Point","coordinates":[6.7356277,52.5867611]},"properties":{"maxweight":"3.5"}},{"type":"Feature","geometry":{"type":"Point","coordinates":[6.8554735,52.6101824]},"properties":{"maxweight":"7.5"}},{"type":"Feature","geometry":{"type":"Point","coordinates":[6.8880695,52.6200431]},"properties":{"maxweight":"30"}},{"type":"Feature","geometry":{"type":"Point","coordinates":[6.8929388,52.5508511]},"properties":{"hgv":"no"}},{"type":"Feature","geometry":{"type":"Point","coordinates":[6.8541253,52.6045539]},"properties":{"maxweight":"3.5"}},{"type":"Feature","geometry":{"type":"Point","coordinates":[6.8288115,52.0296379]},"properties":{"hgv":"no"}},{"type":"Feature","geometry":{"type":"Point","coordinates":[6.9849775,52.6435457]},"properties":{"maxwidth":"2","maxweight":"3.5"}},{"type":"Feature","geometry":{"type":"Point","coordinates":[6.9849489,52.6435254]},"properties":{"maxwidth":"2","maxweight":"3.5"}},{"type":"Feature","geometry":{"type":"Point","coordinates":[6.9708558,52.5030784]},"properties":{"maxheight":"4.1"}},{"type":"Feature","geometry":{"type":"Point","coordinates":[6.9417948,52.6082212]},"properties":{"maxweight":"7.5"}},{"type":"Feature","geometry":{"type":"Point","coordinates":[6.9997423,52.2298389]},"properties":{"hgv":"destination"}},{"type":"Feature","geometry":{"type":"Point","coordinates":[6.9272252,52.1103226]},"properties":{"maxweight":"9"}},{"type":"Feature","geometry":{"type":"Point","coordinates":[6.7162711,52.4758551]},"properties":{"maxwidth":"1.8"}},{"type":"Feature","geometry":{"type":"Point","coordinates":[6.9687953,52.1257658]},"properties":{"maxweight":"30 t"}},{"type":"Feature","geometry":{"type":"Point","coordinates":[6.9640531,52.6256883]},"properties":{"maxweight":"3.5"}},{"type":"Feature","geometry":{"type":"Point","coordinates":[6.7329,52.5844075]},"properties":{"maxweight":"3.5"}},{"type":"Feature","geometry":{"type":"Point","coordinates":[6.9788684,52.4932539]},"properties":{"maxheight":"4.1","maxweight":"3.5"}},{"type":"Feature","geometry":{"type":"Point","coordinates":[6.8583263,52.5739122]},"properties":{"maxweight":"3.5"}},{"type":"Feature","geometry":{"type":"Point","coordinates":[6.7701973,52.4612255]},"properties":{"maxwidth":"2"}},{"type":"Feature","geometry":{"type":"Point","coordinates":[6.8469403,52.5445938]},"properties":{"hgv":"destination","maxweight":"3.5"}},{"type":"Feature","geometry":{"type":"Point","coordinates":[6.9667678,52.4914045]},"properties":{"hgv":"no"}},{"type":"Feature","geometry":{"type":"Point","coordinates":[6.9948314,52.0712368]},"properties":{"maxweight":"12"}},{"type":"Feature","geometry":{"type":"Point","coordinates":[6.8554575,52.6051222]},"properties":{"hgv":"destination","maxweight":"7.5"}},{"type":"Feature","geometry":{"type":"Point","coordinates":[6.8552003,52.6071773]},"properties":{"hgv":"destination","maxweight":"7.5"}},{"type":"Feature","geometry":{"type":"Point","coordinates":[6.9468679,52.4926985]},"properties":{"maxheight":"4.0"}},{"type":"Feature","geometry":{"type":"Point","coordinates":[6.7471285,52.5085504]},"properties":{"maxweight":"3.5"}},{"type":"Feature","geometry":{"type":"Point","coordinates":[6.7299679,52.5104023]},"properties":{"maxweight":"3.5"}},{"type":"Feature","geometry":{"type":"Point","coordinates":[6.7224309,52.5115881]},"properties":{"maxweight":"3.5"}},{"type":"Feature","geometry":{"type":"Point","coordinates":[6.7913146,52.5045657]},"properties":{"maxweight":"3.5"}},{"type":"Feature","geometry":{"type":"Point","coordinates":[6.8588041,52.1011158]},"properties":{"hgv":"destination"}},{"type":"Feature","geometry":{"type":"Point","coordinates":[6.8781694,52.6383248]},"properties":{"maxweight":"3.5"}},{"type":"Feature","geometry":{"type":"Point","coordinates":[6.948272,52.4959555]},"properties":{"maxweight":"3.5"}},{"type":"Feature","geometry":{"type":"Point","coordinates":[6.9482728,52.4960285]},"properties":{"maxweight":"3.5"}},{"type":"Feature","geometry":{"type":"Point","coordinates":[6.8542893,52.6047407]},"properties":{"maxweight":"3.5"}},{"type":"Feature","geometry":{"type":"Point","coordinates":[6.9523177,52.435988]},"properties":{"maxweight":"10"}},{"type":"Feature","geometry":{"type":"Point","coordinates":[6.7321909,52.6154129]},"properties":{"maxweight":"3.5"}},{"type":"Feature","geometry":{"type":"Point","coordinates":[6.7024838,52.5201925]},"properties":{"maxwidth":"2.0","maxweight":"3.5"}},{"type":"Feature","geometry":{"type":"Point","coordinates":[6.855193,52.607974]},"properties":{"hgv":"no","goods":"no"}},{"type":"Feature","geometry":{"type":"Point","coordinates":[6.6802697,52.5535575]},"properties":{"hgv":"destination"}},{"type":"Feature","geometry":{"type":"Point","coordinates":[6.985316,52.6324671]},"properties":{"maxweight":"3.5"}},{"type":"Feature","geometry":{"type":"Point","coordinates":[6.889842,52.4990486]},"properties":{"maxheight":"4"}},{"type":"Feature","geometry":{"type":"Point","coordinates":[6.7171137,52.4783676]},"properties":{"maxwidth":"1.8"}},{"type":"Feature","geometry":{"type":"Point","coordinates":[6.8540344,52.604413]},"properties":{"maxweight":"3.5"}},{"type":"Feature","geometry":{"type":"Point","coordinates":[6.9742008,52.2153358]},"properties":{"hgv":"destination"}},{"type":"Feature","geometry":{"type":"Point","coordinates":[6.7167042,52.4772258]},"properties":{"maxwidth":"1.8"}},{"type":"Feature","geometry":{"type":"Point","coordinates":[6.8413481,52.0335437]},"properties":{"hgv":"no"}},{"type":"Feature","geometry":{"type":"Point","coordinates":[6.729595,52.6148002]},"properties":{"maxweight":"3.5"}},{"type":"Feature","geometry":{"type":"Point","coordinates":[6.7999074,52.6168176]},"properties":{"maxweight":"3.5"}},{"type":"Feature","geometry":{"type":"Point","coordinates":[6.7424499,52.6004788]},"properties":{"maxweight":"3.5"}},{"type":"Feature","geometry":{"type":"Point","coordinates":[6.8365299,52.6166926]},"properties":{"hgv":"designated","maxweight":"3.5"}},{"type":"Feature","geometry":{"type":"Point","coordinates":[6.7686282,52.501141]},"properties":{"hgv":"no"}},{"type":"Feature","geometry":{"type":"Point","coordinates":[6.8597243,52.1016196]},"properties":{"hgv":"destination"}},{"type":"Feature","geometry":{"type":"Point","coordinates":[6.9513544,52.4959381]},"properties":{"maxweight":"3.5"}},{"type":"Feature","geometry":{"type":"Point","coordinates":[6.9694181,52.5000023]},"properties":{"maxweight":"5.5"}},{"type":"Feature","geometry":{"type":"Point","coordinates":[6.8334173,52.0323026]},"properties":{"hgv":"no"}},{"type":"Feature","geometry":{"type":"Point","coordinates":[6.859428,52.1015919]},"properties":{"hgv":"destination"}},{"type":"Feature","geometry":{"type":"Point","coordinates":[6.7447303,52.5088103]},"properties":{"maxweight":"3.5"}},{"type":"Feature","geometry":{"type":"Point","coordinates":[6.9070832,52.6429336]},"properties":{"maxweight":"3.5"}},{"type":"Feature","geometry":{"type":"Point","coordinates":[6.9455223,52.611027]},"properties":{"maxweight":"7.5"}},{"type":"Feature","geometry":{"type":"Point","coordinates":[6.914335,52.0016763]},"properties":{"hgv":"no"}},{"type":"Feature","geometry":{"type":"Point","coordinates":[6.8505948,52.6057375]},"properties":{"hgv":"delivery","maxweight":"7.5"}},{"type":"Feature","geometry":{"type":"Point","coordinates":[6.8507239,52.6062753]},"properties":{"hgv":"delivery","maxweight":"7.5"}},{"type":"Feature","geometry":{"type":"Point","coordinates":[6.9687147,52.5001374]},"properties":{"maxweight":"5.5"}}]}