{"type":"FeatureCollection","features":[{"type":"Feature","geometry":{"type":"Point","coordinates":[8.8747675,54.1320201]},"properties":{"maxheight":"2.2"}},{"type":"Feature","geometry":{"type":"Point","coordinates":[8.9371332,54.3085062]},"properties":{"maxwidth":"1"}},{"type":"Feature","geometry":{"type":"Point","coordinates":[8.3177419,54.9038793]},"properties":{"hgv":"yes"}},{"type":"Feature","geometry":{"type":"Point","coordinates":[8.5523574,54.6830087]},"properties":{"maxwidth":"4.5"}},{"type":"Feature","geometry":{"type":"Point","coordinates":[8.9566306,54.0878248]},"properties":{"maxheight":"2"}},{"type":"Feature","geometry":{"type":"Point","coordinates":[8.9814271,54.7679457]},"properties":{"maxheight":"2.5","maxwidth":"2.5"}},{"type":"Feature","geometry":{"type":"Point","coordinates":[8.4940859,54.6871704]},"properties":{"maxwidth":"1.5"}},{"type":"Feature","geometry":{"type":"Point","coordinates":[8.3354339,54.6780672]},"properties":{"maxwidth":"4"}},{"type":"Feature","geometry":{"type":"Point","coordinates":[8.96031,54.0935716]},"properties":{"maxheight":"2.0"}},{"type":"Feature","geometry":{"type":"Point","coordinates":[8.3967928,54.6286835]},"properties":{"maxwidth":"4"}},{"type":"Feature","geometry":{"type":"Point","coordinates":[8.6080611,54.317198]},"properties":{"maxheight":"1.9"}},{"type":"Feature","geometry":{"type":"Point","coordinates":[8.3600124,54.6451607]},"properties":{"maxheight":"1.5"}},{"type":"Feature","geometry":{"type":"Point","coordinates":[8.8683415,54.129426]},"properties":{"maxheight":"2.2"}},{"type":"Feature","geometry":{"type":"Point","coordinates":[8.9817202,54.7674157]},"properties":{"maxwidth":"4"}},{"type":"Feature","geometry":{"type":"Point","coordinates":[8.6361732,54.3050169]},"properties":{"hgv":"no"}},{"type":"Feature","geometry":{"type":"Point","coordinates":[8.301936,54.9081863]},"properties":{"maxheight":"2.1"}},{"type":"Feature","geometry":{"type":"Point","coordinates":[8.3001985,54.9074163]},"properties":{"maxheight":"1.92"}},{"type":"Feature","geometry":{"type":"Point","coordinates":[8.3001057,54.9066613]},"properties":{"maxheight":"below_default"}},{"type":"Feature","geometry":{"type":"Point","coordinates":[8.3008039,54.9064752]},"properties":{"maxheight":"1.9"}},{"type":"Feature","geometry":{"type":"Point","coordinates":[8.9711986,54.4551181]},"properties":{"maxwidth":"0.6"}},{"type":"Feature","geometry":{"type":"Point","coordinates":[8.8577202,54.1270877]},"properties":{"maxheight":"2.15"}},{"type":"Feature","geometry":{"type":"Point","coordinates":[8.6251527,54.3039329]},"properties":{"maxwidth":"1"}},{"type":"Feature","geometry":{"type":"Point","coordinates":[8.3041382,54.9073517]},"properties":{"maxheight":"1.95"}},{"type":"Feature","geometry":{"type":"Point","coordinates":[8.3163755,54.9367381]},"properties":{"maxheight":"2.10"}},{"type":"Feature","geometry":{"type":"Point","coordinates":[8.9704303,54.4549598]},"properties":{"maxwidth":"1.2"}},{"type":"Feature","geometry":{"type":"Point","coordinates":[8.8144059,54.4902547]},"properties":{"maxwidth":"1.5"}},{"type":"Feature","geometry":{"type":"Point","coordinates":[8.8220312,54.5052442]},"properties":{"maxwidth":"3"}},{"type":"Feature","geometry":{"type":"Point","coordinates":[8.8218111,54.5055223]},"properties":{"maxwidth":"3"}},{"type":"Feature","geometry":{"type":"Point","coordinates":[8.7027048,54.7300505]},"properties":{"maxwidth":"5.6"}},{"type":"Feature","geometry":{"type":"Point","coordinates":[8.4939308,54.6878041]},"properties":{"maxwidth":"1.5"}},{"type":"Feature","geometry":{"type":"Point","coordinates":[8.8552363,54.5160566]},"properties":{"maxheight":"122"}},{"type":"Feature","geometry":{"type":"Point","coordinates":[8.3353339,54.6775085]},"properties":{"maxwidth":"4"}},{"type":"Feature","geometry":{"type":"Point","coordinates":[8.3568564,54.6479334]},"properties":{"maxwidth":"3"}},{"type":"Feature","geometry":{"type":"Point","coordinates":[8.3573226,54.6495331]},"properties":{"maxwidth":"4"}},{"type":"Feature","geometry":{"type":"Point","coordinates":[8.3553528,54.6482476]},"properties":{"maxwidth":"3"}},{"type":"Feature","geometry":{"type":"Point","coordinates":[8.3578885,54.6488278]},"properties":{"maxwidth":"4"}},{"type":"Feature","geometry":{"type":"Point","coordinates":[8.3563497,54.6480398]},"properties":{"maxwidth":"3"}},{"type":"Feature","geometry":{"type":"Point","coordinates":[8.8766085,54.0009635]},"properties":{"maxweight":"1"}},{"type":"Feature","geometry":{"type":"Point","coordinates":[8.8755731,54.000898]},"properties":{"maxweight":"0.63"}},{"type":"Feature","geometry":{"type":"Point","coordinates":[8.680167,54.5363989]},"properties":{"maxweight":"2"}},{"type":"Feature","geometry":{"type":"Point","coordinates":[8.5569538,54.6875238]},"properties":{"maxwidth":"3"}},{"type":"Feature","geometry":{"type":"Point","coordinates":[8.5553213,54.68555]},"properties":{"maxwidth":"1.5"}},{"type":"Feature","geometry":{"type":"Point","coordinates":[8.8557735,54.1294395]},"properties":{"maxheight":"2.1"}},{"type":"Feature","geometry":{"type":"Point","coordinates":[8.8385561,54.0294769]},"properties":{"hgv":"no"}},{"type":"Feature","geometry":{"type":"Point","coordinates":[8.3053962,54.8892429]},"properties":{"maxweight":"7.5"}},{"type":"Feature","geometry":{"type":"Point","coordinates":[8.865701,54.1292772]},"properties":{"goods":"permissive"}},{"type":"Feature","geometry":{"type":"Point","coordinates":[8.9865152,54.6043278]},"properties":{"maxheight":"3.8"}},{"type":"Feature","geometry":{"type":"Point","coordinates":[8.8650058,54.1298469]},"properties":{"maxheight":"none"}},{"type":"Feature","geometry":{"type":"Point","coordinates":[8.9246609,54.3398284]},"properties":{"maxweight":"10"}},{"type":"Feature","geometry":{"type":"Point","coordinates":[8.9425125,54.4008381]},"properties":{"maxweight":"10"}},{"type":"Feature","geometry":{"type":"Point","coordinates":[8.8797868,54.3489498]},"properties":{"maxweight":"10"}},{"type":"Feature","geometry":{"type":"Point","coordinates":[8.7934217,54.3039714]},"properties":{"maxweight":"10"}},{"type":"Feature","geometry":{"type":"Point","coordinates":[8.8968463,54.140275]},"properties":{"maxweight":"7.5"}},{"type":"Feature","geometry":{"type":"Point","coordinates":[8.9721605,54.7735765]},"properties":{"hgv":"no","goods":"no"}},{"type":"Feature","geometry":{"type":"Point","coordinates":[8.6328501,54.3059151]},"properties":{"maxweight":"3"}},{"type":"Feature","geometry":{"type":"Point","coordinates":[8.8613812,54.1311147]},"properties":{"maxweight":"7.5"}},{"type":"Feature","geometry":{"type":"Point","coordinates":[8.8448841,54.1343424]},"properties":{"maxweight":"7.5"}},{"type":"Feature","geometry":{"type":"Point","coordinates":[8.9974911,54.1659781]},"properties":{"hgv":"no"}},{"type":"Feature","geometry":{"type":"Point","coordinates":[8.4074137,54.715513]},"properties":{"maxweight":"1.5"}},{"type":"Feature","geometry":{"type":"Point","coordinates":[8.9861375,54.1813515]},"properties":{"maxlength":"10"}},{"type":"Feature","geometry":{"type":"Point","coordinates":[8.907848,54.3678062]},"properties":{"maxweight":"10"}},{"type":"Feature","geometry":{"type":"Point","coordinates":[8.7760183,54.8820354]},"properties":{"hgv":"no"}},{"type":"Feature","geometry":{"type":"Point","coordinates":[8.9095511,54.1792953]},"properties":{"hgv":"no"}},{"type":"Feature","geometry":{"type":"Point","coordinates":[8.8296707,54.6668476]},"properties":{"hgv":"destination"}},{"type":"Feature","geometry":{"type":"Point","coordinates":[8.3116676,54.9069545]},"properties":{"maxheight":"1.65"}},{"type":"Feature","geometry":{"type":"Point","coordinates":[8.8472691,54.9105185]},"properties":{"maxweight":"3.5"}},{"type":"Feature","geometry":{"type":"Point","coordinates":[8.8599845,54.1304182]},"properties":{"maxweight":"7.5"}},{"type":"Feature","geometry":{"type":"Point","coordinates":[8.8581205,54.1294703]},"properties":{"maxweight":"7.5"}},{"type":"Feature","geometry":{"type":"Point","coordinates":[8.8624981,54.1302813]},"properties":{"maxweight":"2.8"}},{"type":"Feature","geometry":{"type":"Point","coordinates":[8.8566511,54.1291361]},"properties":{"maxweight":"7.5"}},{"type":"Feature","geometry":{"type":"Point","coordinates":[8.8542985,54.1296258]},"properties":{"maxheight":"none"}},{"type":"Feature","geometry":{"type":"Point","coordinates":[8.8590956,54.1296788]},"properties":{"maxweight":"7.5"}},{"type":"Feature","geometry":{"type":"Point","coordinates":[8.8564235,54.78101]},"properties":{"maxweight":"5.5"}},{"type":"Feature","geometry":{"type":"Point","coordinates":[8.9960451,54.434641]},"properties":{"maxweight":"16"}},{"type":"Feature","geometry":{"type":"Point","coordinates":[8.6443715,54.3342164]},"properties":{"maxweight":"16"}},{"type":"Feature","geometry":{"type":"Point","coordinates":[8.8580254,54.1280704]},"properties":{"maxweight":"7.5"}},{"type":"Feature","geometry":{"type":"Point","coordinates":[8.8714249,54.1310211]},"properties":{"maxheight":"2.2"}},{"type":"Feature","geometry":{"type":"Point","coordinates":[8.9560615,54.6875102]},"properties":{"hgv":"no"}},{"type":"Feature","geometry":{"type":"Point","coordinates":[8.8333401,54.1595386]},"properties":{"maxweight":"12"}},{"type":"Feature","geometry":{"type":"Point","coordinates":[8.9895725,54.0177786]},"properties":{"maxweight":"9"}},{"type":"Feature","geometry":{"type":"Point","coordinates":[8.8816527,54.3057137]},"properties":{"maxweight":"10"}},{"type":"Feature","geometry":{"type":"Point","coordinates":[8.3182711,54.9357526]},"properties":{"maxheight":"none"}},{"type":"Feature","geometry":{"type":"Point","coordinates":[8.9925169,54.5981208]},"properties":{"maxweight":"30"}},{"type":"Feature","geometry":{"type":"Point","coordinates":[8.3703603,54.8877885]},"properties":{"maxweight":"3.5"}},{"type":"Feature","geometry":{"type":"Point","coordinates":[8.7851765,54.8787955]},"properties":{"maxweight":"12"}},{"type":"Feature","geometry":{"type":"Point","coordinates":[8.3597956,54.8805499]},"properties":{"maxweight":"7.5"}},{"type":"Feature","geometry":{"type":"Point","coordinates":[8.3184631,54.9338745]},"properties":{"maxheight":"none"}},{"type":"Feature","geometry":{"type":"Point","coordinates":[8.8244811,54.6926224]},"properties":{"maxweight":"12"}},{"type":"Feature","geometry":{"type":"Point","coordinates":[8.5244399,54.7179575]},"properties":{"maxweight":"8"}},{"type":"Feature","geometry":{"type":"Point","coordinates":[8.5654026,54.704349]},"properties":{"maxweight":"12"}},{"type":"Feature","geometry":{"type":"Point","coordinates":[8.5793684,54.7104915]},"properties":{"maxweight":"3.5"}},{"type":"Feature","geometry":{"type":"Point","coordinates":[8.5795629,54.7104555]},"properties":{"maxweight":"3.5"}},{"type":"Feature","geometry":{"type":"Point","coordinates":[8.5803222,54.7103126]},"properties":{"maxweight":"3.5"}},{"type":"Feature","geometry":{"type":"Point","coordinates":[8.5476052,54.7096416]},"properties":{"maxweight":"3.5"}},{"type":"Feature","geometry":{"type":"Point","coordinates":[8.9608207,54.0116854]},"properties":{"maxweight":"9"}},{"type":"Feature","geometry":{"type":"Point","coordinates":[8.7208775,54.7961979]},"properties":{"goods":"no"}},{"type":"Feature","geometry":{"type":"Point","coordinates":[8.7562889,54.7318198]},"properties":{"maxweight":"12"}},{"type":"Feature","geometry":{"type":"Point","coordinates":[8.7468635,54.8652932]},"properties":{"maxweight":"9"}},{"type":"Feature","geometry":{"type":"Point","coordinates":[8.7306845,54.7240716]},"properties":{"maxweight":"2.5"}},{"type":"Feature","geometry":{"type":"Point","coordinates":[8.9039053,54.1529606]},"properties":{"maxweight":"5.7"}},{"type":"Feature","geometry":{"type":"Point","coordinates":[8.4533506,54.7363799]},"properties":{"maxweight":"6"}},{"type":"Feature","geometry":{"type":"Point","coordinates":[8.9403623,54.3138184]},"properties":{"maxweight":"5.5"}},{"type":"Feature","geometry":{"type":"Point","coordinates":[8.944568,54.3208136]},"properties":{"hgv":"no"}},{"type":"Feature","geometry":{"type":"Point","coordinates":[8.8541522,54.3009605]},"properties":{"maxweight":"10 t"}},{"type":"Feature","geometry":{"type":"Point","coordinates":[8.7941749,54.3035308]},"properties":{"maxweight":"10"}},{"type":"Feature","geometry":{"type":"Point","coordinates":[8.8039053,54.3007672]},"properties":{"hgv":"no"}},{"type":"Feature","geometry":{"type":"Point","coordinates":[8.3076978,54.9213822]},"properties":{"maxheight":"2"}},{"type":"Feature","geometry":{"type":"Point","coordinates":[8.3400477,54.8973405]},"properties":{"hgv":"no"}},{"type":"Feature","geometry":{"type":"Point","coordinates":[8.875287,54.228738]},"properties":{"maxweight":"9"}},{"type":"Feature","geometry":{"type":"Point","coordinates":[8.8486834,54.2137005]},"properties":{"maxweight":"9"}},{"type":"Feature","geometry":{"type":"Point","coordinates":[8.8732896,54.1548545]},"properties":{"hgv":"no"}},{"type":"Feature","geometry":{"type":"Point","coordinates":[8.6834932,54.3080926]},"properties":{"maxweight":"5.7"}},{"type":"Feature","geometry":{"type":"Point","coordinates":[8.8761509,54.2234754]},"properties":{"maxweight":"9"}},{"type":"Feature","geometry":{"type":"Point","coordinates":[8.8700398,54.1971111]},"properties":{"maxweight":"9"}},{"type":"Feature","geometry":{"type":"Point","coordinates":[8.8747465,54.2276571]},"properties":{"maxweight":"9"}},{"type":"Feature","geometry":{"type":"Point","coordinates":[8.8884449,54.2359432]},"properties":{"maxweight":"5.5"}},{"type":"Feature","geometry":{"type":"Point","coordinates":[8.9154787,54.1449567]},"properties":{"maxweight":"7.5"}},{"type":"Feature","geometry":{"type":"Point","coordinates":[8.9051989,54.1398729]},"properties":{"maxweight":"7.5"}},{"type":"Feature","geometry":{"type":"Point","coordinates":[8.9106205,54.1392946]},"properties":{"maxweight":"7.5"}},{"type":"Feature","geometry":{"type":"Point","coordinates":[8.929011,54.1410364]},"properties":{"maxheight":"3.5"}},{"type":"Feature","geometry":{"type":"Point","coordinates":[8.9599247,54.2068442]},"properties":{"maxweight":"16"}},{"type":"Feature","geometry":{"type":"Point","coordinates":[8.8907278,54.2048597]},"properties":{"maxweight":"9"}},{"type":"Feature","geometry":{"type":"Point","coordinates":[8.9373829,54.1651081]},"properties":{"maxweight":"9"}},{"type":"Feature","geometry":{"type":"Point","coordinates":[8.9180836,54.2014129]},"properties":{"maxweight":"9"}},{"type":"Feature","geometry":{"type":"Point","coordinates":[8.9430001,54.180242]},"properties":{"hgv":"no"}},{"type":"Feature","geometry":{"type":"Point","coordinates":[8.3448603,54.903165]},"properties":{"maxweight":"5.7"}},{"type":"Feature","geometry":{"type":"Point","coordinates":[8.9046387,54.2206809]},"properties":{"maxweight":"9"}},{"type":"Feature","geometry":{"type":"Point","coordinates":[8.3178885,54.9040543]},"properties":{"maxheight":"4.05"}},{"type":"Feature","geometry":{"type":"Point","coordinates":[8.3104884,54.9067978]},"properties":{"maxheight":"2.7"}},{"type":"Feature","geometry":{"type":"Point","coordinates":[8.311692,54.906924]},"properties":{"maxheight":"2.7"}},{"type":"Feature","geometry":{"type":"Point","coordinates":[8.3183932,54.9034313]},"properties":{"maxheight":"4.05"}},{"type":"Feature","geometry":{"type":"Point","coordinates":[8.3105625,54.9067847]},"properties":{"maxheight":"1.65"}},{"type":"Feature","geometry":{"type":"Point","coordinates":[8.8457524,54.2058258]},"properties":{"maxweight":"9"}},{"type":"Feature","geometry":{"type":"Point","coordinates":[8.8300947,54.1611887]},"properties":{"maxweight":"12"}},{"type":"Feature","geometry":{"type":"Point","coordinates":[8.8765876,54.2394137]},"properties":{"maxweight":"9"}},{"type":"Feature","geometry":{"type":"Point","coordinates":[8.9651166,54.3014728]},"properties":{"maxheight":"default"}},{"type":"Feature","geometry":{"type":"Point","coordinates":[8.8455914,54.2634344]},"properties":{"maxheight":"4"}},{"type":"Feature","geometry":{"type":"Point","coordinates":[8.9918385,54.1907321]},"properties":{"maxweight":"16"}},{"type":"Feature","geometry":{"type":"Point","coordinates":[8.8942129,54.8697197]},"properties":{"hgv":"no","goods":"no"}},{"type":"Feature","geometry":{"type":"Point","coordinates":[8.9211573,54.8661693]},"properties":{"hgv":"no"}},{"type":"Feature","geometry":{"type":"Point","coordinates":[8.3155225,54.9046774]},"properties":{"hgv":"yes"}},{"type":"Feature","geometry":{"type":"Point","coordinates":[8.8966884,54.2402671]},"properties":{"maxweight":"5.5"}},{"type":"Feature","geometry":{"type":"Point","coordinates":[8.7077965,54.3681244]},"properties":{"maxweight":"10"}},{"type":"Feature","geometry":{"type":"Point","coordinates":[8.7099128,54.370055]},"properties":{"maxweight":"10"}},{"type":"Feature","geometry":{"type":"Point","coordinates":[8.5281943,54.6844331]},"properties":{"maxweight":"5.7"}},{"type":"Feature","geometry":{"type":"Point","coordinates":[8.5304405,54.6843682]},"properties":{"maxweight":"5.7"}},{"type":"Feature","geometry":{"type":"Point","coordinates":[8.9495259,54.3584985]},"properties":{"maxweight":"10"}},{"type":"Feature","geometry":{"type":"Point","coordinates":[8.4508643,54.7369962]},"properties":{"maxweight":"3.5"}},{"type":"Feature","geometry":{"type":"Point","coordinates":[8.4851837,54.7403218]},"properties":{"maxweight":"5"}},{"type":"Feature","geometry":{"type":"Point","coordinates":[8.9587158,54.3387809]},"properties":{"maxweight":"10"}},{"type":"Feature","geometry":{"type":"Point","coordinates":[8.7065848,54.3248203]},"properties":{"hgv":"agricultural;destination"}},{"type":"Feature","geometry":{"type":"Point","coordinates":[8.8420944,54.1412884]},"properties":{"maxheight":"2.2"}},{"type":"Feature","geometry":{"type":"Point","coordinates":[8.8421775,54.1417088]},"properties":{"maxheight":"2.2"}},{"type":"Feature","geometry":{"type":"Point","coordinates":[8.8695858,54.3283332]},"properties":{"maxweight":"10"}},{"type":"Feature","geometry":{"type":"Point","coordinates":[8.7874003,54.3276744]},"properties":{"maxweight":"7.5"}},{"type":"Feature","geometry":{"type":"Point","coordinates":[8.640665,54.3804616]},"properties":{"maxweight":"4"}},{"type":"Feature","geometry":{"type":"Point","coordinates":[8.9172873,54.205849]},"properties":{"hgv":"delivery"}},{"type":"Feature","geometry":{"type":"Point","coordinates":[8.9148544,54.2052288]},"properties":{"hgv":"delivery"}},{"type":"Feature","geometry":{"type":"Point","coordinates":[8.9161236,54.2062755]},"properties":{"hgv":"no"}},{"type":"Feature","geometry":{"type":"Point","coordinates":[8.9159139,54.2041263]},"properties":{"hgv":"destination"}},{"type":"Feature","geometry":{"type":"Point","coordinates":[8.8124555,54.3978315]},"properties":{"maxweight":"10"}},{"type":"Feature","geometry":{"type":"Point","coordinates":[8.6397363,54.3783071]},"properties":{"maxweight":"4"}},{"type":"Feature","geometry":{"type":"Point","coordinates":[8.913814,54.4712596]},"properties":{"maxheight":"default"}},{"type":"Feature","geometry":{"type":"Point","coordinates":[8.6164047,54.5194118]},"properties":{"maxweight":"12"}},{"type":"Feature","geometry":{"type":"Point","coordinates":[8.6491306,54.3388213]},"properties":{"maxweight":"16"}},{"type":"Feature","geometry":{"type":"Point","coordinates":[8.653182,54.3410036]},"properties":{"maxweight":"16"}},{"type":"Feature","geometry":{"type":"Point","coordinates":[8.6451832,54.3352796]},"properties":{"maxweight":"16"}},{"type":"Feature","geometry":{"type":"Point","coordinates":[8.646324,54.3365362]},"properties":{"maxweight":"16"}},{"type":"Feature","geometry":{"type":"Point","coordinates":[8.6662357,54.5246166]},"properties":{"maxweight":"12"}},{"type":"Feature","geometry":{"type":"Point","coordinates":[8.3973271,54.6289912]},"properties":{"hgv":"designated"}},{"type":"Feature","geometry":{"type":"Point","coordinates":[8.7809168,54.3412828]},"properties":{"maxweight":"10"}},{"type":"Feature","geometry":{"type":"Point","coordinates":[8.9413395,54.0215059]},"properties":{"maxweight":"5.5"}},{"type":"Feature","geometry":{"type":"Point","coordinates":[8.9182753,54.0113334]},"properties":{"maxweight":"5.5"}},{"type":"Feature","geometry":{"type":"Point","coordinates":[8.9660012,54.2629333]},"properties":{"maxweight":"3.5"}},{"type":"Feature","geometry":{"type":"Point","coordinates":[8.9580716,54.7923594]},"properties":{"maxweight":"2"}},{"type":"Feature","geometry":{"type":"Point","coordinates":[8.330347,54.9125444]},"properties":{"maxweight":"2"}},{"type":"Feature","geometry":{"type":"Point","coordinates":[8.9819308,54.7770342]},"properties":{"hgv":"no"}},{"type":"Feature","geometry":{"type":"Point","coordinates":[8.4571153,54.6999922]},"properties":{"maxheight":"none"}},{"type":"Feature","geometry":{"type":"Point","coordinates":[8.841558,54.8755303]},"properties":{"maxweight":"9"}},{"type":"Feature","geometry":{"type":"Point","coordinates":[8.9223821,54.1537685]},"properties":{"maxweight":"9"}},{"type":"Feature","geometry":{"type":"Point","coordinates":[8.8713124,54.3301951]},"properties":{"maxweight":"10"}},{"type":"Feature","geometry":{"type":"Point","coordinates":[8.9699035,54.1799288]},"properties":{"maxweight":"16"}},{"type":"Feature","geometry":{"type":"Point","coordinates":[8.9698701,54.2000647]},"properties":{"maxweight":"16"}},{"type":"Feature","geometry":{"type":"Point","coordinates":[8.9631768,54.2049709]},"properties":{"maxweight":"16"}},{"type":"Feature","geometry":{"type":"Point","coordinates":[8.9434598,54.3561618]},"properties":{"maxweight":"10"}},{"type":"Feature","geometry":{"type":"Point","coordinates":[8.9382774,54.3548237]},"properties":{"maxweight":"10"}},{"type":"Feature","geometry":{"type":"Point","coordinates":[8.9436036,54.32916]},"properties":{"maxweight":"10"}},{"type":"Feature","geometry":{"type":"Point","coordinates":[8.996737,54.4347147]},"properties":{"maxweight":"16"}},{"type":"Feature","geometry":{"type":"Point","coordinates":[8.9964866,54.4348336]},"properties":{"maxweight":"16"}},{"type":"Feature","geometry":{"type":"Point","coordinates":[8.9601548,54.0928432]},"properties":{"maxheight":"2.0"}},{"type":"Feature","geometry":{"type":"Point","coordinates":[8.9601935,54.0927075]},"properties":{"maxheight":"2.0"}},{"type":"Feature","geometry":{"type":"Point","coordinates":[8.9613572,54.0934253]},"properties":{"hgv":"no"}},{"type":"Feature","geometry":{"type":"Point","coordinates":[8.9602948,54.0933607]},"properties":{"maxheight":"2.0"}},{"type":"Feature","geometry":{"type":"Point","coordinates":[8.9607851,54.092482]},"properties":{"maxheight":"2.0"}},{"type":"Feature","geometry":{"type":"Point","coordinates":[8.9602679,54.0932367]},"properties":{"maxheight":"2.0"}},{"type":"Feature","geometry":{"type":"Point","coordinates":[8.9602045,54.0929782]},"properties":{"maxheight":"2.0"}},{"type":"Feature","geometry":{"type":"Point","coordinates":[8.8362737,54.5063718]},"properties":{"maxweight":"3.5"}},{"type":"Feature","geometry":{"type":"Point","coordinates":[8.8307449,54.6777651]},"properties":{"hgv":"destination"}},{"type":"Feature","geometry":{"type":"Point","coordinates":[8.8333881,54.6851764]},"properties":{"hgv":"destination"}},{"type":"Feature","geometry":{"type":"Point","coordinates":[8.3692158,54.8883482]},"properties":{"maxweight":"3.5"}},{"type":"Feature","geometry":{"type":"Point","coordinates":[8.909844,54.3329616]},"properties":{"maxweight":"10"}},{"type":"Feature","geometry":{"type":"Point","coordinates":[8.9146688,54.3351109]},"properties":{"maxweight":"10"}},{"type":"Feature","geometry":{"type":"Point","coordinates":[8.9511939,54.3593507]},"properties":{"maxweight":"10"}},{"type":"Feature","geometry":{"type":"Point","coordinates":[8.9532762,54.3604677]},"properties":{"maxweight":"10"}},{"type":"Feature","geometry":{"type":"Point","coordinates":[8.835648,54.7856096]},"properties":{"hgv":"yes"}},{"type":"Feature","geometry":{"type":"Point","coordinates":[8.9739643,54.6180568]},"properties":{"maxheight":"3.9"}},{"type":"Feature","geometry":{"type":"Point","coordinates":[8.8444267,54.2055527]},"properties":{"maxweight":"9"}},{"type":"Feature","geometry":{"type":"Point","coordinates":[8.8353975,54.2065598]},"properties":{"maxweight":"9"}},{"type":"Feature","geometry":{"type":"Point","coordinates":[8.9106096,54.0044524]},"properties":{"maxweight":"5.5"}},{"type":"Feature","geometry":{"type":"Point","coordinates":[8.9401023,54.0138989]},"properties":{"maxweight":"12"}},{"type":"Feature","geometry":{"type":"Point","coordinates":[8.946154,54.645061]},"properties":{"maxheight":"default"}},{"type":"Feature","geometry":{"type":"Point","coordinates":[8.9264202,54.327073]},"properties":{"maxweight":"10"}},{"type":"Feature","geometry":{"type":"Point","coordinates":[8.8572859,54.1282153]},"properties":{"maxweight":"7.5"}},{"type":"Feature","geometry":{"type":"Point","coordinates":[8.8779948,54.7601424]},"properties":{"maxweight":"4.5"}},{"type":"Feature","geometry":{"type":"Point","coordinates":[8.8778469,54.7599451]},"properties":{"maxweight":"4.5"}},{"type":"Feature","geometry":{"type":"Point","coordinates":[8.8786761,54.7599591]},"properties":{"maxweight":"4.5"}},{"type":"Feature","geometry":{"type":"Point","coordinates":[8.7045314,54.3245369]},"properties":{"hgv":"agricultural;destination"}},{"type":"Feature","geometry":{"type":"Point","coordinates":[8.9507968,54.0927498]},"properties":{"maxweight":"30"}},{"type":"Feature","geometry":{"type":"Point","coordinates":[8.8605044,54.130687]},"properties":{"maxweight":"7.5"}},{"type":"Feature","geometry":{"type":"Point","coordinates":[8.8551505,54.8686984]},"properties":{"maxweight":"9"}},{"type":"Feature","geometry":{"type":"Point","coordinates":[8.8145764,54.8690642]},"properties":{"maxweight":"16"}},{"type":"Feature","geometry":{"type":"Point","coordinates":[8.8296435,54.6698284]},"properties":{"hgv":"destination"}},{"type":"Feature","geometry":{"type":"Point","coordinates":[8.6411629,54.3294064]},"properties":{"maxweight":"16"}},{"type":"Feature","geometry":{"type":"Point","coordinates":[8.8711497,54.2324843]},"properties":{"maxweight":"9"}},{"type":"Feature","geometry":{"type":"Point","coordinates":[8.6755942,54.3454626]},"properties":{"maxweight":"16"}},{"type":"Feature","geometry":{"type":"Point","coordinates":[8.6757205,54.3454881]},"properties":{"maxweight":"16"}},{"type":"Feature","geometry":{"type":"Point","coordinates":[8.679714,54.3462611]},"properties":{"maxweight":"16"}},{"type":"Feature","geometry":{"type":"Point","coordinates":[8.9849101,54.0063381]},"properties":{"maxweight":"9"}},{"type":"Feature","geometry":{"type":"Point","coordinates":[8.8590899,54.2452618]},"properties":{"maxweight":"16"}},{"type":"Feature","geometry":{"type":"Point","coordinates":[8.9062847,54.8692191]},"properties":{"maxheight":"3.8"}},{"type":"Feature","geometry":{"type":"Point","coordinates":[8.311597,54.9055576]},"properties":{"maxheight":"2"}},{"type":"Feature","geometry":{"type":"Point","coordinates":[8.3603763,54.8901757]},"properties":{"maxweight":"3.9"}},{"type":"Feature","geometry":{"type":"Point","coordinates":[8.3546823,54.8903538]},"properties":{"maxweight":"3.9"}},{"type":"Feature","geometry":{"type":"Point","coordinates":[8.3547635,54.8904278]},"properties":{"maxweight":"3.9"}},{"type":"Feature","geometry":{"type":"Point","coordinates":[8.3625628,54.8910841]},"properties":{"maxweight":"3.9"}},{"type":"Feature","geometry":{"type":"Point","coordinates":[8.3146717,54.8884974]},"properties":{"maxweight":"7.5"}},{"type":"Feature","geometry":{"type":"Point","coordinates":[8.4306867,54.8742104]},"properties":{"maxweight":"2.8"}},{"type":"Feature","geometry":{"type":"Point","coordinates":[8.8996533,54.2014885]},"properties":{"maxweight":"9"}},{"type":"Feature","geometry":{"type":"Point","coordinates":[8.9050993,54.1999051]},"properties":{"maxweight":"9"}},{"type":"Feature","geometry":{"type":"Point","coordinates":[8.9957926,54.2829527]},"properties":{"maxheight":"default"}},{"type":"Feature","geometry":{"type":"Point","coordinates":[8.2953679,54.8569718]},"properties":{"maxheight":"3.5"}},{"type":"Feature","geometry":{"type":"Point","coordinates":[8.8077845,54.8851937]},"properties":{"maxweight":"16"}},{"type":"Feature","geometry":{"type":"Point","coordinates":[8.841499,54.1414314]},"properties":{"maxheight":"2.2"}},{"type":"Feature","geometry":{"type":"Point","coordinates":[8.8431727,54.141964]},"properties":{"maxheight":"2.2"}},{"type":"Feature","geometry":{"type":"Point","coordinates":[8.6084541,54.3171403]},"properties":{"maxheight":"2.00"}},{"type":"Feature","geometry":{"type":"Point","coordinates":[8.9702109,54.7891325]},"properties":{"maxweight":"2"}},{"type":"Feature","geometry":{"type":"Point","coordinates":[8.9664964,54.7901199]},"properties":{"maxweight":"2"}},{"type":"Feature","geometry":{"type":"Point","coordinates":[8.858566,54.1365672]},"properties":{"maxweight":"2.8"}},{"type":"Feature","geometry":{"type":"Point","coordinates":[8.8571039,54.1282137]},"properties":{"maxheight":"2.8"}},{"type":"Feature","geometry":{"type":"Point","coordinates":[8.8632614,54.1321811]},"properties":{"maxlength":"10"}},{"type":"Feature","geometry":{"type":"Point","coordinates":[8.3316776,54.8993577]},"properties":{"maxweight":"10 t"}},{"type":"Feature","geometry":{"type":"Point","coordinates":[8.6837043,54.3470675]},"properties":{"maxweight":"16"}},{"type":"Feature","geometry":{"type":"Point","coordinates":[8.9558141,54.3209425]},"properties":{"maxheight":"4.0","maxweight":"5.5"}},{"type":"Feature","geometry":{"type":"Point","coordinates":[8.9265038,54.3230236]},"properties":{"hgv":"destination"}},{"type":"Feature","geometry":{"type":"Point","coordinates":[8.9264843,54.3227299]},"properties":{"hgv":"destination"}},{"type":"Feature","geometry":{"type":"Point","coordinates":[8.9261237,54.3231773]},"properties":{"hgv":"destination"}},{"type":"Feature","geometry":{"type":"Point","coordinates":[8.8786946,54.0001566]},"properties":{"maxweight":"12"}},{"type":"Feature","geometry":{"type":"Point","coordinates":[8.995494,54.5077877]},"properties":{"maxweight":"2.4"}},{"type":"Feature","geometry":{"type":"Point","coordinates":[8.2962152,54.8566143]},"properties":{"maxheight":"3.5"}},{"type":"Feature","geometry":{"type":"Point","coordinates":[8.8663636,54.828768]},"properties":{"maxweight":"9"}},{"type":"Feature","geometry":{"type":"Point","coordinates":[8.8428343,54.7792263]},"properties":{"maxheight":"default"}},{"type":"Feature","geometry":{"type":"Point","coordinates":[8.9299535,54.0052187]},"properties":{"maxweight":"12"}},{"type":"Feature","geometry":{"type":"Point","coordinates":[8.984071,54.6068604]},"properties":{"maxheight":"3.6"}},{"type":"Feature","geometry":{"type":"Point","coordinates":[8.4922306,54.7120408]},"properties":{"maxweight":"3.5"}},{"type":"Feature","geometry":{"type":"Point","coordinates":[8.3317916,54.9124736]},"properties":{"maxweight":"2"}},{"type":"Feature","geometry":{"type":"Point","coordinates":[8.9560914,54.321919]},"properties":{"maxheight":"4.0","maxweight":"5.5"}},{"type":"Feature","geometry":{"type":"Point","coordinates":[8.8753548,54.2005863]},"properties":{"maxweight":"9"}},{"type":"Feature","geometry":{"type":"Point","coordinates":[8.8693791,54.2235746]},"properties":{"maxweight":"9"}},{"type":"Feature","geometry":{"type":"Point","coordinates":[8.8737965,54.2208075]},"properties":{"maxweight":"9"}},{"type":"Feature","geometry":{"type":"Point","coordinates":[8.4444195,54.8717307]},"properties":{"maxweight":"30"}},{"type":"Feature","geometry":{"type":"Point","coordinates":[8.951112,54.3734309]},"properties":{"maxweight":"10"}},{"type":"Feature","geometry":{"type":"Point","coordinates":[8.7772274,54.3771351]},"properties":{"maxweight":"3.5"}},{"type":"Feature","geometry":{"type":"Point","coordinates":[8.7774157,54.3423952]},"properties":{"maxweight":"6"}},{"type":"Feature","geometry":{"type":"Point","coordinates":[8.94154,54.3253629]},"properties":{"maxweight":"10"}},{"type":"Feature","geometry":{"type":"Point","coordinates":[8.9495756,54.3584599]},"properties":{"maxweight":"10"}},{"type":"Feature","geometry":{"type":"Point","coordinates":[8.952039,54.3525329]},"properties":{"maxweight":"10"}},{"type":"Feature","geometry":{"type":"Point","coordinates":[8.937644,54.3545578]},"properties":{"maxweight":"10"}},{"type":"Feature","geometry":{"type":"Point","coordinates":[8.6570953,54.8729087]},"properties":{"maxweight":"10"}},{"type":"Feature","geometry":{"type":"Point","coordinates":[8.9966981,54.5887001]},"properties":{"maxweight":"7.5"}},{"type":"Feature","geometry":{"type":"Point","coordinates":[8.4888704,54.6920615]},"properties":{"maxheight":"default"}},{"type":"Feature","geometry":{"type":"Point","coordinates":[8.6928682,54.7300107]},"properties":{"maxheight":"3.4"}},{"type":"Feature","geometry":{"type":"Point","coordinates":[8.6928662,54.7300542]},"properties":{"maxheight":"3.4"}},{"type":"Feature","geometry":{"type":"Point","coordinates":[8.8137265,54.5027372]},"properties":{"maxheight":"default"}},{"type":"Feature","geometry":{"type":"Point","coordinates":[8.8367953,54.5063025]},"properties":{"maxweight":"3.5"}},{"type":"Feature","geometry":{"type":"Point","coordinates":[8.9279598,54.2053594]},"properties":{"maxweight":"9"}},{"type":"Feature","geometry":{"type":"Point","coordinates":[8.8968463,54.140275]},"properties":{"maxweight":"7.5"}},{"type":"Feature","geometry":{"type":"Point","coordinates":[8.897876,54.1404659]},"properties":{"maxweight":"7.5"}},{"type":"Feature","geometry":{"type":"Point","coordinates":[8.6478356,54.3378687]},"properties":{"maxweight":"16"}},{"type":"Feature","geometry":{"type":"Point","coordinates":[8.7782875,54.3529047]},"properties":{"maxweight":"10"}},{"type":"Feature","geometry":{"type":"Point","coordinates":[8.9282226,54.3492489]},"properties":{"maxweight":"10"}},{"type":"Feature","geometry":{"type":"Point","coordinates":[8.475814,54.7291691]},"properties":{"maxweight":"3.5"}},{"type":"Feature","geometry":{"type":"Point","coordinates":[8.8438212,54.1353892]},"properties":{"maxweight":"7.5"}},{"type":"Feature","geometry":{"type":"Point","coordinates":[8.6122669,54.3237925]},"properties":{"maxheight":"5"}},{"type":"Feature","geometry":{"type":"Point","coordinates":[8.6124432,54.3237505]},"properties":{"maxheight":"5"}},{"type":"Feature","geometry":{"type":"Point","coordinates":[8.6488145,54.3818198]},"properties":{"maxweight":"6"}},{"type":"Feature","geometry":{"type":"Point","coordinates":[8.8360337,54.7849005]},"properties":{"maxweight":"3"}},{"type":"Feature","geometry":{"type":"Point","coordinates":[8.8357758,54.784853]},"properties":{"maxweight":"3"}},{"type":"Feature","geometry":{"type":"Point","coordinates":[8.3111831,54.906558]},"properties":{"maxheight":"2.7"}},{"type":"Feature","geometry":{"type":"Point","coordinates":[8.9135252,54.1999917]},"properties":{"maxweight":"9"}},{"type":"Feature","geometry":{"type":"Point","coordinates":[8.9307747,54.2064982]},"properties":{"maxweight":"9"}},{"type":"Feature","geometry":{"type":"Point","coordinates":[8.3578981,54.9177289]},"properties":{"maxheight":"2.6"}},{"type":"Feature","geometry":{"type":"Point","coordinates":[8.8578973,54.1285392]},"properties":{"maxweight":"7.5"}},{"type":"Feature","geometry":{"type":"Point","coordinates":[8.77907,54.3333205]},"properties":{"maxweight":"10"}},{"type":"Feature","geometry":{"type":"Point","coordinates":[8.7797552,54.3357893]},"properties":{"maxweight":"10"}},{"type":"Feature","geometry":{"type":"Point","coordinates":[8.7768438,54.374312]},"properties":{"maxweight":"3.5"}},{"type":"Feature","geometry":{"type":"Point","coordinates":[8.8435412,54.2472835]},"properties":{"maxweight":"16"}},{"type":"Feature","geometry":{"type":"Point","coordinates":[8.951444,54.661961]},"properties":{"maxheight":"default"}},{"type":"Feature","geometry":{"type":"Point","coordinates":[8.6977762,54.8025571]},"properties":{"maxweight":"12"}},{"type":"Feature","geometry":{"type":"Point","coordinates":[8.697935,54.8025292]},"properties":{"maxweight":"12"}},{"type":"Feature","geometry":{"type":"Point","coordinates":[8.7011806,54.8070511]},"properties":{"maxweight":"12"}},{"type":"Feature","geometry":{"type":"Point","coordinates":[8.7012654,54.8070359]},"properties":{"maxweight":"12"}},{"type":"Feature","geometry":{"type":"Point","coordinates":[8.9316956,54.1723034]},"properties":{"maxweight":"9"}},{"type":"Feature","geometry":{"type":"Point","coordinates":[8.8489545,54.8642288]},"properties":{"maxweight":"9"}},{"type":"Feature","geometry":{"type":"Point","coordinates":[8.9957299,54.1640415]},"properties":{"maxweight":"7.5"}},{"type":"Feature","geometry":{"type":"Point","coordinates":[8.6470024,54.3371617]},"properties":{"maxweight":"16"}},{"type":"Feature","geometry":{"type":"Point","coordinates":[8.7102459,54.7304838]},"properties":{"hgv":"delivery"}},{"type":"Feature","geometry":{"type":"Point","coordinates":[8.835157,54.1601211]},"properties":{"maxweight":"12"}},{"type":"Feature","geometry":{"type":"Point","coordinates":[8.6418642,54.3305112]},"properties":{"maxweight":"16"}},{"type":"Feature","geometry":{"type":"Point","coordinates":[8.6389604,54.3765354]},"properties":{"maxweight":"4"}},{"type":"Feature","geometry":{"type":"Point","coordinates":[8.930954,54.2147911]},"properties":{"hgv":"no"}},{"type":"Feature","geometry":{"type":"Point","coordinates":[8.8609942,54.1311379]},"properties":{"maxweight":"7.5"}},{"type":"Feature","geometry":{"type":"Point","coordinates":[8.8338694,54.7912898]},"properties":{"maxheight":"default"}},{"type":"Feature","geometry":{"type":"Point","coordinates":[8.8335328,54.7911925]},"properties":{"maxheight":"default"}},{"type":"Feature","geometry":{"type":"Point","coordinates":[8.8272841,54.7872683]},"properties":{"maxheight":"3.9"}},{"type":"Feature","geometry":{"type":"Point","coordinates":[8.9376751,54.2111934]},"properties":{"maxweight":"9"}},{"type":"Feature","geometry":{"type":"Point","coordinates":[8.7844136,54.3436671]},"properties":{"hgv":"no","goods":"no"}},{"type":"Feature","geometry":{"type":"Point","coordinates":[8.8600824,54.1304044]},"properties":{"maxweight":"7.5"}},{"type":"Feature","geometry":{"type":"Point","coordinates":[8.9250032,54.2073472]},"properties":{"hgv":"destination"}},{"type":"Feature","geometry":{"type":"Point","coordinates":[8.9064595,54.1997634]},"properties":{"maxweight":"9"}},{"type":"Feature","geometry":{"type":"Point","coordinates":[8.3003322,54.90658]},"properties":{"maxweight":"3.5"}},{"type":"Feature","geometry":{"type":"Point","coordinates":[8.3485847,54.9408217]},"properties":{"maxweight":"7.5"}},{"type":"Feature","geometry":{"type":"Point","coordinates":[8.3123528,54.9065409]},"properties":{"maxheight":"2.7"}},{"type":"Feature","geometry":{"type":"Point","coordinates":[8.3121229,54.9067283]},"properties":{"maxheight":"1.65"}},{"type":"Feature","geometry":{"type":"Point","coordinates":[8.9505808,54.3245634]},"properties":{"maxheight":"4.2"}},{"type":"Feature","geometry":{"type":"Point","coordinates":[8.3389265,54.8975124]},"properties":{"hgv":"yes"}},{"type":"Feature","geometry":{"type":"Point","coordinates":[8.3147008,54.9053485]},"properties":{"hgv":"yes"}},{"type":"Feature","geometry":{"type":"Point","coordinates":[8.4089091,54.87607]},"properties":{"hgv":"yes"}},{"type":"Feature","geometry":{"type":"Point","coordinates":[8.4012605,54.8778569]},"properties":{"hgv":"yes"}},{"type":"Feature","geometry":{"type":"Point","coordinates":[8.4306171,54.8723306]},"properties":{"hgv":"yes"}},{"type":"Feature","geometry":{"type":"Point","coordinates":[8.4539252,54.8710162]},"properties":{"hgv":"yes"}},{"type":"Feature","geometry":{"type":"Point","coordinates":[8.6091552,54.8865562]},"properties":{"hgv":"yes"}},{"type":"Feature","geometry":{"type":"Point","coordinates":[8.6752111,54.8628359]},"properties":{"hgv":"yes"}},{"type":"Feature","geometry":{"type":"Point","coordinates":[8.7588986,54.8201917]},"properties":{"hgv":"yes"}},{"type":"Feature","geometry":{"type":"Point","coordinates":[8.8315634,54.7964649]},"properties":{"hgv":"yes"}},{"type":"Feature","geometry":{"type":"Point","coordinates":[8.834842,54.7912087]},"properties":{"hgv":"yes"}},{"type":"Feature","geometry":{"type":"Point","coordinates":[8.8352837,54.7859093]},"properties":{"hgv":"yes"}},{"type":"Feature","geometry":{"type":"Point","coordinates":[8.3176621,54.9040814]},"properties":{"hgv":"yes"}},{"type":"Feature","geometry":{"type":"Point","coordinates":[8.3686611,54.886758]},"properties":{"maxweight":"7.5"}},{"type":"Feature","geometry":{"type":"Point","coordinates":[8.3655404,54.8865458]},"properties":{"maxweight":"7.5"}},{"type":"Feature","geometry":{"type":"Point","coordinates":[8.3624183,54.8832953]},"properties":{"maxweight":"7.5"}},{"type":"Feature","geometry":{"type":"Point","coordinates":[8.349134,54.8839128]},"properties":{"maxweight":"7.5"}},{"type":"Feature","geometry":{"type":"Point","coordinates":[8.320855,54.9374718]},"properties":{"maxheight":"none"}},{"type":"Feature","geometry":{"type":"Point","coordinates":[8.3203522,54.9366934]},"properties":{"maxheight":"none"}},{"type":"Feature","geometry":{"type":"Point","coordinates":[8.3215161,54.9352876]},"properties":{"maxheight":"none"}},{"type":"Feature","geometry":{"type":"Point","coordinates":[8.3193994,54.9352597]},"properties":{"maxheight":"none"}},{"type":"Feature","geometry":{"type":"Point","coordinates":[8.3073109,54.921492]},"properties":{"maxheight":"2"}},{"type":"Feature","geometry":{"type":"Point","coordinates":[8.9746593,54.6165274]},"properties":{"maxheight":"3.2"}},{"type":"Feature","geometry":{"type":"Point","coordinates":[8.8594061,54.129922]},"properties":{"maxweight":"7.5"}},{"type":"Feature","geometry":{"type":"Point","coordinates":[8.7792931,54.3321109]},"properties":{"maxweight":"10"}},{"type":"Feature","geometry":{"type":"Point","coordinates":[8.670073,54.9109409]},"properties":{"hgv":"destination"}},{"type":"Feature","geometry":{"type":"Point","coordinates":[8.7109241,54.7306804]},"properties":{"hgv":"delivery"}},{"type":"Feature","geometry":{"type":"Point","coordinates":[8.8962436,54.1399994]},"properties":{"maxweight":"7.5"}},{"type":"Feature","geometry":{"type":"Point","coordinates":[8.8980148,54.3033433]},"properties":{"maxweight":"10"}},{"type":"Feature","geometry":{"type":"Point","coordinates":[8.9501639,54.3588899]},"properties":{"maxweight":"10"}},{"type":"Feature","geometry":{"type":"Point","coordinates":[8.9589402,54.3097052]},"properties":{"hgv":"no"}},{"type":"Feature","geometry":{"type":"Point","coordinates":[8.9584742,54.3097149]},"properties":{"hgv":"designated"}},{"type":"Feature","geometry":{"type":"Point","coordinates":[8.9587183,54.3093323]},"properties":{"hgv":"designated"}},{"type":"Feature","geometry":{"type":"Point","coordinates":[8.8974267,54.0144548]},"properties":{"maxweight":"7.5"}},{"type":"Feature","geometry":{"type":"Point","coordinates":[8.9387342,54.0131023]},"properties":{"maxweight":"12"}},{"type":"Feature","geometry":{"type":"Point","coordinates":[8.9922164,54.6083037]},"properties":{"maxheight":"3.6"}},{"type":"Feature","geometry":{"type":"Point","coordinates":[8.9900504,54.6078797]},"properties":{"maxheight":"3.6"}},{"type":"Feature","geometry":{"type":"Point","coordinates":[8.8974749,54.3034729]},"properties":{"maxweight":"10"}},{"type":"Feature","geometry":{"type":"Point","coordinates":[8.6928698,54.7299435]},"properties":{"hgv":"designated"}},{"type":"Feature","geometry":{"type":"Point","coordinates":[8.6737174,54.3450974]},"properties":{"maxweight":"16"}},{"type":"Feature","geometry":{"type":"Point","coordinates":[8.9535021,54.7766947]},"properties":{"maxweight":"16"}},{"type":"Feature","geometry":{"type":"Point","coordinates":[8.9521097,54.77643]},"properties":{"maxweight":"16"}},{"type":"Feature","geometry":{"type":"Point","coordinates":[8.5801566,54.7103557]},"properties":{"maxweight":"3.5"}},{"type":"Feature","geometry":{"type":"Point","coordinates":[8.3970598,54.6288912]},"properties":{"hgv":"no"}},{"type":"Feature","geometry":{"type":"Point","coordinates":[8.3974059,54.6282995]},"properties":{"hgv":"designated"}},{"type":"Feature","geometry":{"type":"Point","coordinates":[8.3973526,54.6283002]},"properties":{"hgv":"designated"}},{"type":"Feature","geometry":{"type":"Point","coordinates":[8.3972993,54.6283009]},"properties":{"hgv":"designated"}},{"type":"Feature","geometry":{"type":"Point","coordinates":[8.3972461,54.6283016]},"properties":{"hgv":"designated"}},{"type":"Feature","geometry":{"type":"Point","coordinates":[8.3971928,54.6283024]},"properties":{"hgv":"no"}},{"type":"Feature","geometry":{"type":"Point","coordinates":[8.3971538,54.6283029]},"properties":{"hgv":"no"}},{"type":"Feature","geometry":{"type":"Point","coordinates":[8.3971149,54.6283034]},"properties":{"hgv":"no"}},{"type":"Feature","geometry":{"type":"Point","coordinates":[8.3970759,54.6283039]},"properties":{"hgv":"no"}},{"type":"Feature","geometry":{"type":"Point","coordinates":[8.397037,54.6283045]},"properties":{"hgv":"no"}},{"type":"Feature","geometry":{"type":"Point","coordinates":[8.3969981,54.628305]},"properties":{"hgv":"no"}},{"type":"Feature","geometry":{"type":"Point","coordinates":[8.3969591,54.6283055]},"properties":{"hgv":"no"}},{"type":"Feature","geometry":{"type":"Point","coordinates":[8.3969202,54.628306]},"properties":{"hgv":"no"}},{"type":"Feature","geometry":{"type":"Point","coordinates":[8.9640199,54.2040622]},"properties":{"maxweight":"16"}},{"type":"Feature","geometry":{"type":"Point","coordinates":[8.7885985,54.8104217]},"properties":{"maxweight":"12"}},{"type":"Feature","geometry":{"type":"Point","coordinates":[8.7862489,54.8111575]},"properties":{"maxweight":"12"}},{"type":"Feature","geometry":{"type":"Point","coordinates":[8.7863588,54.8111227]},"properties":{"maxweight":"12"}},{"type":"Feature","geometry":{"type":"Point","coordinates":[8.6979544,54.7969263]},"properties":{"maxweight":"16"}},{"type":"Feature","geometry":{"type":"Point","coordinates":[8.8202777,54.5045098]},"properties":{"maxheight":"default"}},{"type":"Feature","geometry":{"type":"Point","coordinates":[8.6081119,54.3171904]},"properties":{"maxheight":"2.00"}},{"type":"Feature","geometry":{"type":"Point","coordinates":[8.3552782,54.8908816]},"properties":{"maxweight":"3.9"}},{"type":"Feature","geometry":{"type":"Point","coordinates":[8.3622555,54.8906759]},"properties":{"maxweight":"3.9"}},{"type":"Feature","geometry":{"type":"Point","coordinates":[8.3497748,54.9329723]},"properties":{"maxweight":"7.5"}},{"type":"Feature","geometry":{"type":"Point","coordinates":[8.8581075,54.1300901]},"properties":{"maxheight":"below_default"}},{"type":"Feature","geometry":{"type":"Point","coordinates":[8.8601876,54.1333138]},"properties":{"maxheight":"2.4"}},{"type":"Feature","geometry":{"type":"Point","coordinates":[8.3126856,54.905216]},"properties":{"maxheight":"4.05"}},{"type":"Feature","geometry":{"type":"Point","coordinates":[8.3059093,54.8891157]},"properties":{"maxweight":"7.5"}},{"type":"Feature","geometry":{"type":"Point","coordinates":[8.8734805,54.2366159]},"properties":{"maxweight":"9"}},{"type":"Feature","geometry":{"type":"Point","coordinates":[8.8750702,54.2380467]},"properties":{"maxweight":"9"}},{"type":"Feature","geometry":{"type":"Point","coordinates":[8.710863,54.7306453]},"properties":{"hgv":"delivery"}},{"type":"Feature","geometry":{"type":"Point","coordinates":[8.8155089,54.503326]},"properties":{"maxheight":"default"}},{"type":"Feature","geometry":{"type":"Point","coordinates":[8.8975988,54.3593205]},"properties":{"maxweight":"10"}},{"type":"Feature","geometry":{"type":"Point","coordinates":[8.9013482,54.3618206]},"properties":{"maxweight":"10"}},{"type":"Feature","geometry":{"type":"Point","coordinates":[8.9027669,54.3629886]},"properties":{"maxweight":"10"}},{"type":"Feature","geometry":{"type":"Point","coordinates":[8.8913455,54.3541869]},"properties":{"maxweight":"10"}},{"type":"Feature","geometry":{"type":"Point","coordinates":[8.9047798,54.3648777]},"properties":{"maxweight":"10"}},{"type":"Feature","geometry":{"type":"Point","coordinates":[8.8860098,54.3511753]},"properties":{"maxweight":"10"}},{"type":"Feature","geometry":{"type":"Point","coordinates":[8.8993257,54.3607608]},"properties":{"maxweight":"10"}},{"type":"Feature","geometry":{"type":"Point","coordinates":[8.8985587,54.3599515]},"properties":{"maxweight":"10"}},{"type":"Feature","geometry":{"type":"Point","coordinates":[8.9032252,54.363581]},"properties":{"maxweight":"10"}},{"type":"Feature","geometry":{"type":"Point","coordinates":[8.8573732,54.1282492]},"properties":{"maxweight":"7.5"}},{"type":"Feature","geometry":{"type":"Point","coordinates":[8.8396057,54.0295021]},"properties":{"hgv":"no"}},{"type":"Feature","geometry":{"type":"Point","coordinates":[8.9506234,54.0930646]},"properties":{"maxweight":"30"}},{"type":"Feature","geometry":{"type":"Point","coordinates":[8.9508691,54.092664]},"properties":{"maxweight":"30"}},{"type":"Feature","geometry":{"type":"Point","coordinates":[8.8579306,54.1283849]},"properties":{"maxweight":"7.5"}},{"type":"Feature","geometry":{"type":"Point","coordinates":[8.857984,54.1279914]},"properties":{"maxweight":"7.5"}},{"type":"Feature","geometry":{"type":"Point","coordinates":[8.3197598,54.9357931]},"properties":{"maxheight":"none"}},{"type":"Feature","geometry":{"type":"Point","coordinates":[8.919572,54.3372939]},"properties":{"maxweight":"10"}},{"type":"Feature","geometry":{"type":"Point","coordinates":[8.977454,54.1854875]},"properties":{"maxweight":"16"}},{"type":"Feature","geometry":{"type":"Point","coordinates":[8.9642238,54.2037072]},"properties":{"maxweight":"16"}},{"type":"Feature","geometry":{"type":"Point","coordinates":[8.8613225,54.2451872]},"properties":{"maxweight":"16"}},{"type":"Feature","geometry":{"type":"Point","coordinates":[8.8765581,54.2393826]},"properties":{"maxweight":"9"}},{"type":"Feature","geometry":{"type":"Point","coordinates":[8.9735305,54.008627]},"properties":{"maxweight":"9"}},{"type":"Feature","geometry":{"type":"Point","coordinates":[8.9573658,54.0873726]},"properties":{"maxheight":"2"}},{"type":"Feature","geometry":{"type":"Point","coordinates":[8.6843276,54.5355288]},"properties":{"maxweight":"2"}},{"type":"Feature","geometry":{"type":"Point","coordinates":[8.6085156,54.3276853]},"properties":{"maxheight":"1.2","maxwidth":"1.2"}},{"type":"Feature","geometry":{"type":"Point","coordinates":[8.983479,54.1885306]},"properties":{"maxweight":"16"}},{"type":"Feature","geometry":{"type":"Point","coordinates":[8.8691664,54.3172816]},"properties":{"maxweight":"10"}},{"type":"Feature","geometry":{"type":"Point","coordinates":[8.9759276,54.1954371]},"properties":{"maxweight":"16"}},{"type":"Feature","geometry":{"type":"Point","coordinates":[8.9038524,54.2205537]},"properties":{"maxweight":"9"}},{"type":"Feature","geometry":{"type":"Point","coordinates":[8.9537952,54.6648842]},"properties":{"maxheight":"default"}},{"type":"Feature","geometry":{"type":"Point","coordinates":[8.9535318,54.6644704]},"properties":{"maxheight":"default"}},{"type":"Feature","geometry":{"type":"Point","coordinates":[8.8693433,54.2057949]},"properties":{"maxweight":"9"}},{"type":"Feature","geometry":{"type":"Point","coordinates":[8.7791355,54.3344372]},"properties":{"maxweight":"10"}}]}